{"type":"FeatureCollection","features":[{"type":"Feature","geometry":{"type":"LineString","coordinates":[[-7.53,38.21],[-7.46,38.18]]},"properties":{"osm_type":"way","osm_id":6001,"country":"PT","name":"Canal do Alqueva (amostra)","operator":"EDIA","wikidata":null,"wikipedia":null}},{"type":"Feature","geometry":{"type":"LineString","coordinates":[[-7.51,38.195],[-7.47,38.175]]},"properties":{"osm_type":"way","osm_id":6002,"country":"PT","name":"Conduta de Alqueva (amostra)","operator":null,"wikidata":null,"wikipedia":null}}]}