{"type":"FeatureCollection","features":[{"type":"Feature","geometry":{"type":"Point","coordinates":[-8.316,39.5435]},"properties":{"name":"Barragem de Castelo de Bode","name_pt":null,"name_es":null,"operator":"EDP","height":115.0,"ele":null,"start_date":"1951","wikidata":"Q964707","wikipedia":"pt:Barragem de Castelo de Bode","ref":"PT-DAM-1001","volume":null,"dam_id":"way/1001","osm_type":"way","osm_id":1001,"country":"PT","uso":"hidroelétrica","uso_fonte":"albufeira (usage=hydro); central associada (1)","river":null,"reservoir_id":"way/2001","reservoir_name":"Albufeira de Castelo de Bode","reservoir_area_ha":80.2,"plant_ids":["node/3002"],"plant_names":["Central Hidroelétrica de Castelo de Bode"],"plant_power_mw":138.0,"members":["way/1001"]}},{"type":"Feature","geometry":{"type":"Point","coordinates":[-7.499,38.1965]},"properties":{"name":"Barragem de Alqueva","name_pt":null,"name_es":"Presa de Alqueva","operator":"EDP","height":96.0,"ele":null,"start_date":"2002","wikidata":"Q1156719","wikipedia":"pt:Barragem de Alqueva","ref":null,"volume":null,"dam_id":"way/1002","osm_type":"way","osm_id":1002,"country":"PT","uso":"misto","uso_fonte":"albufeira (usage=irrigation); central associada (1)","river":null,"reservoir_id":"relation/2002","reservoir_name":"Albufeira de Alqueva","reservoir_area_ha":38794.3,"plant_ids":["node/3001"],"plant_names":["Central Hidroelétrica de Alqueva"],"plant_power_mw":520.0,"members":["way/1002"]}},{"type":"Feature","geometry":{"type":"Point","coordinates":[-8.216,40.343]},"properties":{"name":"Barragem da Aguieira","name_pt":null,"name_es":null,"operator":"EDP","height":89.0,"ele":null,"start_date":"1981","wikidata":"Q964710","wikipedia":"pt:Barragem da Aguieira","ref":null,"volume":null,"dam_id":"way/1003","osm_type":"way","osm_id":1003,"country":"PT","uso":"hidroelétrica","uso_fonte":"albufeira (usage=hydro)","river":null,"reservoir_id":"way/2003","reservoir_name":"Albufeira da Aguieira","reservoir_area_ha":3302.0,"plant_ids":[],"plant_names":[],"plant_power_mw":null,"members":["way/1003"]}},{"type":"Feature","geometry":{"type":"Point","coordinates":[-7.48,37.32]},"properties":{"name":"Barragem de Odeleite","name_pt":null,"name_es":null,"operator":"Águas do Algarve","height":65.0,"ele":null,"start_date":"1997","wikidata":"Q964720","wikipedia":null,"ref":null,"volume":null,"dam_id":"way/1004","osm_type":"way","osm_id":1004,"country":"PT","uso":"abastecimento","uso_fonte":"albufeira (usage=water_supply)","river":null,"reservoir_id":"way/2004","reservoir_name":"Albufeira de Odeleite","reservoir_area_ha":393.5,"plant_ids":[],"plant_names":[],"plant_power_mw":null,"members":["way/1004"]}},{"type":"Feature","geometry":{"type":"Point","coordinates":[-8.2,41.87]},"properties":{"name":"Barragem do Alto Lindoso","name_pt":null,"name_es":null,"operator":"EDP","height":110.0,"ele":null,"start_date":"1992","wikidata":"Q964730","wikipedia":"pt:Barragem do Alto Lindoso","ref":null,"volume":null,"dam_id":"way/1005","osm_type":"way","osm_id":1005,"country":"PT","uso":"hidroelétrica","uso_fonte":"albufeira (usage=hydro)","river":null,"reservoir_id":"way/2005","reservoir_name":"Albufeira do Alto Lindoso","reservoir_area_ha":368.8,"plant_ids":[],"plant_names":[],"plant_power_mw":null,"members":["way/1005"]}},{"type":"Feature","geometry":{"type":"Point","coordinates":[-7.05,38.85]},"properties":{"name":"Barragem do Caia","name_pt":null,"name_es":null,"operator":"Associação de Regantes","height":35.0,"ele":null,"start_date":"1967","wikidata":null,"wikipedia":null,"ref":null,"volume":null,"dam_id":"node/1100","osm_type":"node","osm_id":1100,"country":"PT","uso":"regadio","uso_fonte":"albufeira (usage=irrigation)","river":null,"reservoir_id":"way/2006","reservoir_name":"Albufeira do Caia","reservoir_area_ha":385.5,"plant_ids":[],"plant_names":[],"plant_power_mw":null,"members":["node/1100"]}},{"type":"Feature","geometry":{"type":"Point","coordinates":[-7.9,38.02]},"properties":{"name":"Barragem do Roxo","name_pt":null,"name_es":null,"operator":null,"height":32.0,"ele":null,"start_date":null,"wikidata":null,"wikipedia":null,"ref":null,"volume":null,"dam_id":"node/1101","osm_type":"node","osm_id":1101,"country":"PT","uso":"desconhecido","uso_fonte":"sem tags de uso","river":null,"reservoir_id":null,"reservoir_name":null,"reservoir_area_ha":null,"plant_ids":[],"plant_names":[],"plant_power_mw":null,"members":["node/1101"]}}]}