{"type":"FeatureCollection","features":[{"type":"Feature","geometry":{"type":"Point","coordinates":[-6.621,41.241]},"properties":{"name":"Presa de Aldeadávila","name_pt":"Barragem de Aldeadávila","name_es":null,"operator":"Iberdrola","height":140.0,"ele":null,"start_date":"1962","wikidata":"Q9099977","wikipedia":"es:Presa de Aldeadávila","ref":null,"volume":null,"dam_id":"way/8001","osm_type":"way","osm_id":8001,"country":"ES","uso":"hidroelétrica","uso_fonte":"albufeira (usage=hydro); central associada (1)","river":null,"reservoir_id":"way/9001","reservoir_name":"Embalse de Aldeadávila","reservoir_area_ha":1117.1,"plant_ids":["node/9101"],"plant_names":["Central de Aldeadávila"],"plant_power_mw":1148.0,"members":["way/8001"]}},{"type":"Feature","geometry":{"type":"Point","coordinates":[-6.336,41.296]},"properties":{"name":"Presa de Almendra","name_pt":"Barragem de Almendra","name_es":null,"operator":"Iberdrola","height":202.0,"ele":null,"start_date":"1970","wikidata":"Q9099978","wikipedia":"es:Presa de Almendra","ref":null,"volume":null,"dam_id":"way/8002","osm_type":"way","osm_id":8002,"country":"ES","uso":"hidroelétrica","uso_fonte":"albufeira (usage=hydro); central associada (1)","river":null,"reservoir_id":"way/9002","reservoir_name":"Embalse de Almendra","reservoir_area_ha":697.6,"plant_ids":["node/9102"],"plant_names":["Central de Almendra"],"plant_power_mw":810.0,"members":["way/8002"]}}]}