{"type":"FeatureCollection","features":[{"type":"Feature","geometry":{"type":"Point","coordinates":[-3.57092,40.99268]},"properties":{"osm_type":"node","osm_id":269072720,"country":"ES","name":"Puentes Viejas","operator":null,"wikidata":null,"wikipedia":null,"power_mw":null,"method":null}},{"type":"Feature","geometry":{"type":"Point","coordinates":[-4.3109,40.37267]},"properties":{"osm_type":"node","osm_id":329979219,"country":"ES","name":"Central de San Juan","operator":null,"wikidata":null,"wikipedia":null,"power_mw":null,"method":null}},{"type":"Feature","geometry":{"type":"Point","coordinates":[-5.40519,36.49556]},"properties":{"osm_type":"node","osm_id":370855144,"country":"ES","name":null,"operator":null,"wikidata":null,"wikipedia":null,"power_mw":null,"method":null}},{"type":"Feature","geometry":{"type":"Point","coordinates":[-2.33798,42.46147]},"properties":{"osm_type":"node","osm_id":507103911,"country":"ES","name":"Electra Cárcar","operator":null,"wikidata":null,"wikipedia":null,"power_mw":null,"method":null}},{"type":"Feature","geometry":{"type":"Point","coordinates":[-0.59984,40.62626]},"properties":{"osm_type":"node","osm_id":746790509,"country":"ES","name":"Antigua central hidroelectrica de Pitarque","operator":"Endesa Generación","wikidata":null,"wikipedia":null,"power_mw":null,"method":"water-storage"}},{"type":"Feature","geometry":{"type":"Point","coordinates":[-3.77261,40.9461]},"properties":{"osm_type":"node","osm_id":1069810401,"country":"ES","name":null,"operator":null,"wikidata":null,"wikipedia":null,"power_mw":null,"method":null}},{"type":"Feature","geometry":{"type":"Point","coordinates":[-3.45765,40.88206]},"properties":{"osm_type":"node","osm_id":1104405364,"country":"ES","name":"Minicentral de Vandentales","operator":null,"wikidata":null,"wikipedia":null,"power_mw":null,"method":null}},{"type":"Feature","geometry":{"type":"Point","coordinates":[-5.65047,36.15383]},"properties":{"osm_type":"node","osm_id":1135695347,"country":"ES","name":null,"operator":null,"wikidata":null,"wikipedia":null,"power_mw":null,"method":null}},{"type":"Feature","geometry":{"type":"Point","coordinates":[0.0164,41.95519]},"properties":{"osm_type":"node","osm_id":1210573724,"country":"ES","name":null,"operator":null,"wikidata":null,"wikipedia":null,"power_mw":null,"method":null}},{"type":"Feature","geometry":{"type":"Point","coordinates":[-5.44467,39.61829]},"properties":{"osm_type":"node","osm_id":1254206389,"country":"ES","name":"Salto del Viejas","operator":null,"wikidata":null,"wikipedia":null,"power_mw":null,"method":null}},{"type":"Feature","geometry":{"type":"Point","coordinates":[-7.31766,42.54163]},"properties":{"osm_type":"node","osm_id":1474526148,"country":"ES","name":"Central de Loureiro","operator":null,"wikidata":null,"wikipedia":null,"power_mw":null,"method":null}},{"type":"Feature","geometry":{"type":"Point","coordinates":[1.13261,42.41696]},"properties":{"osm_type":"node","osm_id":1487096204,"country":"ES","name":null,"operator":null,"wikidata":null,"wikipedia":null,"power_mw":null,"method":"run-of-the-river"}},{"type":"Feature","geometry":{"type":"Point","coordinates":[-5.83369,42.54837]},"properties":{"osm_type":"node","osm_id":1547113515,"country":"ES","name":null,"operator":null,"wikidata":null,"wikipedia":null,"power_mw":null,"method":null}},{"type":"Feature","geometry":{"type":"Point","coordinates":[-5.83547,43.03009]},"properties":{"osm_type":"node","osm_id":1554273291,"country":"ES","name":"Minicentral Güerna","operator":null,"wikidata":null,"wikipedia":null,"power_mw":null,"method":null}},{"type":"Feature","geometry":{"type":"Point","coordinates":[-8.24148,42.82858]},"properties":{"osm_type":"node","osm_id":1578530205,"country":"ES","name":null,"operator":null,"wikidata":null,"wikipedia":null,"power_mw":null,"method":null}},{"type":"Feature","geometry":{"type":"Point","coordinates":[-8.19023,42.85556]},"properties":{"osm_type":"node","osm_id":1578530228,"country":"ES","name":null,"operator":null,"wikidata":null,"wikipedia":null,"power_mw":null,"method":"water-storage"}},{"type":"Feature","geometry":{"type":"Point","coordinates":[-6.27074,41.99318]},"properties":{"osm_type":"node","osm_id":1578601511,"country":"ES","name":null,"operator":null,"wikidata":null,"wikipedia":null,"power_mw":null,"method":"water-storage"}},{"type":"Feature","geometry":{"type":"Point","coordinates":[-4.62919,37.95541]},"properties":{"osm_type":"node","osm_id":1588559954,"country":"ES","name":null,"operator":null,"wikidata":null,"wikipedia":null,"power_mw":null,"method":"water-storage"}},{"type":"Feature","geometry":{"type":"Point","coordinates":[-4.67309,38.04136]},"properties":{"osm_type":"node","osm_id":1588559955,"country":"ES","name":null,"operator":null,"wikidata":null,"wikipedia":null,"power_mw":null,"method":"water-storage"}},{"type":"Feature","geometry":{"type":"Point","coordinates":[-6.14224,40.18016]},"properties":{"osm_type":"node","osm_id":1589975131,"country":"ES","name":null,"operator":null,"wikidata":null,"wikipedia":null,"power_mw":null,"method":null}},{"type":"Feature","geometry":{"type":"Point","coordinates":[-6.13361,40.21965]},"properties":{"osm_type":"node","osm_id":1589975174,"country":"ES","name":null,"operator":null,"wikidata":null,"wikipedia":null,"power_mw":null,"method":"water-storage"}},{"type":"Feature","geometry":{"type":"Point","coordinates":[-2.69278,41.02661]},"properties":{"osm_type":"node","osm_id":1749878735,"country":"ES","name":"Salto Gimena","operator":null,"wikidata":null,"wikipedia":null,"power_mw":null,"method":null}},{"type":"Feature","geometry":{"type":"Point","coordinates":[-5.49432,40.8732]},"properties":{"osm_type":"node","osm_id":1977586711,"country":"ES","name":"Villagonzalo","operator":null,"wikidata":null,"wikipedia":null,"power_mw":null,"method":null}},{"type":"Feature","geometry":{"type":"Point","coordinates":[-2.26469,39.88522]},"properties":{"osm_type":"node","osm_id":2095893389,"country":"ES","name":"Central Hidroeléctrica El Castellar","operator":null,"wikidata":null,"wikipedia":null,"power_mw":null,"method":null}},{"type":"Feature","geometry":{"type":"Point","coordinates":[-4.24623,40.33059]},"properties":{"osm_type":"node","osm_id":2189695324,"country":"ES","name":"Central de Picadas","operator":null,"wikidata":null,"wikipedia":null,"power_mw":null,"method":null}},{"type":"Feature","geometry":{"type":"Point","coordinates":[-3.33988,42.26444]},"properties":{"osm_type":"node","osm_id":2255777093,"country":"ES","name":null,"operator":null,"wikidata":null,"wikipedia":null,"power_mw":null,"method":"water-storage"}},{"type":"Feature","geometry":{"type":"Point","coordinates":[-3.3635,36.94241]},"properties":{"osm_type":"node","osm_id":2338142225,"country":"ES","name":null,"operator":null,"wikidata":null,"wikipedia":null,"power_mw":null,"method":null}},{"type":"Feature","geometry":{"type":"Point","coordinates":[0.20848,42.05422]},"properties":{"osm_type":"node","osm_id":2499498624,"country":"ES","name":"Central de Torre Arias I","operator":null,"wikidata":null,"wikipedia":null,"power_mw":null,"method":null}},{"type":"Feature","geometry":{"type":"Point","coordinates":[0.19208,42.03096]},"properties":{"osm_type":"node","osm_id":2499499562,"country":"ES","name":"Central de Torre Arias II","operator":null,"wikidata":null,"wikipedia":null,"power_mw":null,"method":null}},{"type":"Feature","geometry":{"type":"Point","coordinates":[0.29293,42.11359]},"properties":{"osm_type":"node","osm_id":2506187956,"country":"ES","name":"Central eléctrica de San José","operator":null,"wikidata":null,"wikipedia":null,"power_mw":null,"method":null}},{"type":"Feature","geometry":{"type":"Point","coordinates":[-7.99921,43.23021]},"properties":{"osm_type":"node","osm_id":2650162318,"country":"ES","name":null,"operator":null,"wikidata":null,"wikipedia":null,"power_mw":null,"method":"water-pumped-storage"}},{"type":"Feature","geometry":{"type":"Point","coordinates":[0.73589,41.70025]},"properties":{"osm_type":"node","osm_id":2816124548,"country":"ES","name":"Central Hidroelèctrica de Térmens","operator":null,"wikidata":null,"wikipedia":null,"power_mw":12.0,"method":"water-storage"}},{"type":"Feature","geometry":{"type":"Point","coordinates":[-4.11477,41.61867]},"properties":{"osm_type":"node","osm_id":3004065680,"country":"ES","name":"La Harinera","operator":null,"wikidata":null,"wikipedia":null,"power_mw":null,"method":"run-of-the-river"}},{"type":"Feature","geometry":{"type":"Point","coordinates":[0.2304,42.10483]},"properties":{"osm_type":"node","osm_id":3028542742,"country":"ES","name":null,"operator":null,"wikidata":null,"wikipedia":null,"power_mw":null,"method":"water-storage"}},{"type":"Feature","geometry":{"type":"Point","coordinates":[-3.5863,42.03857]},"properties":{"osm_type":"node","osm_id":3055303151,"country":"ES","name":null,"operator":null,"wikidata":null,"wikipedia":null,"power_mw":null,"method":"run-of-the-river"}},{"type":"Feature","geometry":{"type":"Point","coordinates":[-3.37074,42.30396]},"properties":{"osm_type":"node","osm_id":3060113902,"country":"ES","name":null,"operator":null,"wikidata":null,"wikipedia":null,"power_mw":null,"method":"water-storage"}},{"type":"Feature","geometry":{"type":"Point","coordinates":[-7.63116,43.08005]},"properties":{"osm_type":"node","osm_id":3199439296,"country":"ES","name":null,"operator":null,"wikidata":null,"wikipedia":null,"power_mw":null,"method":"run-of-the-river"}},{"type":"Feature","geometry":{"type":"Point","coordinates":[-4.29378,42.66356]},"properties":{"osm_type":"node","osm_id":3206626567,"country":"ES","name":null,"operator":null,"wikidata":null,"wikipedia":null,"power_mw":null,"method":null}},{"type":"Feature","geometry":{"type":"Point","coordinates":[-5.81603,42.69341]},"properties":{"osm_type":"node","osm_id":3295237875,"country":"ES","name":null,"operator":null,"wikidata":null,"wikipedia":null,"power_mw":null,"method":null}},{"type":"Feature","geometry":{"type":"Point","coordinates":[-2.37756,40.47896]},"properties":{"osm_type":"node","osm_id":3350837432,"country":"ES","name":null,"operator":null,"wikidata":null,"wikipedia":null,"power_mw":null,"method":null}},{"type":"Feature","geometry":{"type":"Point","coordinates":[-1.61809,39.15852]},"properties":{"osm_type":"node","osm_id":3377686633,"country":"ES","name":"Central eléctrica Moranchel","operator":null,"wikidata":null,"wikipedia":null,"power_mw":null,"method":null}},{"type":"Feature","geometry":{"type":"Point","coordinates":[-2.79673,38.17467]},"properties":{"osm_type":"node","osm_id":3378037759,"country":"ES","name":null,"operator":null,"wikidata":null,"wikipedia":null,"power_mw":null,"method":"water-storage"}},{"type":"Feature","geometry":{"type":"Point","coordinates":[0.21398,42.31331]},"properties":{"osm_type":"node","osm_id":3744890580,"country":"ES","name":null,"operator":null,"wikidata":null,"wikipedia":null,"power_mw":null,"method":"water-storage"}},{"type":"Feature","geometry":{"type":"Point","coordinates":[0.21408,42.31335]},"properties":{"osm_type":"node","osm_id":3744890584,"country":"ES","name":null,"operator":null,"wikidata":null,"wikipedia":null,"power_mw":null,"method":"water-storage"}},{"type":"Feature","geometry":{"type":"Point","coordinates":[-0.33016,41.99653]},"properties":{"osm_type":"node","osm_id":3746063402,"country":"ES","name":null,"operator":null,"wikidata":null,"wikipedia":null,"power_mw":null,"method":"water-storage"}},{"type":"Feature","geometry":{"type":"Point","coordinates":[0.23381,42.15251]},"properties":{"osm_type":"node","osm_id":3749522681,"country":"ES","name":null,"operator":null,"wikidata":null,"wikipedia":null,"power_mw":null,"method":"water-storage"}},{"type":"Feature","geometry":{"type":"Point","coordinates":[0.23378,42.15262]},"properties":{"osm_type":"node","osm_id":3749522688,"country":"ES","name":null,"operator":null,"wikidata":null,"wikipedia":null,"power_mw":null,"method":"water-storage"}},{"type":"Feature","geometry":{"type":"Point","coordinates":[-5.80328,42.61156]},"properties":{"osm_type":"node","osm_id":3763556314,"country":"ES","name":"Cimanes del Tejar","operator":null,"wikidata":null,"wikipedia":null,"power_mw":null,"method":null}},{"type":"Feature","geometry":{"type":"Point","coordinates":[-0.73672,42.37098]},"properties":{"osm_type":"node","osm_id":4289479898,"country":"ES","name":null,"operator":null,"wikidata":null,"wikipedia":null,"power_mw":4.9,"method":"water-storage"}},{"type":"Feature","geometry":{"type":"Point","coordinates":[-5.43659,43.08029]},"properties":{"osm_type":"node","osm_id":4416677301,"country":"ES","name":null,"operator":null,"wikidata":null,"wikipedia":null,"power_mw":null,"method":"run-of-the-river"}},{"type":"Feature","geometry":{"type":"Point","coordinates":[-4.99854,37.51521]},"properties":{"osm_type":"node","osm_id":5027790882,"country":"ES","name":null,"operator":null,"wikidata":null,"wikipedia":null,"power_mw":null,"method":null}},{"type":"Feature","geometry":{"type":"Point","coordinates":[-1.77449,38.36492]},"properties":{"osm_type":"node","osm_id":5071704405,"country":"ES","name":null,"operator":null,"wikidata":null,"wikipedia":null,"power_mw":null,"method":"water-storage"}},{"type":"Feature","geometry":{"type":"Point","coordinates":[-5.29422,42.92734]},"properties":{"osm_type":"node","osm_id":5382858596,"country":"ES","name":"Central eléctrica del Porma","operator":"Naturener","wikidata":null,"wikipedia":null,"power_mw":23.0,"method":"water-storage"}},{"type":"Feature","geometry":{"type":"Point","coordinates":[-6.40148,42.37827]},"properties":{"osm_type":"node","osm_id":5459730090,"country":"ES","name":"Cabrito II","operator":null,"wikidata":null,"wikipedia":null,"power_mw":427.0,"method":"run-of-the-river"}},{"type":"Feature","geometry":{"type":"Point","coordinates":[-6.40142,42.37828]},"properties":{"osm_type":"node","osm_id":5459730091,"country":"ES","name":"Cabrito I","operator":null,"wikidata":null,"wikipedia":null,"power_mw":622.0,"method":"run-of-the-river"}},{"type":"Feature","geometry":{"type":"Point","coordinates":[-4.22615,43.29066]},"properties":{"osm_type":"node","osm_id":5753553389,"country":"ES","name":"Antigua fábrica de luz","operator":"Antigua fábrica de Luz","wikidata":null,"wikipedia":null,"power_mw":null,"method":"run-of-the-river"}},{"type":"Feature","geometry":{"type":"Point","coordinates":[2.60081,41.98442]},"properties":{"osm_type":"node","osm_id":5827253654,"country":"ES","name":null,"operator":null,"wikidata":null,"wikipedia":null,"power_mw":null,"method":null}},{"type":"Feature","geometry":{"type":"Point","coordinates":[2.48062,41.7551]},"properties":{"osm_type":"node","osm_id":5904975728,"country":"ES","name":"Central de Dalt","operator":null,"wikidata":null,"wikipedia":null,"power_mw":null,"method":null}},{"type":"Feature","geometry":{"type":"Point","coordinates":[1.87217,42.24008]},"properties":{"osm_type":"node","osm_id":6070521711,"country":"ES","name":null,"operator":null,"wikidata":null,"wikipedia":null,"power_mw":null,"method":null}},{"type":"Feature","geometry":{"type":"Point","coordinates":[-5.07658,43.1085]},"properties":{"osm_type":"node","osm_id":6210699936,"country":"ES","name":null,"operator":"Central Hidroeléctrica de Pío","wikidata":null,"wikipedia":null,"power_mw":null,"method":null}},{"type":"Feature","geometry":{"type":"Point","coordinates":[-5.41855,36.22613]},"properties":{"osm_type":"node","osm_id":6223116177,"country":"ES","name":null,"operator":null,"wikidata":null,"wikipedia":null,"power_mw":null,"method":null}},{"type":"Feature","geometry":{"type":"Point","coordinates":[-6.25092,40.09957]},"properties":{"osm_type":"node","osm_id":6255693003,"country":"ES","name":null,"operator":"Red Eléctrica de España","wikidata":null,"wikipedia":null,"power_mw":null,"method":null}},{"type":"Feature","geometry":{"type":"Point","coordinates":[0.61255,41.97719]},"properties":{"osm_type":"node","osm_id":6858364107,"country":"ES","name":null,"operator":"Endesa","wikidata":null,"wikipedia":null,"power_mw":null,"method":"water-storage"}},{"type":"Feature","geometry":{"type":"Point","coordinates":[0.61236,41.97725]},"properties":{"osm_type":"node","osm_id":6858364108,"country":"ES","name":null,"operator":"Endesa","wikidata":null,"wikipedia":null,"power_mw":null,"method":"water-storage"}},{"type":"Feature","geometry":{"type":"Point","coordinates":[0.61219,41.97726]},"properties":{"osm_type":"node","osm_id":6858364109,"country":"ES","name":null,"operator":"Endesa","wikidata":null,"wikipedia":null,"power_mw":null,"method":"water-storage"}},{"type":"Feature","geometry":{"type":"Point","coordinates":[0.03095,42.17139]},"properties":{"osm_type":"node","osm_id":7072282354,"country":"ES","name":null,"operator":null,"wikidata":null,"wikipedia":null,"power_mw":null,"method":null}},{"type":"Feature","geometry":{"type":"Point","coordinates":[2.8796,42.17696]},"properties":{"osm_type":"node","osm_id":7332930780,"country":"ES","name":null,"operator":null,"wikidata":null,"wikipedia":null,"power_mw":null,"method":null}},{"type":"Feature","geometry":{"type":"Point","coordinates":[-2.61463,38.40373]},"properties":{"osm_type":"node","osm_id":7458378253,"country":"ES","name":null,"operator":null,"wikidata":null,"wikipedia":null,"power_mw":null,"method":"water-storage"}},{"type":"Feature","geometry":{"type":"Point","coordinates":[-6.47372,41.3001]},"properties":{"osm_type":"node","osm_id":7521835687,"country":"ES","name":null,"operator":"Movhera","wikidata":null,"wikipedia":null,"power_mw":191.0,"method":"water-storage"}},{"type":"Feature","geometry":{"type":"Point","coordinates":[-5.57877,42.59542]},"properties":{"osm_type":"node","osm_id":7524088221,"country":"ES","name":null,"operator":null,"wikidata":null,"wikipedia":null,"power_mw":null,"method":"run-of-the-river"}},{"type":"Feature","geometry":{"type":"Point","coordinates":[-8.84961,42.8365]},"properties":{"osm_type":"node","osm_id":7524126645,"country":"ES","name":"O Tambre","operator":null,"wikidata":null,"wikipedia":null,"power_mw":null,"method":"water-storage"}},{"type":"Feature","geometry":{"type":"Point","coordinates":[-3.54288,41.63611]},"properties":{"osm_type":"node","osm_id":7530074796,"country":"ES","name":null,"operator":null,"wikidata":null,"wikipedia":null,"power_mw":null,"method":"water-storage"}},{"type":"Feature","geometry":{"type":"Point","coordinates":[-8.55531,42.34948]},"properties":{"osm_type":"node","osm_id":7533932868,"country":"ES","name":null,"operator":null,"wikidata":null,"wikipedia":null,"power_mw":null,"method":"water-storage"}},{"type":"Feature","geometry":{"type":"Point","coordinates":[-7.65317,42.41442]},"properties":{"osm_type":"node","osm_id":7533955008,"country":"ES","name":null,"operator":null,"wikidata":null,"wikipedia":null,"power_mw":null,"method":"water-storage"}},{"type":"Feature","geometry":{"type":"Point","coordinates":[-1.60706,43.14173]},"properties":{"osm_type":"node","osm_id":7546022823,"country":"ES","name":null,"operator":null,"wikidata":null,"wikipedia":null,"power_mw":null,"method":null}},{"type":"Feature","geometry":{"type":"Point","coordinates":[-4.91591,41.5051]},"properties":{"osm_type":"node","osm_id":7644552595,"country":"ES","name":null,"operator":null,"wikidata":null,"wikipedia":null,"power_mw":null,"method":null}},{"type":"Feature","geometry":{"type":"Point","coordinates":[-6.48891,41.25483]},"properties":{"osm_type":"node","osm_id":8554465611,"country":"ES","name":"Central Hidroeléctrica de Villarino","operator":"Iberdrola","wikidata":"Q12009828","wikipedia":null,"power_mw":857.0,"method":null}},{"type":"Feature","geometry":{"type":"Point","coordinates":[-6.68592,41.20892]},"properties":{"osm_type":"node","osm_id":8554482717,"country":"ES","name":"Central Hidroeléctrica de Aldeadávila","operator":"Iberdrola","wikidata":"Q2885019","wikipedia":null,"power_mw":1242.9,"method":"water-pumped-storage"}},{"type":"Feature","geometry":{"type":"Point","coordinates":[-4.47429,39.85224]},"properties":{"osm_type":"node","osm_id":8558667442,"country":"ES","name":null,"operator":null,"wikidata":null,"wikipedia":null,"power_mw":null,"method":null}},{"type":"Feature","geometry":{"type":"Point","coordinates":[-4.4743,39.85236]},"properties":{"osm_type":"node","osm_id":8558667443,"country":"ES","name":null,"operator":null,"wikidata":null,"wikipedia":null,"power_mw":null,"method":null}},{"type":"Feature","geometry":{"type":"Point","coordinates":[-4.4743,39.8525]},"properties":{"osm_type":"node","osm_id":8558667444,"country":"ES","name":null,"operator":null,"wikidata":null,"wikipedia":null,"power_mw":null,"method":null}},{"type":"Feature","geometry":{"type":"Point","coordinates":[-4.47431,39.85264]},"properties":{"osm_type":"node","osm_id":8558667445,"country":"ES","name":null,"operator":null,"wikidata":null,"wikipedia":null,"power_mw":null,"method":null}},{"type":"Feature","geometry":{"type":"Point","coordinates":[-2.07435,40.2381]},"properties":{"osm_type":"node","osm_id":8718247096,"country":"ES","name":null,"operator":null,"wikidata":null,"wikipedia":null,"power_mw":null,"method":null}},{"type":"Feature","geometry":{"type":"Point","coordinates":[-8.94761,42.8877]},"properties":{"osm_type":"node","osm_id":8882315167,"country":"ES","name":null,"operator":null,"wikidata":null,"wikipedia":null,"power_mw":null,"method":null}},{"type":"Feature","geometry":{"type":"Point","coordinates":[-3.55591,37.00848]},"properties":{"osm_type":"node","osm_id":8904736842,"country":"ES","name":null,"operator":null,"wikidata":null,"wikipedia":null,"power_mw":1.35,"method":"run-of-the-river"}},{"type":"Feature","geometry":{"type":"Point","coordinates":[-3.55594,37.00849]},"properties":{"osm_type":"node","osm_id":8904736845,"country":"ES","name":null,"operator":null,"wikidata":null,"wikipedia":null,"power_mw":1.35,"method":"run-of-the-river"}},{"type":"Feature","geometry":{"type":"Point","coordinates":[-5.88089,41.47024]},"properties":{"osm_type":"node","osm_id":9074288628,"country":"ES","name":null,"operator":null,"wikidata":null,"wikipedia":null,"power_mw":null,"method":null}},{"type":"Feature","geometry":{"type":"Point","coordinates":[-5.79682,41.82407]},"properties":{"osm_type":"node","osm_id":9108254081,"country":"ES","name":null,"operator":null,"wikidata":null,"wikipedia":null,"power_mw":null,"method":null}},{"type":"Feature","geometry":{"type":"Point","coordinates":[-8.32169,43.01083]},"properties":{"osm_type":"node","osm_id":9169116629,"country":"ES","name":null,"operator":null,"wikidata":null,"wikipedia":null,"power_mw":null,"method":null}},{"type":"Feature","geometry":{"type":"Point","coordinates":[-6.88586,39.72962]},"properties":{"osm_type":"node","osm_id":9250133841,"country":"ES","name":null,"operator":null,"wikidata":null,"wikipedia":null,"power_mw":null,"method":null}},{"type":"Feature","geometry":{"type":"Point","coordinates":[-6.88564,39.7295]},"properties":{"osm_type":"node","osm_id":9250133843,"country":"ES","name":null,"operator":null,"wikidata":null,"wikipedia":null,"power_mw":null,"method":null}},{"type":"Feature","geometry":{"type":"Point","coordinates":[-6.88592,39.72895]},"properties":{"osm_type":"node","osm_id":9250133845,"country":"ES","name":null,"operator":null,"wikidata":null,"wikipedia":null,"power_mw":null,"method":null}},{"type":"Feature","geometry":{"type":"Point","coordinates":[2.571,41.98488]},"properties":{"osm_type":"node","osm_id":9510594210,"country":"ES","name":"Central hidroelèctrica de Susqueda","operator":"Enel Green Power","wikidata":"Q56371764","wikipedia":null,"power_mw":88.6,"method":null}},{"type":"Feature","geometry":{"type":"Point","coordinates":[-8.54592,42.6343]},"properties":{"osm_type":"node","osm_id":9610654836,"country":"ES","name":null,"operator":null,"wikidata":null,"wikipedia":null,"power_mw":null,"method":null}},{"type":"Feature","geometry":{"type":"Point","coordinates":[-5.73533,39.7823]},"properties":{"osm_type":"node","osm_id":10212995255,"country":"ES","name":null,"operator":null,"wikidata":null,"wikipedia":null,"power_mw":null,"method":null}},{"type":"Feature","geometry":{"type":"Point","coordinates":[-5.73532,39.78235]},"properties":{"osm_type":"node","osm_id":10212995256,"country":"ES","name":null,"operator":null,"wikidata":null,"wikipedia":null,"power_mw":null,"method":null}},{"type":"Feature","geometry":{"type":"Point","coordinates":[-5.7353,39.7824]},"properties":{"osm_type":"node","osm_id":10212995257,"country":"ES","name":null,"operator":null,"wikidata":null,"wikipedia":null,"power_mw":null,"method":null}},{"type":"Feature","geometry":{"type":"Point","coordinates":[-5.73529,39.78245]},"properties":{"osm_type":"node","osm_id":10212995258,"country":"ES","name":null,"operator":null,"wikidata":null,"wikipedia":null,"power_mw":null,"method":null}},{"type":"Feature","geometry":{"type":"Point","coordinates":[-5.73528,39.7825]},"properties":{"osm_type":"node","osm_id":10212995259,"country":"ES","name":null,"operator":null,"wikidata":null,"wikipedia":null,"power_mw":null,"method":null}},{"type":"Feature","geometry":{"type":"Point","coordinates":[-2.65213,43.21996]},"properties":{"osm_type":"node","osm_id":10958952207,"country":"ES","name":"Central Hidroeléctrica de Oromiño","operator":null,"wikidata":null,"wikipedia":null,"power_mw":null,"method":null}},{"type":"Feature","geometry":{"type":"Point","coordinates":[-2.05269,42.35828]},"properties":{"osm_type":"node","osm_id":11274891004,"country":"ES","name":null,"operator":null,"wikidata":null,"wikipedia":null,"power_mw":null,"method":null}},{"type":"Feature","geometry":{"type":"Point","coordinates":[-2.83485,40.24573]},"properties":{"osm_type":"node","osm_id":11476672861,"country":"ES","name":null,"operator":null,"wikidata":null,"wikipedia":null,"power_mw":null,"method":null}},{"type":"Feature","geometry":{"type":"Point","coordinates":[-7.64318,43.52428]},"properties":{"osm_type":"node","osm_id":11773373464,"country":"ES","name":"Central Hidroeléctrica da Xestosa","operator":null,"wikidata":null,"wikipedia":null,"power_mw":2.9,"method":"run-of-the-river"}},{"type":"Feature","geometry":{"type":"Point","coordinates":[-1.35976,42.80102]},"properties":{"osm_type":"node","osm_id":12033953953,"country":"ES","name":null,"operator":null,"wikidata":null,"wikipedia":null,"power_mw":null,"method":null}},{"type":"Feature","geometry":{"type":"Point","coordinates":[-1.35982,42.80101]},"properties":{"osm_type":"node","osm_id":12033953954,"country":"ES","name":null,"operator":null,"wikidata":null,"wikipedia":null,"power_mw":null,"method":null}},{"type":"Feature","geometry":{"type":"Point","coordinates":[-1.84509,43.13979]},"properties":{"osm_type":"node","osm_id":12350757841,"country":"ES","name":null,"operator":null,"wikidata":null,"wikipedia":null,"power_mw":null,"method":null}},{"type":"Feature","geometry":{"type":"Point","coordinates":[-3.34998,36.99146]},"properties":{"osm_type":"node","osm_id":12645051325,"country":"ES","name":null,"operator":null,"wikidata":null,"wikipedia":null,"power_mw":null,"method":null}},{"type":"Feature","geometry":{"type":"Point","coordinates":[-5.44549,43.22196]},"properties":{"osm_type":"node","osm_id":12837144509,"country":"ES","name":null,"operator":"EDP","wikidata":null,"wikipedia":null,"power_mw":124.17,"method":"water-storage"}},{"type":"Feature","geometry":{"type":"Point","coordinates":[-5.96419,43.36763]},"properties":{"osm_type":"node","osm_id":13033362904,"country":"ES","name":null,"operator":null,"wikidata":null,"wikipedia":null,"power_mw":null,"method":null}},{"type":"Feature","geometry":{"type":"Point","coordinates":[-6.35192,41.3795]},"properties":{"osm_type":"node","osm_id":13067373361,"country":"ES","name":null,"operator":null,"wikidata":null,"wikipedia":null,"power_mw":62.0,"method":"water-storage"}},{"type":"Feature","geometry":{"type":"Point","coordinates":[-6.35208,41.37939]},"properties":{"osm_type":"node","osm_id":13067373362,"country":"ES","name":null,"operator":null,"wikidata":null,"wikipedia":null,"power_mw":62.0,"method":"water-storage"}},{"type":"Feature","geometry":{"type":"Point","coordinates":[-6.35224,41.37928]},"properties":{"osm_type":"node","osm_id":13067373363,"country":"ES","name":null,"operator":null,"wikidata":null,"wikipedia":null,"power_mw":62.0,"method":"water-storage"}},{"type":"Feature","geometry":{"type":"Point","coordinates":[-6.35304,41.38024]},"properties":{"osm_type":"node","osm_id":13067752049,"country":"ES","name":null,"operator":null,"wikidata":null,"wikipedia":null,"power_mw":246.0,"method":"water-storage"}},{"type":"Feature","geometry":{"type":"Point","coordinates":[-5.93117,37.9167]},"properties":{"osm_type":"node","osm_id":13090792446,"country":"ES","name":null,"operator":null,"wikidata":null,"wikipedia":null,"power_mw":null,"method":"water-pumped-storage"}},{"type":"Feature","geometry":{"type":"Point","coordinates":[-6.26732,41.48817]},"properties":{"osm_type":"node","osm_id":13110511465,"country":"ES","name":"Grupo 4","operator":null,"wikidata":null,"wikipedia":null,"power_mw":193.0,"method":"water-storage"}},{"type":"Feature","geometry":{"type":"Point","coordinates":[-6.26585,41.48878]},"properties":{"osm_type":"node","osm_id":13110511466,"country":"ES","name":null,"operator":null,"wikidata":null,"wikipedia":null,"power_mw":58.84,"method":"water-storage"}},{"type":"Feature","geometry":{"type":"Point","coordinates":[-6.26561,41.48877]},"properties":{"osm_type":"node","osm_id":13110511467,"country":"ES","name":null,"operator":null,"wikidata":null,"wikipedia":null,"power_mw":58.84,"method":"water-storage"}},{"type":"Feature","geometry":{"type":"Point","coordinates":[-6.26537,41.48877]},"properties":{"osm_type":"node","osm_id":13110511468,"country":"ES","name":null,"operator":null,"wikidata":null,"wikipedia":null,"power_mw":58.84,"method":"water-storage"}},{"type":"Feature","geometry":{"type":"Point","coordinates":[-4.84601,39.94728]},"properties":{"osm_type":"node","osm_id":13153080098,"country":"ES","name":null,"operator":null,"wikidata":null,"wikipedia":null,"power_mw":3.2,"method":"run-of-the-river"}},{"type":"Feature","geometry":{"type":"Point","coordinates":[-5.53874,38.98598]},"properties":{"osm_type":"node","osm_id":13154010129,"country":"ES","name":"Central de embalse","operator":null,"wikidata":null,"wikipedia":null,"power_mw":18.53,"method":"water-storage"}},{"type":"Feature","geometry":{"type":"Point","coordinates":[-5.53946,38.98659]},"properties":{"osm_type":"node","osm_id":13154010135,"country":"ES","name":null,"operator":null,"wikidata":null,"wikipedia":null,"power_mw":3.65,"method":"water-storage"}},{"type":"Feature","geometry":{"type":"Point","coordinates":[-6.18923,41.57354]},"properties":{"osm_type":"node","osm_id":13191226660,"country":"ES","name":null,"operator":"Iberdrola","wikidata":null,"wikipedia":null,"power_mw":112.9,"method":"water-storage"}},{"type":"Feature","geometry":{"type":"Point","coordinates":[-6.18908,41.57562]},"properties":{"osm_type":"node","osm_id":13191226673,"country":"ES","name":null,"operator":"Iberdrola","wikidata":null,"wikipedia":null,"power_mw":null,"method":"water-storage"}},{"type":"Feature","geometry":{"type":"Point","coordinates":[-6.18928,41.5756]},"properties":{"osm_type":"node","osm_id":13191226674,"country":"ES","name":null,"operator":"Iberdrola","wikidata":null,"wikipedia":null,"power_mw":null,"method":"water-storage"}},{"type":"Feature","geometry":{"type":"Point","coordinates":[-3.22796,42.11096]},"properties":{"osm_type":"node","osm_id":13335563771,"country":"ES","name":"Central Hidroélectrica La Pelotera","operator":null,"wikidata":null,"wikipedia":null,"power_mw":null,"method":null}},{"type":"Feature","geometry":{"type":"Point","coordinates":[-6.80338,41.03479]},"properties":{"osm_type":"node","osm_id":13605489916,"country":"ES","name":null,"operator":null,"wikidata":null,"wikipedia":null,"power_mw":134.5,"method":"water-storage"}},{"type":"Feature","geometry":{"type":"Point","coordinates":[-6.80354,41.03496]},"properties":{"osm_type":"node","osm_id":13605489917,"country":"ES","name":null,"operator":null,"wikidata":null,"wikipedia":null,"power_mw":134.5,"method":"water-storage"}},{"type":"Feature","geometry":{"type":"Point","coordinates":[-6.80713,41.04497]},"properties":{"osm_type":"node","osm_id":13605489933,"country":"ES","name":null,"operator":null,"wikidata":null,"wikipedia":null,"power_mw":62.5,"method":"water-storage"}},{"type":"Feature","geometry":{"type":"Point","coordinates":[-6.80708,41.04509]},"properties":{"osm_type":"node","osm_id":13605489934,"country":"ES","name":null,"operator":null,"wikidata":null,"wikipedia":null,"power_mw":62.5,"method":"water-storage"}},{"type":"Feature","geometry":{"type":"Point","coordinates":[-6.80702,41.04525]},"properties":{"osm_type":"node","osm_id":13605489935,"country":"ES","name":null,"operator":null,"wikidata":null,"wikipedia":null,"power_mw":62.5,"method":"water-storage"}},{"type":"Feature","geometry":{"type":"Point","coordinates":[-6.80697,41.04538]},"properties":{"osm_type":"node","osm_id":13605489936,"country":"ES","name":null,"operator":null,"wikidata":null,"wikipedia":null,"power_mw":62.5,"method":"water-storage"}},{"type":"Feature","geometry":{"type":"Point","coordinates":[-7.71317,42.62698]},"properties":{"osm_type":"node","osm_id":13665728731,"country":"ES","name":null,"operator":null,"wikidata":null,"wikipedia":null,"power_mw":null,"method":"water-storage"}},{"type":"Feature","geometry":{"type":"Point","coordinates":[-7.71339,42.62698]},"properties":{"osm_type":"node","osm_id":13665728732,"country":"ES","name":null,"operator":null,"wikidata":null,"wikipedia":null,"power_mw":null,"method":"water-storage"}},{"type":"Feature","geometry":{"type":"Point","coordinates":[-7.71328,42.62698]},"properties":{"osm_type":"node","osm_id":13665728733,"country":"ES","name":null,"operator":null,"wikidata":null,"wikipedia":null,"power_mw":null,"method":"water-storage"}},{"type":"Feature","geometry":{"type":"Point","coordinates":[-8.24142,42.82854]},"properties":{"osm_type":"node","osm_id":13667285231,"country":"ES","name":null,"operator":null,"wikidata":null,"wikipedia":null,"power_mw":null,"method":null}},{"type":"Feature","geometry":{"type":"Point","coordinates":[-7.54004,39.66337]},"properties":{"osm_type":"node","osm_id":13730172158,"country":"ES","name":null,"operator":null,"wikidata":null,"wikipedia":null,"power_mw":110.0,"method":"run-of-the-river"}},{"type":"Feature","geometry":{"type":"Point","coordinates":[-7.53999,39.66369]},"properties":{"osm_type":"node","osm_id":13730172159,"country":"ES","name":null,"operator":null,"wikidata":null,"wikipedia":null,"power_mw":110.0,"method":"run-of-the-river"}},{"type":"Feature","geometry":{"type":"Point","coordinates":[-7.54003,39.66401]},"properties":{"osm_type":"node","osm_id":13730172160,"country":"ES","name":null,"operator":null,"wikidata":null,"wikipedia":null,"power_mw":110.0,"method":"run-of-the-river"}},{"type":"Feature","geometry":{"type":"Point","coordinates":[-7.54017,39.66432]},"properties":{"osm_type":"node","osm_id":13730172161,"country":"ES","name":null,"operator":null,"wikidata":null,"wikipedia":null,"power_mw":110.0,"method":"run-of-the-river"}},{"type":"Feature","geometry":{"type":"Point","coordinates":[3.10408,42.02766]},"properties":{"osm_type":"node","osm_id":13949314611,"country":"ES","name":"El Molî de Gualta","operator":null,"wikidata":null,"wikipedia":null,"power_mw":null,"method":"run-of-the-river"}},{"type":"Feature","geometry":{"type":"Point","coordinates":[0.89932,42.10495]},"properties":{"osm_type":"node","osm_id":13955373115,"country":"ES","name":null,"operator":null,"wikidata":null,"wikipedia":null,"power_mw":null,"method":"water-storage"}},{"type":"Feature","geometry":{"type":"Point","coordinates":[0.89927,42.10503]},"properties":{"osm_type":"node","osm_id":13955373116,"country":"ES","name":null,"operator":null,"wikidata":null,"wikipedia":null,"power_mw":null,"method":"water-storage"}},{"type":"Feature","geometry":{"type":"Point","coordinates":[0.87677,42.69979]},"properties":{"osm_type":"node","osm_id":13955447767,"country":"ES","name":null,"operator":null,"wikidata":null,"wikipedia":null,"power_mw":null,"method":"water-storage"}},{"type":"Feature","geometry":{"type":"Point","coordinates":[0.87664,42.69974]},"properties":{"osm_type":"node","osm_id":13955447768,"country":"ES","name":null,"operator":null,"wikidata":null,"wikipedia":null,"power_mw":null,"method":"water-storage"}},{"type":"Feature","geometry":{"type":"Point","coordinates":[1.25745,42.64995]},"properties":{"osm_type":"node","osm_id":13955783450,"country":"ES","name":null,"operator":null,"wikidata":null,"wikipedia":null,"power_mw":null,"method":"water-storage"}},{"type":"Feature","geometry":{"type":"Point","coordinates":[1.25747,42.65012]},"properties":{"osm_type":"node","osm_id":13955783451,"country":"ES","name":null,"operator":null,"wikidata":null,"wikipedia":null,"power_mw":null,"method":"water-storage"}},{"type":"Feature","geometry":{"type":"Point","coordinates":[1.25753,42.6505]},"properties":{"osm_type":"node","osm_id":13955783452,"country":"ES","name":null,"operator":null,"wikidata":null,"wikipedia":null,"power_mw":null,"method":"water-storage"}},{"type":"Feature","geometry":{"type":"Point","coordinates":[1.25666,42.6536]},"properties":{"osm_type":"node","osm_id":13955790460,"country":"ES","name":null,"operator":null,"wikidata":null,"wikipedia":null,"power_mw":null,"method":"water-storage"}},{"type":"Feature","geometry":{"type":"Point","coordinates":[1.25698,42.65363]},"properties":{"osm_type":"node","osm_id":13955790461,"country":"ES","name":null,"operator":null,"wikidata":null,"wikipedia":null,"power_mw":null,"method":"water-storage"}},{"type":"Feature","geometry":{"type":"Point","coordinates":[0.73547,42.73753]},"properties":{"osm_type":"node","osm_id":13955794973,"country":"ES","name":null,"operator":null,"wikidata":null,"wikipedia":null,"power_mw":null,"method":"water-storage"}},{"type":"Feature","geometry":{"type":"Point","coordinates":[0.7352,42.73753]},"properties":{"osm_type":"node","osm_id":13955794974,"country":"ES","name":null,"operator":null,"wikidata":null,"wikipedia":null,"power_mw":null,"method":"water-storage"}},{"type":"Feature","geometry":{"type":"Point","coordinates":[1.21279,42.49655]},"properties":{"osm_type":"node","osm_id":13955810101,"country":"ES","name":null,"operator":null,"wikidata":null,"wikipedia":null,"power_mw":null,"method":"water-storage"}},{"type":"Feature","geometry":{"type":"Point","coordinates":[1.2127,42.49653]},"properties":{"osm_type":"node","osm_id":13955810102,"country":"ES","name":null,"operator":null,"wikidata":null,"wikipedia":null,"power_mw":null,"method":"water-storage"}},{"type":"Feature","geometry":{"type":"Point","coordinates":[0.462,41.46837]},"properties":{"osm_type":"node","osm_id":13955810141,"country":"ES","name":null,"operator":null,"wikidata":null,"wikipedia":null,"power_mw":null,"method":"water-storage"}},{"type":"Feature","geometry":{"type":"Point","coordinates":[0.46193,41.46852]},"properties":{"osm_type":"node","osm_id":13955810142,"country":"ES","name":null,"operator":null,"wikidata":null,"wikipedia":null,"power_mw":null,"method":"water-storage"}},{"type":"Feature","geometry":{"type":"Point","coordinates":[0.69026,42.77591]},"properties":{"osm_type":"node","osm_id":13955869412,"country":"ES","name":null,"operator":null,"wikidata":null,"wikipedia":null,"power_mw":null,"method":"water-storage"}},{"type":"Feature","geometry":{"type":"Point","coordinates":[0.69036,42.77598]},"properties":{"osm_type":"node","osm_id":13955869413,"country":"ES","name":null,"operator":null,"wikidata":null,"wikipedia":null,"power_mw":null,"method":"water-storage"}},{"type":"Feature","geometry":{"type":"Point","coordinates":[0.79768,42.70894]},"properties":{"osm_type":"node","osm_id":14054059867,"country":"ES","name":null,"operator":"Endesa","wikidata":null,"wikipedia":null,"power_mw":null,"method":"water-storage"}},{"type":"Feature","geometry":{"type":"Point","coordinates":[0.79758,42.70896]},"properties":{"osm_type":"node","osm_id":14054059868,"country":"ES","name":null,"operator":"Endesa","wikidata":null,"wikipedia":null,"power_mw":null,"method":"water-storage"}},{"type":"Feature","geometry":{"type":"Point","coordinates":[0.87697,42.69989]},"properties":{"osm_type":"node","osm_id":14061986052,"country":"ES","name":null,"operator":null,"wikidata":null,"wikipedia":null,"power_mw":null,"method":"water-storage"}},{"type":"Feature","geometry":{"type":"Point","coordinates":[0.87685,42.69984]},"properties":{"osm_type":"node","osm_id":14061986053,"country":"ES","name":null,"operator":null,"wikidata":null,"wikipedia":null,"power_mw":null,"method":"water-storage"}},{"type":"Feature","geometry":{"type":"Point","coordinates":[0.8765,42.69969]},"properties":{"osm_type":"node","osm_id":14061986054,"country":"ES","name":null,"operator":null,"wikidata":null,"wikipedia":null,"power_mw":null,"method":"water-storage"}},{"type":"Feature","geometry":{"type":"Point","coordinates":[0.99092,42.46698]},"properties":{"osm_type":"node","osm_id":14074479035,"country":"ES","name":null,"operator":"Endesa","wikidata":null,"wikipedia":null,"power_mw":null,"method":"water-storage"}},{"type":"Feature","geometry":{"type":"Point","coordinates":[0.99105,42.46702]},"properties":{"osm_type":"node","osm_id":14074479036,"country":"ES","name":null,"operator":"Endesa","wikidata":null,"wikipedia":null,"power_mw":null,"method":"water-storage"}},{"type":"Feature","geometry":{"type":"Point","coordinates":[0.99119,42.46705]},"properties":{"osm_type":"node","osm_id":14074479037,"country":"ES","name":null,"operator":"Endesa","wikidata":null,"wikipedia":null,"power_mw":null,"method":"water-storage"}},{"type":"Feature","geometry":{"type":"Point","coordinates":[0.99132,42.46708]},"properties":{"osm_type":"node","osm_id":14074479038,"country":"ES","name":null,"operator":"Endesa","wikidata":null,"wikipedia":null,"power_mw":null,"method":"water-storage"}},{"type":"Feature","geometry":{"type":"Point","coordinates":[0.99151,42.46712]},"properties":{"osm_type":"node","osm_id":14074479039,"country":"ES","name":null,"operator":"Endesa","wikidata":null,"wikipedia":null,"power_mw":null,"method":"water-storage"}},{"type":"Feature","geometry":{"type":"Point","coordinates":[0.90812,42.17384]},"properties":{"osm_type":"node","osm_id":14074501116,"country":"ES","name":null,"operator":null,"wikidata":null,"wikipedia":null,"power_mw":null,"method":"water-storage"}},{"type":"Feature","geometry":{"type":"Point","coordinates":[0.9081,42.17391]},"properties":{"osm_type":"node","osm_id":14074501117,"country":"ES","name":null,"operator":null,"wikidata":null,"wikipedia":null,"power_mw":null,"method":"water-storage"}},{"type":"Feature","geometry":{"type":"Point","coordinates":[0.90807,42.17398]},"properties":{"osm_type":"node","osm_id":14074501118,"country":"ES","name":null,"operator":null,"wikidata":null,"wikipedia":null,"power_mw":null,"method":"water-storage"}},{"type":"Feature","geometry":{"type":"Point","coordinates":[0.90806,42.17406]},"properties":{"osm_type":"node","osm_id":14074501119,"country":"ES","name":null,"operator":null,"wikidata":null,"wikipedia":null,"power_mw":null,"method":"water-storage"}},{"type":"Feature","geometry":{"type":"Point","coordinates":[0.73507,42.54462]},"properties":{"osm_type":"node","osm_id":14074530911,"country":"ES","name":null,"operator":"Endesa","wikidata":null,"wikipedia":null,"power_mw":null,"method":"water-storage"}},{"type":"Feature","geometry":{"type":"Point","coordinates":[0.73506,42.5447]},"properties":{"osm_type":"node","osm_id":14074530912,"country":"ES","name":null,"operator":"Endesa","wikidata":null,"wikipedia":null,"power_mw":null,"method":"water-storage"}},{"type":"Feature","geometry":{"type":"Point","coordinates":[0.70797,42.45626]},"properties":{"osm_type":"node","osm_id":14074813210,"country":"ES","name":null,"operator":"Endesa","wikidata":null,"wikipedia":null,"power_mw":null,"method":"water-storage"}},{"type":"Feature","geometry":{"type":"Point","coordinates":[0.70794,42.4564]},"properties":{"osm_type":"node","osm_id":14074813211,"country":"ES","name":null,"operator":"Endesa","wikidata":null,"wikipedia":null,"power_mw":null,"method":"water-storage"}},{"type":"Feature","geometry":{"type":"Point","coordinates":[0.70793,42.45647]},"properties":{"osm_type":"node","osm_id":14074813212,"country":"ES","name":null,"operator":"Endesa","wikidata":null,"wikipedia":null,"power_mw":null,"method":"water-storage"}},{"type":"Feature","geometry":{"type":"Point","coordinates":[0.71798,42.50666]},"properties":{"osm_type":"node","osm_id":14074821385,"country":"ES","name":null,"operator":"Endesa","wikidata":null,"wikipedia":null,"power_mw":null,"method":"water-storage"}},{"type":"Feature","geometry":{"type":"Point","coordinates":[0.71798,42.50673]},"properties":{"osm_type":"node","osm_id":14074821386,"country":"ES","name":null,"operator":"Endesa","wikidata":null,"wikipedia":null,"power_mw":null,"method":"water-storage"}},{"type":"Feature","geometry":{"type":"Point","coordinates":[0.73884,42.40289]},"properties":{"osm_type":"node","osm_id":14074860741,"country":"ES","name":null,"operator":"ENDESA","wikidata":null,"wikipedia":null,"power_mw":null,"method":"water-storage"}},{"type":"Feature","geometry":{"type":"Point","coordinates":[0.73884,42.40289]},"properties":{"osm_type":"node","osm_id":14074860742,"country":"ES","name":null,"operator":"ENDESA","wikidata":null,"wikipedia":null,"power_mw":null,"method":"water-storage"}},{"type":"Feature","geometry":{"type":"Point","coordinates":[0.73878,42.40278]},"properties":{"osm_type":"node","osm_id":14074860743,"country":"ES","name":null,"operator":"ENDESA","wikidata":null,"wikipedia":null,"power_mw":null,"method":"water-storage"}},{"type":"Feature","geometry":{"type":"Point","coordinates":[1.08346,42.57941]},"properties":{"osm_type":"node","osm_id":14074861599,"country":"ES","name":null,"operator":"Endesa","wikidata":null,"wikipedia":null,"power_mw":null,"method":"water-storage"}},{"type":"Feature","geometry":{"type":"Point","coordinates":[1.08356,42.57933]},"properties":{"osm_type":"node","osm_id":14074861600,"country":"ES","name":null,"operator":"Endesa","wikidata":null,"wikipedia":null,"power_mw":null,"method":"water-storage"}},{"type":"Feature","geometry":{"type":"Point","coordinates":[1.08364,42.57926]},"properties":{"osm_type":"node","osm_id":14074877701,"country":"ES","name":null,"operator":"Endesa","wikidata":null,"wikipedia":null,"power_mw":null,"method":"water-storage"}},{"type":"Feature","geometry":{"type":"Point","coordinates":[1.12625,42.62698]},"properties":{"osm_type":"node","osm_id":14074884019,"country":"ES","name":null,"operator":"Endesa","wikidata":null,"wikipedia":null,"power_mw":null,"method":"water-storage"}},{"type":"Feature","geometry":{"type":"Point","coordinates":[1.12633,42.62692]},"properties":{"osm_type":"node","osm_id":14074884020,"country":"ES","name":null,"operator":"Endesa","wikidata":null,"wikipedia":null,"power_mw":null,"method":"water-storage"}},{"type":"Feature","geometry":{"type":"Point","coordinates":[1.12643,42.62689]},"properties":{"osm_type":"node","osm_id":14074884021,"country":"ES","name":null,"operator":"Endesa","wikidata":null,"wikipedia":null,"power_mw":null,"method":"water-storage"}},{"type":"Feature","geometry":{"type":"Point","coordinates":[1.12619,42.62706]},"properties":{"osm_type":"node","osm_id":14074884022,"country":"ES","name":null,"operator":"Endesa","wikidata":null,"wikipedia":null,"power_mw":null,"method":"water-storage"}},{"type":"Feature","geometry":{"type":"Point","coordinates":[0.83873,42.54794]},"properties":{"osm_type":"node","osm_id":14074925071,"country":"ES","name":null,"operator":"Endesa","wikidata":null,"wikipedia":null,"power_mw":null,"method":"water-storage"}},{"type":"Feature","geometry":{"type":"Point","coordinates":[0.83821,42.54796]},"properties":{"osm_type":"node","osm_id":14074925072,"country":"ES","name":null,"operator":"Endesa","wikidata":null,"wikipedia":null,"power_mw":null,"method":"water-storage"}},{"type":"Feature","geometry":{"type":"Point","coordinates":[0.99207,42.50739]},"properties":{"osm_type":"node","osm_id":14076333079,"country":"ES","name":null,"operator":null,"wikidata":null,"wikipedia":null,"power_mw":null,"method":"water-pumped-storage"}},{"type":"Feature","geometry":{"type":"Point","coordinates":[0.9922,42.50756]},"properties":{"osm_type":"node","osm_id":14076333080,"country":"ES","name":null,"operator":null,"wikidata":null,"wikipedia":null,"power_mw":null,"method":"water-pumped-storage"}},{"type":"Feature","geometry":{"type":"Point","coordinates":[0.99203,42.50764]},"properties":{"osm_type":"node","osm_id":14076333081,"country":"ES","name":null,"operator":null,"wikidata":null,"wikipedia":null,"power_mw":null,"method":"water-pumped-storage"}},{"type":"Feature","geometry":{"type":"Point","coordinates":[0.99182,42.50748]},"properties":{"osm_type":"node","osm_id":14076333082,"country":"ES","name":null,"operator":null,"wikidata":null,"wikipedia":null,"power_mw":null,"method":"water-pumped-storage"}},{"type":"Feature","geometry":{"type":"Point","coordinates":[-4.40077,42.26208]},"properties":{"osm_type":"node","osm_id":14102653483,"country":"ES","name":null,"operator":null,"wikidata":null,"wikipedia":null,"power_mw":null,"method":null}}]}