{"type":"FeatureCollection","features":[{"type":"Feature","geometry":{"type":"Point","coordinates":[-7.70503,40.38482]},"properties":{"osm_type":"node","osm_id":1119654749,"country":"PT","name":null,"operator":null,"wikidata":null,"wikipedia":null,"power_mw":13.0,"method":"run-of-the-river"}},{"type":"Feature","geometry":{"type":"Point","coordinates":[-7.72795,40.37972]},"properties":{"osm_type":"node","osm_id":1119654874,"country":"PT","name":null,"operator":null,"wikidata":null,"wikipedia":null,"power_mw":null,"method":"run-of-the-river"}},{"type":"Feature","geometry":{"type":"Point","coordinates":[-7.49855,41.44188]},"properties":{"osm_type":"node","osm_id":1614316351,"country":"PT","name":null,"operator":null,"wikidata":null,"wikipedia":null,"power_mw":null,"method":"run-of-the-river"}},{"type":"Feature","geometry":{"type":"Point","coordinates":[-7.62862,38.10966]},"properties":{"osm_type":"node","osm_id":1711476828,"country":"PT","name":null,"operator":"Energias de Portugal","wikidata":null,"wikipedia":null,"power_mw":5.2,"method":"run-of-the-river"}},{"type":"Feature","geometry":{"type":"Point","coordinates":[-7.79603,40.07734]},"properties":{"osm_type":"node","osm_id":1839788894,"country":"PT","name":null,"operator":null,"wikidata":null,"wikipedia":null,"power_mw":null,"method":"run-of-the-river"}},{"type":"Feature","geometry":{"type":"Point","coordinates":[-8.2482,40.29748]},"properties":{"osm_type":"node","osm_id":1912936166,"country":"PT","name":null,"operator":null,"wikidata":null,"wikipedia":null,"power_mw":null,"method":null}},{"type":"Feature","geometry":{"type":"Point","coordinates":[-7.34115,40.52693]},"properties":{"osm_type":"node","osm_id":1998713999,"country":"PT","name":null,"operator":"Energias de Portugal","wikidata":null,"wikipedia":null,"power_mw":0.34,"method":"run-of-the-river"}},{"type":"Feature","geometry":{"type":"Point","coordinates":[-7.70921,39.59136]},"properties":{"osm_type":"node","osm_id":2155454950,"country":"PT","name":null,"operator":null,"wikidata":null,"wikipedia":null,"power_mw":null,"method":"run-of-the-river"}},{"type":"Feature","geometry":{"type":"Point","coordinates":[-8.22317,40.59919]},"properties":{"osm_type":"node","osm_id":2704704716,"country":"PT","name":null,"operator":null,"wikidata":null,"wikipedia":null,"power_mw":null,"method":null}},{"type":"Feature","geometry":{"type":"Point","coordinates":[-7.09424,41.20323]},"properties":{"osm_type":"node","osm_id":3244802305,"country":"PT","name":null,"operator":"Movhera","wikidata":null,"wikipedia":null,"power_mw":19.0,"method":"water-pumped-storage"}},{"type":"Feature","geometry":{"type":"Point","coordinates":[-7.09462,41.20301]},"properties":{"osm_type":"node","osm_id":3244802311,"country":"PT","name":null,"operator":"Movhera","wikidata":null,"wikipedia":null,"power_mw":19.0,"method":"water-pumped-storage"}},{"type":"Feature","geometry":{"type":"Point","coordinates":[-8.00716,41.70214]},"properties":{"osm_type":"node","osm_id":3810714571,"country":"PT","name":"Grupo 4","operator":null,"wikidata":null,"wikipedia":null,"power_mw":55.97,"method":"water-storage"}},{"type":"Feature","geometry":{"type":"Point","coordinates":[-8.06502,40.74622]},"properties":{"osm_type":"node","osm_id":3838404157,"country":"PT","name":null,"operator":"Energias de Portugal","wikidata":null,"wikipedia":null,"power_mw":0.2,"method":"run-of-the-river"}},{"type":"Feature","geometry":{"type":"Point","coordinates":[-6.77562,41.959]},"properties":{"osm_type":"node","osm_id":5171206512,"country":"PT","name":null,"operator":"Câmara Municipal de Bragança","wikidata":null,"wikipedia":null,"power_mw":null,"method":"water-storage"}},{"type":"Feature","geometry":{"type":"Point","coordinates":[-7.76912,41.5399]},"properties":{"osm_type":"node","osm_id":7172675196,"country":"PT","name":null,"operator":"Iberdrola","wikidata":null,"wikipedia":null,"power_mw":220.0,"method":"water-pumped-storage"}},{"type":"Feature","geometry":{"type":"Point","coordinates":[-7.76925,41.53978]},"properties":{"osm_type":"node","osm_id":7172675197,"country":"PT","name":null,"operator":"Iberdrola","wikidata":null,"wikipedia":null,"power_mw":220.0,"method":"water-pumped-storage"}},{"type":"Feature","geometry":{"type":"Point","coordinates":[-7.76901,41.54004]},"properties":{"osm_type":"node","osm_id":7172675198,"country":"PT","name":null,"operator":"Iberdrola","wikidata":null,"wikipedia":null,"power_mw":220.0,"method":"water-pumped-storage"}},{"type":"Feature","geometry":{"type":"Point","coordinates":[-7.76891,41.54016]},"properties":{"osm_type":"node","osm_id":7172675199,"country":"PT","name":null,"operator":"Iberdrola","wikidata":null,"wikipedia":null,"power_mw":220.0,"method":"water-pumped-storage"}},{"type":"Feature","geometry":{"type":"Point","coordinates":[-8.17618,41.70018]},"properties":{"osm_type":"node","osm_id":7521776100,"country":"PT","name":"Grupo 1","operator":null,"wikidata":null,"wikipedia":null,"power_mw":67.7,"method":"water-storage"}},{"type":"Feature","geometry":{"type":"Point","coordinates":[-7.0144,41.2282]},"properties":{"osm_type":"node","osm_id":7521792771,"country":"PT","name":null,"operator":null,"wikidata":null,"wikipedia":null,"power_mw":null,"method":"water-pumped-storage"}},{"type":"Feature","geometry":{"type":"Point","coordinates":[-7.0146,41.22792]},"properties":{"osm_type":"node","osm_id":7521792772,"country":"PT","name":null,"operator":null,"wikidata":null,"wikipedia":null,"power_mw":null,"method":"water-pumped-storage"}},{"type":"Feature","geometry":{"type":"Point","coordinates":[-6.47372,41.3001]},"properties":{"osm_type":"node","osm_id":7521835687,"country":"PT","name":null,"operator":"Movhera","wikidata":null,"wikipedia":null,"power_mw":191.0,"method":"water-storage"}},{"type":"Feature","geometry":{"type":"Point","coordinates":[-7.62871,38.10971]},"properties":{"osm_type":"node","osm_id":7529992520,"country":"PT","name":null,"operator":"Energias de Portugal","wikidata":null,"wikipedia":null,"power_mw":5.2,"method":"run-of-the-river"}},{"type":"Feature","geometry":{"type":"Point","coordinates":[-7.5541,39.47857]},"properties":{"osm_type":"node","osm_id":7531522261,"country":"PT","name":null,"operator":"Energias de Portugal","wikidata":null,"wikipedia":null,"power_mw":757.0,"method":"water-storage"}},{"type":"Feature","geometry":{"type":"Point","coordinates":[-7.80287,39.54254]},"properties":{"osm_type":"node","osm_id":7531549257,"country":"PT","name":null,"operator":"Energias de Portugal","wikidata":null,"wikipedia":null,"power_mw":45.6,"method":"water-storage"}},{"type":"Feature","geometry":{"type":"Point","coordinates":[-7.99848,39.48103]},"properties":{"osm_type":"node","osm_id":7531585425,"country":"PT","name":"Grupo 1","operator":null,"wikidata":null,"wikipedia":null,"power_mw":8.091,"method":"water-storage"}},{"type":"Feature","geometry":{"type":"Point","coordinates":[-7.61022,39.52648]},"properties":{"osm_type":"node","osm_id":7531588453,"country":"PT","name":null,"operator":null,"wikidata":null,"wikipedia":null,"power_mw":null,"method":"water-storage"}},{"type":"Feature","geometry":{"type":"Point","coordinates":[-8.20187,41.87001]},"properties":{"osm_type":"node","osm_id":7538670959,"country":"PT","name":null,"operator":"Energias de Portugal","wikidata":null,"wikipedia":null,"power_mw":317.0,"method":"water-storage"}},{"type":"Feature","geometry":{"type":"Point","coordinates":[-8.23304,41.6539]},"properties":{"osm_type":"node","osm_id":7541281037,"country":"PT","name":null,"operator":null,"wikidata":null,"wikipedia":null,"power_mw":31.0,"method":"water-storage"}},{"type":"Feature","geometry":{"type":"Point","coordinates":[-6.48891,41.25483]},"properties":{"osm_type":"node","osm_id":8554465611,"country":"PT","name":"Central Hidroeléctrica de Villarino","operator":"Iberdrola","wikidata":"Q12009828","wikipedia":null,"power_mw":857.0,"method":null}},{"type":"Feature","geometry":{"type":"Point","coordinates":[-6.68592,41.20892]},"properties":{"osm_type":"node","osm_id":8554482717,"country":"PT","name":"Central Hidroeléctrica de Aldeadávila","operator":"Iberdrola","wikidata":"Q2885019","wikipedia":null,"power_mw":1242.9,"method":"water-pumped-storage"}},{"type":"Feature","geometry":{"type":"Point","coordinates":[-8.227,40.09625]},"properties":{"osm_type":"node","osm_id":9007313539,"country":"PT","name":"Grupo 2","operator":"Energias de Portugal","wikidata":null,"wikipedia":null,"power_mw":121.0,"method":"run-of-the-river"}},{"type":"Feature","geometry":{"type":"Point","coordinates":[-7.20465,41.71736]},"properties":{"osm_type":"node","osm_id":9657405426,"country":"PT","name":null,"operator":"Aquila Capital","wikidata":null,"wikipedia":null,"power_mw":null,"method":"water-storage"}},{"type":"Feature","geometry":{"type":"Point","coordinates":[-7.20484,41.71735]},"properties":{"osm_type":"node","osm_id":9657405428,"country":"PT","name":null,"operator":"Aquila Capital","wikidata":null,"wikipedia":null,"power_mw":null,"method":"water-storage"}},{"type":"Feature","geometry":{"type":"Point","coordinates":[-7.24052,41.14041]},"properties":{"osm_type":"node","osm_id":9660418683,"country":"PT","name":null,"operator":null,"wikidata":null,"wikipedia":null,"power_mw":null,"method":"water-storage"}},{"type":"Feature","geometry":{"type":"Point","coordinates":[-7.73133,41.57366]},"properties":{"osm_type":"node","osm_id":10695163804,"country":"PT","name":null,"operator":null,"wikidata":null,"wikipedia":null,"power_mw":80.0,"method":"water-storage"}},{"type":"Feature","geometry":{"type":"Point","coordinates":[-7.73153,41.57375]},"properties":{"osm_type":"node","osm_id":10695167705,"country":"PT","name":null,"operator":null,"wikidata":null,"wikipedia":null,"power_mw":80.0,"method":"water-storage"}},{"type":"Feature","geometry":{"type":"Point","coordinates":[-7.54439,40.38836]},"properties":{"osm_type":"node","osm_id":11148033659,"country":"PT","name":null,"operator":null,"wikidata":null,"wikipedia":null,"power_mw":null,"method":"run-of-the-river"}},{"type":"Feature","geometry":{"type":"Point","coordinates":[-8.28055,40.57636]},"properties":{"osm_type":"node","osm_id":11149726563,"country":"PT","name":null,"operator":null,"wikidata":null,"wikipedia":null,"power_mw":null,"method":"run-of-the-river"}},{"type":"Feature","geometry":{"type":"Point","coordinates":[-7.42697,41.21583]},"properties":{"osm_type":"node","osm_id":11345234891,"country":"PT","name":null,"operator":"Movhera","wikidata":null,"wikipedia":null,"power_mw":137.0,"method":"water-pumped-storage"}},{"type":"Feature","geometry":{"type":"Point","coordinates":[-7.42654,41.21584]},"properties":{"osm_type":"node","osm_id":11345234892,"country":"PT","name":null,"operator":"Movhera","wikidata":null,"wikipedia":null,"power_mw":137.0,"method":"water-pumped-storage"}},{"type":"Feature","geometry":{"type":"Point","coordinates":[-8.09125,41.68972]},"properties":{"osm_type":"node","osm_id":11375788309,"country":"PT","name":null,"operator":"Energias de Portugal","wikidata":null,"wikipedia":null,"power_mw":207.0,"method":"water-pumped-storage"}},{"type":"Feature","geometry":{"type":"Point","coordinates":[-6.47154,41.3014]},"properties":{"osm_type":"node","osm_id":11377560268,"country":"PT","name":null,"operator":"Movhera","wikidata":null,"wikipedia":null,"power_mw":79.5,"method":"water-storage"}},{"type":"Feature","geometry":{"type":"Point","coordinates":[-6.47168,41.30156]},"properties":{"osm_type":"node","osm_id":11377563071,"country":"PT","name":null,"operator":"Movhera","wikidata":null,"wikipedia":null,"power_mw":79.5,"method":"water-storage"}},{"type":"Feature","geometry":{"type":"Point","coordinates":[-6.4714,41.30123]},"properties":{"osm_type":"node","osm_id":11377563073,"country":"PT","name":null,"operator":"Movhera","wikidata":null,"wikipedia":null,"power_mw":79.5,"method":"water-storage"}},{"type":"Feature","geometry":{"type":"Point","coordinates":[-7.99448,41.0559]},"properties":{"osm_type":"node","osm_id":11383566918,"country":"PT","name":null,"operator":null,"wikidata":null,"wikipedia":null,"power_mw":5.6,"method":"run-of-the-river"}},{"type":"Feature","geometry":{"type":"Point","coordinates":[-7.76122,41.2706]},"properties":{"osm_type":"node","osm_id":11383568674,"country":"PT","name":null,"operator":"Aquila Capital","wikidata":null,"wikipedia":null,"power_mw":10.0,"method":"water-storage"}},{"type":"Feature","geometry":{"type":"Point","coordinates":[-7.74878,41.27214]},"properties":{"osm_type":"node","osm_id":11383568688,"country":"PT","name":null,"operator":null,"wikidata":null,"wikipedia":null,"power_mw":4.804,"method":"run-of-the-river"}},{"type":"Feature","geometry":{"type":"Point","coordinates":[-8.04377,40.76036]},"properties":{"osm_type":"node","osm_id":11385595965,"country":"PT","name":null,"operator":null,"wikidata":null,"wikipedia":null,"power_mw":null,"method":"run-of-the-river"}},{"type":"Feature","geometry":{"type":"Point","coordinates":[-7.94898,40.75583]},"properties":{"osm_type":"node","osm_id":11385794872,"country":"PT","name":null,"operator":null,"wikidata":null,"wikipedia":null,"power_mw":null,"method":"run-of-the-river"}},{"type":"Feature","geometry":{"type":"Point","coordinates":[-8.03055,40.25945]},"properties":{"osm_type":"node","osm_id":11387929987,"country":"PT","name":null,"operator":"Energias de Portugal","wikidata":null,"wikipedia":null,"power_mw":null,"method":"run-of-the-river"}},{"type":"Feature","geometry":{"type":"Point","coordinates":[-8.35345,40.71406]},"properties":{"osm_type":"node","osm_id":11450673527,"country":"PT","name":null,"operator":null,"wikidata":null,"wikipedia":null,"power_mw":null,"method":"water-storage"}},{"type":"Feature","geometry":{"type":"Point","coordinates":[-7.97801,40.76204]},"properties":{"osm_type":"node","osm_id":11450673551,"country":"PT","name":null,"operator":"Energias de Portugal","wikidata":null,"wikipedia":null,"power_mw":null,"method":"run-of-the-river"}},{"type":"Feature","geometry":{"type":"Point","coordinates":[-7.97793,40.76198]},"properties":{"osm_type":"node","osm_id":11450673554,"country":"PT","name":null,"operator":"Energias de Portugal","wikidata":null,"wikipedia":null,"power_mw":null,"method":"run-of-the-river"}},{"type":"Feature","geometry":{"type":"Point","coordinates":[-7.68727,40.39832]},"properties":{"osm_type":"node","osm_id":11540444155,"country":"PT","name":null,"operator":null,"wikidata":null,"wikipedia":null,"power_mw":null,"method":"run-of-the-river"}},{"type":"Feature","geometry":{"type":"Point","coordinates":[-7.68731,40.39821]},"properties":{"osm_type":"node","osm_id":11540444156,"country":"PT","name":null,"operator":null,"wikidata":null,"wikipedia":null,"power_mw":null,"method":"run-of-the-river"}},{"type":"Feature","geometry":{"type":"Point","coordinates":[-7.78672,41.54493]},"properties":{"osm_type":"node","osm_id":11637579530,"country":"PT","name":null,"operator":"Empreendimentos Hidroeléctricos do Alto Tâmega e Barroso","wikidata":null,"wikipedia":null,"power_mw":5.0,"method":"water-pumped-storage"}},{"type":"Feature","geometry":{"type":"Point","coordinates":[-7.68007,41.58157]},"properties":{"osm_type":"node","osm_id":12186500455,"country":"PT","name":null,"operator":null,"wikidata":null,"wikipedia":null,"power_mw":null,"method":"run-of-the-river"}},{"type":"Feature","geometry":{"type":"Point","coordinates":[-8.0209,41.681]},"properties":{"osm_type":"node","osm_id":12188389776,"country":"PT","name":null,"operator":"Energias de Portugal","wikidata":null,"wikipedia":null,"power_mw":390.0,"method":"water-pumped-storage"}},{"type":"Feature","geometry":{"type":"Point","coordinates":[-8.02053,41.68121]},"properties":{"osm_type":"node","osm_id":12188389777,"country":"PT","name":null,"operator":"Energias de Portugal","wikidata":null,"wikipedia":null,"power_mw":390.0,"method":"water-pumped-storage"}},{"type":"Feature","geometry":{"type":"Point","coordinates":[-8.01733,41.68394]},"properties":{"osm_type":"node","osm_id":12188389778,"country":"PT","name":null,"operator":"Energias de Portugal","wikidata":null,"wikipedia":null,"power_mw":97.0,"method":"water-pumped-storage"}},{"type":"Feature","geometry":{"type":"Point","coordinates":[-8.01768,41.68369]},"properties":{"osm_type":"node","osm_id":12188389779,"country":"PT","name":null,"operator":"Energias de Portugal","wikidata":null,"wikipedia":null,"power_mw":97.0,"method":"water-pumped-storage"}},{"type":"Feature","geometry":{"type":"Point","coordinates":[-7.82546,40.62946]},"properties":{"osm_type":"node","osm_id":12193106101,"country":"PT","name":null,"operator":null,"wikidata":null,"wikipedia":null,"power_mw":null,"method":"water-storage"}},{"type":"Feature","geometry":{"type":"Point","coordinates":[-8.38078,39.5332]},"properties":{"osm_type":"node","osm_id":12193310961,"country":"PT","name":"Mini-hídrica da Fábrica de Papel de Matrena","operator":"Fábrica de Papel do Nabão","wikidata":null,"wikipedia":null,"power_mw":null,"method":"run-of-the-river"}},{"type":"Feature","geometry":{"type":"Point","coordinates":[-8.21971,39.85388]},"properties":{"osm_type":"node","osm_id":12383101390,"country":"PT","name":null,"operator":null,"wikidata":null,"wikipedia":null,"power_mw":16.165,"method":"water-storage"}},{"type":"Feature","geometry":{"type":"Point","coordinates":[-8.21971,39.85395]},"properties":{"osm_type":"node","osm_id":12383101391,"country":"PT","name":null,"operator":null,"wikidata":null,"wikipedia":null,"power_mw":16.165,"method":"water-storage"}},{"type":"Feature","geometry":{"type":"Point","coordinates":[-7.85885,41.73826]},"properties":{"osm_type":"node","osm_id":12383237819,"country":"PT","name":null,"operator":null,"wikidata":null,"wikipedia":null,"power_mw":36.75,"method":"water-pumped-storage"}},{"type":"Feature","geometry":{"type":"Point","coordinates":[-7.85896,41.73834]},"properties":{"osm_type":"node","osm_id":12383237820,"country":"PT","name":null,"operator":null,"wikidata":null,"wikipedia":null,"power_mw":36.75,"method":"water-pumped-storage"}},{"type":"Feature","geometry":{"type":"Point","coordinates":[-8.17627,41.70009]},"properties":{"osm_type":"node","osm_id":12383407413,"country":"PT","name":"Grupo 2","operator":null,"wikidata":null,"wikipedia":null,"power_mw":73.6,"method":"water-pumped-storage"}},{"type":"Feature","geometry":{"type":"Point","coordinates":[-7.72794,40.37962]},"properties":{"osm_type":"node","osm_id":12921906319,"country":"PT","name":null,"operator":null,"wikidata":null,"wikipedia":null,"power_mw":null,"method":"run-of-the-river"}},{"type":"Feature","geometry":{"type":"Point","coordinates":[-8.20229,41.8701]},"properties":{"osm_type":"node","osm_id":13014520921,"country":"PT","name":null,"operator":"Energias de Portugal","wikidata":null,"wikipedia":null,"power_mw":317.0,"method":"water-storage"}},{"type":"Feature","geometry":{"type":"Point","coordinates":[-17.14744,32.73987]},"properties":{"osm_type":"node","osm_id":13055951753,"country":"PT","name":null,"operator":null,"wikidata":null,"wikipedia":null,"power_mw":null,"method":"run-of-the-river"}},{"type":"Feature","geometry":{"type":"Point","coordinates":[-8.19668,40.3401]},"properties":{"osm_type":"node","osm_id":13061006484,"country":"PT","name":null,"operator":null,"wikidata":null,"wikipedia":null,"power_mw":112.4,"method":"water-pumped-storage"}},{"type":"Feature","geometry":{"type":"Point","coordinates":[-8.19688,40.34023]},"properties":{"osm_type":"node","osm_id":13061006485,"country":"PT","name":null,"operator":null,"wikidata":null,"wikipedia":null,"power_mw":112.4,"method":"water-pumped-storage"}},{"type":"Feature","geometry":{"type":"Point","coordinates":[-8.19706,40.34035]},"properties":{"osm_type":"node","osm_id":13061006486,"country":"PT","name":null,"operator":null,"wikidata":null,"wikipedia":null,"power_mw":112.4,"method":"water-pumped-storage"}},{"type":"Feature","geometry":{"type":"Point","coordinates":[-7.86466,41.52446]},"properties":{"osm_type":"node","osm_id":13065357639,"country":"PT","name":null,"operator":"Iberdrola","wikidata":null,"wikipedia":null,"power_mw":4.1,"method":"water-storage"}},{"type":"Feature","geometry":{"type":"Point","coordinates":[-7.86497,41.52424]},"properties":{"osm_type":"node","osm_id":13065357668,"country":"PT","name":"Grupo 1","operator":"Iberdrola","wikidata":null,"wikipedia":null,"power_mw":57.0,"method":"water-pumped-storage"}},{"type":"Feature","geometry":{"type":"Point","coordinates":[-7.86482,41.52436]},"properties":{"osm_type":"node","osm_id":13065357669,"country":"PT","name":"Grupo 2","operator":"Iberdrola","wikidata":null,"wikipedia":null,"power_mw":57.0,"method":"water-pumped-storage"}},{"type":"Feature","geometry":{"type":"Point","coordinates":[-6.35192,41.3795]},"properties":{"osm_type":"node","osm_id":13067373361,"country":"PT","name":null,"operator":null,"wikidata":null,"wikipedia":null,"power_mw":62.0,"method":"water-storage"}},{"type":"Feature","geometry":{"type":"Point","coordinates":[-6.35208,41.37939]},"properties":{"osm_type":"node","osm_id":13067373362,"country":"PT","name":null,"operator":null,"wikidata":null,"wikipedia":null,"power_mw":62.0,"method":"water-storage"}},{"type":"Feature","geometry":{"type":"Point","coordinates":[-6.35224,41.37928]},"properties":{"osm_type":"node","osm_id":13067373363,"country":"PT","name":null,"operator":null,"wikidata":null,"wikipedia":null,"power_mw":62.0,"method":"water-storage"}},{"type":"Feature","geometry":{"type":"Point","coordinates":[-6.35304,41.38024]},"properties":{"osm_type":"node","osm_id":13067752049,"country":"PT","name":null,"operator":null,"wikidata":null,"wikipedia":null,"power_mw":246.0,"method":"water-storage"}},{"type":"Feature","geometry":{"type":"Point","coordinates":[-7.49693,38.19391]},"properties":{"osm_type":"node","osm_id":13069053772,"country":"PT","name":"Grupo 2","operator":"Energias de Portugal","wikidata":null,"wikipedia":null,"power_mw":129.6,"method":"water-pumped-storage"}},{"type":"Feature","geometry":{"type":"Point","coordinates":[-7.49702,38.19411]},"properties":{"osm_type":"node","osm_id":13069053773,"country":"PT","name":"Grupo 1","operator":"Energias de Portugal","wikidata":null,"wikipedia":null,"power_mw":129.6,"method":"water-pumped-storage"}},{"type":"Feature","geometry":{"type":"Point","coordinates":[-7.496,38.19682]},"properties":{"osm_type":"node","osm_id":13069053774,"country":"PT","name":null,"operator":"Energias de Portugal","wikidata":null,"wikipedia":null,"power_mw":129.6,"method":"water-pumped-storage"}},{"type":"Feature","geometry":{"type":"Point","coordinates":[-7.49623,38.19671]},"properties":{"osm_type":"node","osm_id":13069053775,"country":"PT","name":null,"operator":"Energias de Portugal","wikidata":null,"wikipedia":null,"power_mw":129.6,"method":"water-pumped-storage"}},{"type":"Feature","geometry":{"type":"Point","coordinates":[-8.26306,41.09647]},"properties":{"osm_type":"node","osm_id":13075884421,"country":"PT","name":null,"operator":null,"wikidata":null,"wikipedia":null,"power_mw":73.15,"method":"water-pumped-storage"}},{"type":"Feature","geometry":{"type":"Point","coordinates":[-8.26278,41.09664]},"properties":{"osm_type":"node","osm_id":13075884439,"country":"PT","name":null,"operator":null,"wikidata":null,"wikipedia":null,"power_mw":73.15,"method":"water-pumped-storage"}},{"type":"Feature","geometry":{"type":"Point","coordinates":[-7.73989,41.14685]},"properties":{"osm_type":"node","osm_id":13094879204,"country":"PT","name":null,"operator":"Energias de Portugal","wikidata":null,"wikipedia":null,"power_mw":58.84,"method":"water-storage"}},{"type":"Feature","geometry":{"type":"Point","coordinates":[-7.73982,41.14706]},"properties":{"osm_type":"node","osm_id":13094879205,"country":"PT","name":null,"operator":"Energias de Portugal","wikidata":null,"wikipedia":null,"power_mw":58.84,"method":"water-storage"}},{"type":"Feature","geometry":{"type":"Point","coordinates":[-7.73975,41.14727]},"properties":{"osm_type":"node","osm_id":13094879206,"country":"PT","name":null,"operator":"Energias de Portugal","wikidata":null,"wikipedia":null,"power_mw":58.84,"method":"water-storage"}},{"type":"Feature","geometry":{"type":"Point","coordinates":[-8.31915,39.54257]},"properties":{"osm_type":"node","osm_id":13104360708,"country":"PT","name":null,"operator":"Energias de Portugal","wikidata":null,"wikipedia":null,"power_mw":46.0,"method":"water-storage"}},{"type":"Feature","geometry":{"type":"Point","coordinates":[-8.31924,39.54268]},"properties":{"osm_type":"node","osm_id":13104360709,"country":"PT","name":null,"operator":"Energias de Portugal","wikidata":null,"wikipedia":null,"power_mw":46.0,"method":"water-storage"}},{"type":"Feature","geometry":{"type":"Point","coordinates":[-8.31933,39.5428]},"properties":{"osm_type":"node","osm_id":13104360710,"country":"PT","name":null,"operator":"Energias de Portugal","wikidata":null,"wikipedia":null,"power_mw":46.0,"method":"water-storage"}},{"type":"Feature","geometry":{"type":"Point","coordinates":[-8.4858,41.07156]},"properties":{"osm_type":"node","osm_id":13109295615,"country":"PT","name":null,"operator":null,"wikidata":null,"wikipedia":null,"power_mw":39.0,"method":"water-storage"}},{"type":"Feature","geometry":{"type":"Point","coordinates":[-8.48587,41.07172]},"properties":{"osm_type":"node","osm_id":13109295618,"country":"PT","name":null,"operator":null,"wikidata":null,"wikipedia":null,"power_mw":39.0,"method":"water-storage"}},{"type":"Feature","geometry":{"type":"Point","coordinates":[-8.48594,41.07189]},"properties":{"osm_type":"node","osm_id":13109295619,"country":"PT","name":null,"operator":"Energias de Portugal","wikidata":null,"wikipedia":null,"power_mw":39.0,"method":"water-storage"}},{"type":"Feature","geometry":{"type":"Point","coordinates":[-7.8029,39.54284]},"properties":{"osm_type":"node","osm_id":13110410990,"country":"PT","name":null,"operator":"Energias de Portugal","wikidata":null,"wikipedia":null,"power_mw":45.6,"method":"water-storage"}},{"type":"Feature","geometry":{"type":"Point","coordinates":[-7.80289,39.54269]},"properties":{"osm_type":"node","osm_id":13110410991,"country":"PT","name":null,"operator":"Energias de Portugal","wikidata":null,"wikipedia":null,"power_mw":45.6,"method":"water-storage"}},{"type":"Feature","geometry":{"type":"Point","coordinates":[-6.26732,41.48817]},"properties":{"osm_type":"node","osm_id":13110511465,"country":"PT","name":"Grupo 4","operator":null,"wikidata":null,"wikipedia":null,"power_mw":193.0,"method":"water-storage"}},{"type":"Feature","geometry":{"type":"Point","coordinates":[-6.26585,41.48878]},"properties":{"osm_type":"node","osm_id":13110511466,"country":"PT","name":null,"operator":null,"wikidata":null,"wikipedia":null,"power_mw":58.84,"method":"water-storage"}},{"type":"Feature","geometry":{"type":"Point","coordinates":[-6.26561,41.48877]},"properties":{"osm_type":"node","osm_id":13110511467,"country":"PT","name":null,"operator":null,"wikidata":null,"wikipedia":null,"power_mw":58.84,"method":"water-storage"}},{"type":"Feature","geometry":{"type":"Point","coordinates":[-6.26537,41.48877]},"properties":{"osm_type":"node","osm_id":13110511468,"country":"PT","name":null,"operator":null,"wikidata":null,"wikipedia":null,"power_mw":58.84,"method":"water-storage"}},{"type":"Feature","geometry":{"type":"Point","coordinates":[-8.09235,41.6906]},"properties":{"osm_type":"node","osm_id":13111032446,"country":"PT","name":null,"operator":null,"wikidata":null,"wikipedia":null,"power_mw":21.8,"method":"water-storage"}},{"type":"Feature","geometry":{"type":"Point","coordinates":[-8.09241,41.69066]},"properties":{"osm_type":"node","osm_id":13111032449,"country":"PT","name":null,"operator":null,"wikidata":null,"wikipedia":null,"power_mw":21.8,"method":"water-storage"}},{"type":"Feature","geometry":{"type":"Point","coordinates":[-8.13222,39.91748]},"properties":{"osm_type":"node","osm_id":13117132040,"country":"PT","name":null,"operator":"Energias de Portugal","wikidata":null,"wikipedia":null,"power_mw":47.0,"method":"water-storage"}},{"type":"Feature","geometry":{"type":"Point","coordinates":[-8.13246,39.91753]},"properties":{"osm_type":"node","osm_id":13117132041,"country":"PT","name":null,"operator":"Energias de Portugal","wikidata":null,"wikipedia":null,"power_mw":47.0,"method":"water-storage"}},{"type":"Feature","geometry":{"type":"Point","coordinates":[-8.13036,41.0846]},"properties":{"osm_type":"node","osm_id":13121730235,"country":"PT","name":null,"operator":"Energias de Portugal","wikidata":null,"wikipedia":null,"power_mw":63.4,"method":"water-storage"}},{"type":"Feature","geometry":{"type":"Point","coordinates":[-8.13053,41.08476]},"properties":{"osm_type":"node","osm_id":13121730237,"country":"PT","name":null,"operator":"Energias de Portugal","wikidata":null,"wikipedia":null,"power_mw":63.4,"method":"water-storage"}},{"type":"Feature","geometry":{"type":"Point","coordinates":[-8.13071,41.08491]},"properties":{"osm_type":"node","osm_id":13121730239,"country":"PT","name":null,"operator":"Energias de Portugal","wikidata":null,"wikipedia":null,"power_mw":63.4,"method":"water-storage"}},{"type":"Feature","geometry":{"type":"Point","coordinates":[-7.11415,41.13402]},"properties":{"osm_type":"node","osm_id":13121926103,"country":"PT","name":null,"operator":"Energias de Portugal","wikidata":null,"wikipedia":null,"power_mw":57.6,"method":"water-storage"}},{"type":"Feature","geometry":{"type":"Point","coordinates":[-7.11421,41.13426]},"properties":{"osm_type":"node","osm_id":13121926104,"country":"PT","name":null,"operator":"Energias de Portugal","wikidata":null,"wikipedia":null,"power_mw":57.6,"method":"water-storage"}},{"type":"Feature","geometry":{"type":"Point","coordinates":[-7.11428,41.1345]},"properties":{"osm_type":"node","osm_id":13121926105,"country":"PT","name":null,"operator":"Energias de Portugal","wikidata":null,"wikipedia":null,"power_mw":57.6,"method":"water-storage"}},{"type":"Feature","geometry":{"type":"Point","coordinates":[-8.3219,40.74181]},"properties":{"osm_type":"node","osm_id":13123291267,"country":"PT","name":null,"operator":"Energias de Portugal","wikidata":null,"wikipedia":null,"power_mw":73.6,"method":"water-storage"}},{"type":"Feature","geometry":{"type":"Point","coordinates":[-7.37373,41.1604]},"properties":{"osm_type":"node","osm_id":13124255908,"country":"PT","name":null,"operator":"EDP","wikidata":null,"wikipedia":null,"power_mw":82.4,"method":"water-storage"}},{"type":"Feature","geometry":{"type":"Point","coordinates":[-7.37404,41.16042]},"properties":{"osm_type":"node","osm_id":13124255909,"country":"PT","name":null,"operator":"EDP","wikidata":null,"wikipedia":null,"power_mw":82.4,"method":"water-storage"}},{"type":"Feature","geometry":{"type":"Point","coordinates":[-7.37436,41.16044]},"properties":{"osm_type":"node","osm_id":13124255914,"country":"PT","name":null,"operator":"EDP","wikidata":null,"wikipedia":null,"power_mw":82.4,"method":"water-storage"}},{"type":"Feature","geometry":{"type":"Point","coordinates":[-8.02328,41.07514]},"properties":{"osm_type":"node","osm_id":13125074898,"country":"PT","name":null,"operator":"Aquila Capital","wikidata":null,"wikipedia":null,"power_mw":4.6,"method":"run-of-the-river"}},{"type":"Feature","geometry":{"type":"Point","coordinates":[-7.99841,39.48077]},"properties":{"osm_type":"node","osm_id":13125173401,"country":"PT","name":"Grupo 4","operator":null,"wikidata":null,"wikipedia":null,"power_mw":8.091,"method":"water-storage"}},{"type":"Feature","geometry":{"type":"Point","coordinates":[-7.99833,39.48046]},"properties":{"osm_type":"node","osm_id":13125173402,"country":"PT","name":"Grupo 6","operator":null,"wikidata":null,"wikipedia":null,"power_mw":35.304,"method":"water-storage"}},{"type":"Feature","geometry":{"type":"Point","coordinates":[-7.99839,39.48068]},"properties":{"osm_type":"node","osm_id":13125173403,"country":"PT","name":"Grupo 5","operator":null,"wikidata":null,"wikipedia":null,"power_mw":15.997,"method":"water-storage"}},{"type":"Feature","geometry":{"type":"Point","coordinates":[-7.99844,39.48086]},"properties":{"osm_type":"node","osm_id":13125173404,"country":"PT","name":"Grupo 3","operator":null,"wikidata":null,"wikipedia":null,"power_mw":8.091,"method":"water-storage"}},{"type":"Feature","geometry":{"type":"Point","coordinates":[-7.99846,39.48095]},"properties":{"osm_type":"node","osm_id":13125173405,"country":"PT","name":"Grupo 2","operator":null,"wikidata":null,"wikipedia":null,"power_mw":8.091,"method":"water-storage"}},{"type":"Feature","geometry":{"type":"Point","coordinates":[-7.33592,40.54215]},"properties":{"osm_type":"node","osm_id":13125264236,"country":"PT","name":null,"operator":"Energias de Portugal","wikidata":null,"wikipedia":null,"power_mw":41.4,"method":"run-of-the-river"}},{"type":"Feature","geometry":{"type":"Point","coordinates":[-8.23306,41.65399]},"properties":{"osm_type":"node","osm_id":13125270856,"country":"PT","name":null,"operator":null,"wikidata":null,"wikipedia":null,"power_mw":31.0,"method":"water-storage"}},{"type":"Feature","geometry":{"type":"Point","coordinates":[-7.96944,41.50528]},"properties":{"osm_type":"node","osm_id":13125331940,"country":"PT","name":null,"operator":"Aquila Capital","wikidata":null,"wikipedia":null,"power_mw":0.377,"method":"run-of-the-river"}},{"type":"Feature","geometry":{"type":"Point","coordinates":[-8.15282,41.57803]},"properties":{"osm_type":"node","osm_id":13125388092,"country":"PT","name":"Grupo 1","operator":null,"wikidata":null,"wikipedia":null,"power_mw":6.251,"method":"water-storage"}},{"type":"Feature","geometry":{"type":"Point","coordinates":[-8.15269,41.578]},"properties":{"osm_type":"node","osm_id":13125388093,"country":"PT","name":"Grupo 2","operator":null,"wikidata":null,"wikipedia":null,"power_mw":4.597,"method":"water-storage"}},{"type":"Feature","geometry":{"type":"Point","coordinates":[-8.227,40.09622]},"properties":{"osm_type":"node","osm_id":13125515618,"country":"PT","name":"Grupo 1","operator":"Energias de Portugal","wikidata":null,"wikipedia":null,"power_mw":232.0,"method":"run-of-the-river"}},{"type":"Feature","geometry":{"type":"Point","coordinates":[-8.16122,40.5593]},"properties":{"osm_type":"node","osm_id":13125527847,"country":"PT","name":null,"operator":null,"wikidata":null,"wikipedia":null,"power_mw":0.2,"method":"run-of-the-river"}},{"type":"Feature","geometry":{"type":"Point","coordinates":[-8.7613,41.88452]},"properties":{"osm_type":"node","osm_id":13125543579,"country":"PT","name":null,"operator":null,"wikidata":null,"wikipedia":null,"power_mw":7.016,"method":"run-of-the-river"}},{"type":"Feature","geometry":{"type":"Point","coordinates":[-8.13839,41.5857]},"properties":{"osm_type":"node","osm_id":13125586965,"country":"PT","name":"Grupo 2","operator":"Energias de Portugal","wikidata":null,"wikipedia":null,"power_mw":1950.0,"method":"water-storage"}},{"type":"Feature","geometry":{"type":"Point","coordinates":[-8.13839,41.58575]},"properties":{"osm_type":"node","osm_id":13125586966,"country":"PT","name":"Grupo 1","operator":"Energias de Portugal","wikidata":null,"wikipedia":null,"power_mw":2022.0,"method":"water-storage"}},{"type":"Feature","geometry":{"type":"Point","coordinates":[-8.00729,41.70207]},"properties":{"osm_type":"node","osm_id":13125728121,"country":"PT","name":"Grupo 3","operator":null,"wikidata":null,"wikipedia":null,"power_mw":29.094,"method":"water-storage"}},{"type":"Feature","geometry":{"type":"Point","coordinates":[-8.00742,41.70199]},"properties":{"osm_type":"node","osm_id":13125728122,"country":"PT","name":"Grupo 2","operator":null,"wikidata":null,"wikipedia":null,"power_mw":29.094,"method":"water-storage"}},{"type":"Feature","geometry":{"type":"Point","coordinates":[-8.00755,41.70192]},"properties":{"osm_type":"node","osm_id":13125728123,"country":"PT","name":"Grupo 1","operator":null,"wikidata":null,"wikipedia":null,"power_mw":29.094,"method":"water-storage"}},{"type":"Feature","geometry":{"type":"Point","coordinates":[-7.70502,40.38488]},"properties":{"osm_type":"node","osm_id":13131740576,"country":"PT","name":null,"operator":null,"wikidata":null,"wikipedia":null,"power_mw":8.0,"method":"run-of-the-river"}},{"type":"Feature","geometry":{"type":"Point","coordinates":[-8.5371,41.5487]},"properties":{"osm_type":"node","osm_id":13131840482,"country":"PT","name":"Grupo 2","operator":"Aquila Capital","wikidata":null,"wikipedia":null,"power_mw":2.997,"method":"run-of-the-river"}},{"type":"Feature","geometry":{"type":"Point","coordinates":[-8.5377,41.54917]},"properties":{"osm_type":"node","osm_id":13131840483,"country":"PT","name":"Grupo 1","operator":"Aquila Capital","wikidata":null,"wikipedia":null,"power_mw":1.875,"method":"run-of-the-river"}},{"type":"Feature","geometry":{"type":"Point","coordinates":[-8.16808,41.57694]},"properties":{"osm_type":"node","osm_id":13131865552,"country":"PT","name":null,"operator":"Energias de Portugal","wikidata":null,"wikipedia":null,"power_mw":2.813,"method":"run-of-the-river"}},{"type":"Feature","geometry":{"type":"Point","coordinates":[-7.81267,39.56488]},"properties":{"osm_type":"node","osm_id":13131941210,"country":"PT","name":"Grupo 2","operator":"Energias de Portugal","wikidata":null,"wikipedia":null,"power_mw":8.0,"method":"water-storage"}},{"type":"Feature","geometry":{"type":"Point","coordinates":[-7.81266,39.56476]},"properties":{"osm_type":"node","osm_id":13131941211,"country":"PT","name":"Grupo 1","operator":"Energias de Portugal","wikidata":null,"wikipedia":null,"power_mw":8.0,"method":"water-storage"}},{"type":"Feature","geometry":{"type":"Point","coordinates":[-7.81285,39.56499]},"properties":{"osm_type":"node","osm_id":13131941212,"country":"PT","name":"Grupo 3","operator":"Energias de Portugal","wikidata":null,"wikipedia":null,"power_mw":25.0,"method":"water-storage"}},{"type":"Feature","geometry":{"type":"Point","coordinates":[-8.24865,40.30908]},"properties":{"osm_type":"node","osm_id":13131976294,"country":"PT","name":null,"operator":"Energias de Portugal","wikidata":null,"wikipedia":null,"power_mw":13.0,"method":"water-storage"}},{"type":"Feature","geometry":{"type":"Point","coordinates":[-8.2487,40.30916]},"properties":{"osm_type":"node","osm_id":13131976295,"country":"PT","name":null,"operator":"Energias de Portugal","wikidata":null,"wikipedia":null,"power_mw":13.0,"method":"water-storage"}},{"type":"Feature","geometry":{"type":"Point","coordinates":[-7.66242,40.39667]},"properties":{"osm_type":"node","osm_id":13131982644,"country":"PT","name":"Sabugueiro II","operator":"Energias de Portugal","wikidata":null,"wikipedia":null,"power_mw":10.0,"method":"run-of-the-river"}},{"type":"Feature","geometry":{"type":"Point","coordinates":[-6.93063,40.70218]},"properties":{"osm_type":"node","osm_id":13131998217,"country":"PT","name":null,"operator":"Energias de Portugal","wikidata":null,"wikipedia":null,"power_mw":null,"method":"run-of-the-river"}},{"type":"Feature","geometry":{"type":"Point","coordinates":[-7.81864,40.0797]},"properties":{"osm_type":"node","osm_id":13134678432,"country":"PT","name":null,"operator":"Energias de Portugal","wikidata":null,"wikipedia":null,"power_mw":6.472,"method":"water-storage"}},{"type":"Feature","geometry":{"type":"Point","coordinates":[-7.81853,40.07968]},"properties":{"osm_type":"node","osm_id":13134678434,"country":"PT","name":null,"operator":"Energias de Portugal","wikidata":null,"wikipedia":null,"power_mw":6.472,"method":"water-storage"}},{"type":"Feature","geometry":{"type":"Point","coordinates":[-7.81842,40.07965]},"properties":{"osm_type":"node","osm_id":13134678435,"country":"PT","name":null,"operator":"Energias de Portugal","wikidata":null,"wikipedia":null,"power_mw":6.472,"method":"water-storage"}},{"type":"Feature","geometry":{"type":"Point","coordinates":[-7.81874,40.07973]},"properties":{"osm_type":"node","osm_id":13134678436,"country":"PT","name":null,"operator":"Energias de Portugal","wikidata":null,"wikipedia":null,"power_mw":6.472,"method":"water-storage"}},{"type":"Feature","geometry":{"type":"Point","coordinates":[-8.35406,41.8124]},"properties":{"osm_type":"node","osm_id":13135095919,"country":"PT","name":null,"operator":"Energias de Portugal","wikidata":null,"wikipedia":null,"power_mw":22.2,"method":"water-storage"}},{"type":"Feature","geometry":{"type":"Point","coordinates":[-7.77548,41.14011]},"properties":{"osm_type":"node","osm_id":13135173364,"country":"PT","name":"Grupo 1","operator":"Energias de Portugal","wikidata":null,"wikipedia":null,"power_mw":11.473,"method":"water-storage"}},{"type":"Feature","geometry":{"type":"Point","coordinates":[-7.77546,41.14016]},"properties":{"osm_type":"node","osm_id":13135173366,"country":"PT","name":"Grupo 2","operator":"Energias de Portugal","wikidata":null,"wikipedia":null,"power_mw":7.722,"method":"water-storage"}},{"type":"Feature","geometry":{"type":"Point","coordinates":[-7.77545,41.14021]},"properties":{"osm_type":"node","osm_id":13135173370,"country":"PT","name":"Grupo 3","operator":"Energias de Portugal","wikidata":null,"wikipedia":null,"power_mw":5.516,"method":"water-storage"}},{"type":"Feature","geometry":{"type":"Point","coordinates":[-7.55174,41.11329]},"properties":{"osm_type":"node","osm_id":13135214708,"country":"PT","name":null,"operator":"Energias de Portugal","wikidata":null,"wikipedia":null,"power_mw":32.65,"method":"water-storage"}},{"type":"Feature","geometry":{"type":"Point","coordinates":[-7.55154,41.11316]},"properties":{"osm_type":"node","osm_id":13135214709,"country":"PT","name":null,"operator":"Energias de Portugal","wikidata":null,"wikipedia":null,"power_mw":32.65,"method":"water-storage"}},{"type":"Feature","geometry":{"type":"Point","coordinates":[-7.5751,37.99595]},"properties":{"osm_type":"node","osm_id":13136989747,"country":"PT","name":null,"operator":null,"wikidata":null,"wikipedia":null,"power_mw":null,"method":"run-of-the-river"}},{"type":"Feature","geometry":{"type":"Point","coordinates":[-6.98336,41.81858]},"properties":{"osm_type":"node","osm_id":13139791783,"country":"PT","name":null,"operator":"Aquila Capital","wikidata":null,"wikipedia":null,"power_mw":null,"method":"run-of-the-river"}},{"type":"Feature","geometry":{"type":"Point","coordinates":[-6.98341,41.81858]},"properties":{"osm_type":"node","osm_id":13139791785,"country":"PT","name":null,"operator":"Aquila Capital","wikidata":null,"wikipedia":null,"power_mw":null,"method":"run-of-the-river"}},{"type":"Feature","geometry":{"type":"Point","coordinates":[-7.78662,41.54491]},"properties":{"osm_type":"node","osm_id":13139866731,"country":"PT","name":null,"operator":"Empreendimentos Hidroeléctricos do Alto Tâmega e Barroso","wikidata":null,"wikipedia":null,"power_mw":5.0,"method":"water-pumped-storage"}},{"type":"Feature","geometry":{"type":"Point","coordinates":[-17.14973,32.74529]},"properties":{"osm_type":"node","osm_id":13155993044,"country":"PT","name":null,"operator":null,"wikidata":null,"wikipedia":null,"power_mw":14850.0,"method":"water-pumped-storage"}},{"type":"Feature","geometry":{"type":"Point","coordinates":[-17.14978,32.74523]},"properties":{"osm_type":"node","osm_id":13155993045,"country":"PT","name":null,"operator":null,"wikidata":null,"wikipedia":null,"power_mw":14850.0,"method":"water-pumped-storage"}},{"type":"Feature","geometry":{"type":"Point","coordinates":[-8.2189,41.55581]},"properties":{"osm_type":"node","osm_id":13156379469,"country":"PT","name":null,"operator":"Energias de Portugal","wikidata":null,"wikipedia":null,"power_mw":3.383,"method":"run-of-the-river"}},{"type":"Feature","geometry":{"type":"Point","coordinates":[-8.21898,41.55582]},"properties":{"osm_type":"node","osm_id":13156379489,"country":"PT","name":null,"operator":"Energias de Portugal","wikidata":null,"wikipedia":null,"power_mw":5.442,"method":"run-of-the-river"}},{"type":"Feature","geometry":{"type":"Point","coordinates":[-7.14397,39.00036]},"properties":{"osm_type":"node","osm_id":13165786470,"country":"PT","name":null,"operator":"Associação de Beneficiários do Caia","wikidata":null,"wikipedia":null,"power_mw":0.6,"method":"water-storage"}},{"type":"Feature","geometry":{"type":"Point","coordinates":[-7.2404,41.14036]},"properties":{"osm_type":"node","osm_id":13167280844,"country":"PT","name":null,"operator":null,"wikidata":null,"wikipedia":null,"power_mw":null,"method":"water-storage"}},{"type":"Feature","geometry":{"type":"Point","coordinates":[-8.24684,40.67044]},"properties":{"osm_type":"node","osm_id":13167307170,"country":"PT","name":null,"operator":null,"wikidata":null,"wikipedia":null,"power_mw":3.923,"method":"run-of-the-river"}},{"type":"Feature","geometry":{"type":"Point","coordinates":[-7.58982,40.30849]},"properties":{"osm_type":"node","osm_id":13167476104,"country":"PT","name":null,"operator":"HIDROCORGO","wikidata":null,"wikipedia":null,"power_mw":null,"method":"run-of-the-river"}},{"type":"Feature","geometry":{"type":"Point","coordinates":[-8.35332,40.71409]},"properties":{"osm_type":"node","osm_id":13167693961,"country":"PT","name":null,"operator":null,"wikidata":null,"wikipedia":null,"power_mw":null,"method":"water-storage"}},{"type":"Feature","geometry":{"type":"Point","coordinates":[-8.16433,40.24592]},"properties":{"osm_type":"node","osm_id":13176627151,"country":"PT","name":null,"operator":"HEC - Hidroeléctrica do Centro","wikidata":null,"wikipedia":null,"power_mw":0.8,"method":"water-storage"}},{"type":"Feature","geometry":{"type":"Point","coordinates":[-8.11081,38.95481]},"properties":{"osm_type":"node","osm_id":13176744140,"country":"PT","name":null,"operator":"Direção-Geral de Agricultura e Desenvolvimento Rural","wikidata":null,"wikipedia":null,"power_mw":null,"method":"run-of-the-river"}},{"type":"Feature","geometry":{"type":"Point","coordinates":[-7.20119,39.9444]},"properties":{"osm_type":"node","osm_id":13176999033,"country":"PT","name":null,"operator":"Direção-Geral de Agricultura e Desenvolvimento Rural","wikidata":null,"wikipedia":null,"power_mw":2.5,"method":"water-storage"}},{"type":"Feature","geometry":{"type":"Point","coordinates":[-7.97717,39.01575]},"properties":{"osm_type":"node","osm_id":13177934858,"country":"PT","name":null,"operator":"Direção-Geral de Agricultura e Desenvolvimento Rural","wikidata":null,"wikipedia":null,"power_mw":6.1,"method":"water-storage"}},{"type":"Feature","geometry":{"type":"Point","coordinates":[-8.17785,39.05324]},"properties":{"osm_type":"node","osm_id":13178385236,"country":"PT","name":null,"operator":null,"wikidata":null,"wikipedia":null,"power_mw":3.6,"method":"water-storage"}},{"type":"Feature","geometry":{"type":"Point","coordinates":[-7.61031,39.52649]},"properties":{"osm_type":"node","osm_id":13183968591,"country":"PT","name":null,"operator":null,"wikidata":null,"wikipedia":null,"power_mw":null,"method":"water-storage"}},{"type":"Feature","geometry":{"type":"Point","coordinates":[-7.17473,41.74068]},"properties":{"osm_type":"node","osm_id":13185725444,"country":"PT","name":null,"operator":"Aquila Capital","wikidata":null,"wikipedia":null,"power_mw":10.0,"method":"water-storage"}},{"type":"Feature","geometry":{"type":"Point","coordinates":[-8.08137,37.93015]},"properties":{"osm_type":"node","osm_id":13186001485,"country":"PT","name":null,"operator":"Empresa de Desenvolvimento e Infra-estruturas do Alqueva","wikidata":null,"wikipedia":null,"power_mw":null,"method":"water-storage"}},{"type":"Feature","geometry":{"type":"Point","coordinates":[-6.77557,41.959]},"properties":{"osm_type":"node","osm_id":13188469193,"country":"PT","name":null,"operator":"Câmara Municipal de Bragança","wikidata":null,"wikipedia":null,"power_mw":null,"method":"water-storage"}},{"type":"Feature","geometry":{"type":"Point","coordinates":[-7.02927,40.81737]},"properties":{"osm_type":"node","osm_id":13188477386,"country":"PT","name":null,"operator":"Energias Hidroeléctricas","wikidata":null,"wikipedia":null,"power_mw":null,"method":"run-of-the-river"}},{"type":"Feature","geometry":{"type":"Point","coordinates":[-7.02923,40.81741]},"properties":{"osm_type":"node","osm_id":13188477393,"country":"PT","name":null,"operator":"Energias Hidroeléctricas","wikidata":null,"wikipedia":null,"power_mw":null,"method":"run-of-the-river"}},{"type":"Feature","geometry":{"type":"Point","coordinates":[-7.76127,41.27053]},"properties":{"osm_type":"node","osm_id":13188562194,"country":"PT","name":null,"operator":"Aquila Capital","wikidata":null,"wikipedia":null,"power_mw":10.0,"method":"water-storage"}},{"type":"Feature","geometry":{"type":"Point","coordinates":[-8.2969,38.24748]},"properties":{"osm_type":"node","osm_id":13189021951,"country":"PT","name":null,"operator":"Direção-Geral de Agricultura e Desenvolvimento Rural","wikidata":null,"wikipedia":null,"power_mw":null,"method":"water-storage"}},{"type":"Feature","geometry":{"type":"Point","coordinates":[-7.58866,40.39977]},"properties":{"osm_type":"node","osm_id":13189070908,"country":"PT","name":null,"operator":null,"wikidata":null,"wikipedia":null,"power_mw":10.0,"method":"water-storage"}},{"type":"Feature","geometry":{"type":"Point","coordinates":[-8.44877,41.3579]},"properties":{"osm_type":"node","osm_id":13189505498,"country":"PT","name":null,"operator":"Hidroelétrica da Boavista","wikidata":null,"wikipedia":null,"power_mw":null,"method":"run-of-the-river"}},{"type":"Feature","geometry":{"type":"Point","coordinates":[-7.72973,40.11155]},"properties":{"osm_type":"node","osm_id":13189516090,"country":"PT","name":null,"operator":"DiretrizVerde","wikidata":null,"wikipedia":null,"power_mw":null,"method":"run-of-the-river"}},{"type":"Feature","geometry":{"type":"Point","coordinates":[-6.18923,41.57354]},"properties":{"osm_type":"node","osm_id":13191226660,"country":"PT","name":null,"operator":"Iberdrola","wikidata":null,"wikipedia":null,"power_mw":112.9,"method":"water-storage"}},{"type":"Feature","geometry":{"type":"Point","coordinates":[-6.18908,41.57562]},"properties":{"osm_type":"node","osm_id":13191226673,"country":"PT","name":null,"operator":"Iberdrola","wikidata":null,"wikipedia":null,"power_mw":null,"method":"water-storage"}},{"type":"Feature","geometry":{"type":"Point","coordinates":[-6.18928,41.5756]},"properties":{"osm_type":"node","osm_id":13191226674,"country":"PT","name":null,"operator":"Iberdrola","wikidata":null,"wikipedia":null,"power_mw":null,"method":"water-storage"}},{"type":"Feature","geometry":{"type":"Point","coordinates":[-25.29397,37.76943]},"properties":{"osm_type":"node","osm_id":13205425025,"country":"PT","name":null,"operator":"Eletricidade dos Açores","wikidata":null,"wikipedia":null,"power_mw":94.0,"method":null}},{"type":"Feature","geometry":{"type":"Point","coordinates":[-25.3072,37.74638]},"properties":{"osm_type":"node","osm_id":13205432118,"country":"PT","name":null,"operator":"Eletricidade dos Açores","wikidata":null,"wikipedia":null,"power_mw":1.658,"method":"run-of-the-river"}},{"type":"Feature","geometry":{"type":"Point","coordinates":[-25.46959,37.73608]},"properties":{"osm_type":"node","osm_id":13205453481,"country":"PT","name":null,"operator":"Eletricidade dos Açores","wikidata":null,"wikipedia":null,"power_mw":608.0,"method":"run-of-the-river"}},{"type":"Feature","geometry":{"type":"Point","coordinates":[-25.29134,37.76287]},"properties":{"osm_type":"node","osm_id":13205599788,"country":"PT","name":null,"operator":"Eletricidade dos Açores","wikidata":null,"wikipedia":null,"power_mw":400.0,"method":null}},{"type":"Feature","geometry":{"type":"Point","coordinates":[-25.46738,37.71596]},"properties":{"osm_type":"node","osm_id":13206982937,"country":"PT","name":null,"operator":"Eletricidade dos Açores","wikidata":null,"wikipedia":null,"power_mw":800.0,"method":"run-of-the-river"}},{"type":"Feature","geometry":{"type":"Point","coordinates":[-25.29932,37.73764]},"properties":{"osm_type":"node","osm_id":13206984605,"country":"PT","name":null,"operator":"Eletricidade dos Açores","wikidata":null,"wikipedia":null,"power_mw":800.0,"method":"run-of-the-river"}},{"type":"Feature","geometry":{"type":"Point","coordinates":[-25.49478,37.79594]},"properties":{"osm_type":"node","osm_id":13207016836,"country":"PT","name":"Central Hídrica do Salto do Cabrito","operator":"Eletricidade dos Açores","wikidata":null,"wikipedia":null,"power_mw":670.0,"method":"run-of-the-river"}},{"type":"Feature","geometry":{"type":"Point","coordinates":[-27.21917,38.65701]},"properties":{"osm_type":"node","osm_id":13228530325,"country":"PT","name":null,"operator":"Eletricidade dos Açores","wikidata":null,"wikipedia":null,"power_mw":264.0,"method":"run-of-the-river"}},{"type":"Feature","geometry":{"type":"Point","coordinates":[-27.22198,38.66382]},"properties":{"osm_type":"node","osm_id":13228582761,"country":"PT","name":null,"operator":"Eletricidade dos Açores","wikidata":null,"wikipedia":null,"power_mw":448.0,"method":"run-of-the-river"}},{"type":"Feature","geometry":{"type":"Point","coordinates":[-27.21176,38.68364]},"properties":{"osm_type":"node","osm_id":13228590179,"country":"PT","name":null,"operator":"Eletricidade dos Açores","wikidata":null,"wikipedia":null,"power_mw":720.0,"method":"run-of-the-river"}},{"type":"Feature","geometry":{"type":"Point","coordinates":[-28.77161,38.56697]},"properties":{"osm_type":"node","osm_id":13232895438,"country":"PT","name":null,"operator":"Eletricidade dos Açores","wikidata":null,"wikipedia":null,"power_mw":320.0,"method":null}},{"type":"Feature","geometry":{"type":"Point","coordinates":[-31.14173,39.46994]},"properties":{"osm_type":"node","osm_id":13233273333,"country":"PT","name":null,"operator":null,"wikidata":null,"wikipedia":null,"power_mw":0.52,"method":"run-of-the-river"}},{"type":"Feature","geometry":{"type":"Point","coordinates":[-31.14171,39.46998]},"properties":{"osm_type":"node","osm_id":13233273334,"country":"PT","name":null,"operator":null,"wikidata":null,"wikipedia":null,"power_mw":0.52,"method":"run-of-the-river"}},{"type":"Feature","geometry":{"type":"Point","coordinates":[-31.14168,39.47003]},"properties":{"osm_type":"node","osm_id":13233273335,"country":"PT","name":null,"operator":null,"wikidata":null,"wikipedia":null,"power_mw":0.592,"method":"run-of-the-river"}},{"type":"Feature","geometry":{"type":"Point","coordinates":[-7.73956,41.62065]},"properties":{"osm_type":"node","osm_id":13254612694,"country":"PT","name":null,"operator":"RP GLOBAL PORTUGAL","wikidata":null,"wikipedia":null,"power_mw":10.0,"method":"run-of-the-river"}},{"type":"Feature","geometry":{"type":"Point","coordinates":[-7.94751,41.12498]},"properties":{"osm_type":"node","osm_id":13256836472,"country":"PT","name":null,"operator":"Mini-Hídrica do Assobio, Lda.","wikidata":null,"wikipedia":null,"power_mw":1.05,"method":"run-of-the-river"}},{"type":"Feature","geometry":{"type":"Point","coordinates":[-7.92486,40.29369]},"properties":{"osm_type":"node","osm_id":13256893133,"country":"PT","name":null,"operator":"Hidroelétrica do Alva, Lda.","wikidata":null,"wikipedia":null,"power_mw":1.662,"method":"run-of-the-river"}},{"type":"Feature","geometry":{"type":"Point","coordinates":[-8.62897,41.34274]},"properties":{"osm_type":"node","osm_id":13256896610,"country":"PT","name":null,"operator":"Garfer Internacional","wikidata":null,"wikipedia":null,"power_mw":0.75,"method":"run-of-the-river"}},{"type":"Feature","geometry":{"type":"Point","coordinates":[-7.82226,40.52699]},"properties":{"osm_type":"node","osm_id":13256914516,"country":"PT","name":null,"operator":"Mini-Hídrica de Senhorim, Lda.","wikidata":null,"wikipedia":null,"power_mw":0.883,"method":"run-of-the-river"}},{"type":"Feature","geometry":{"type":"Point","coordinates":[-8.6444,41.35067]},"properties":{"osm_type":"node","osm_id":13256933205,"country":"PT","name":null,"operator":"Garfer Internacional","wikidata":null,"wikipedia":null,"power_mw":390.0,"method":"run-of-the-river"}},{"type":"Feature","geometry":{"type":"Point","coordinates":[-8.02784,41.09386]},"properties":{"osm_type":"node","osm_id":13476454319,"country":"PT","name":null,"operator":null,"wikidata":null,"wikipedia":null,"power_mw":1.544,"method":"run-of-the-river"}},{"type":"Feature","geometry":{"type":"Point","coordinates":[-8.02784,41.09394]},"properties":{"osm_type":"node","osm_id":13476454320,"country":"PT","name":null,"operator":null,"wikidata":null,"wikipedia":null,"power_mw":1.544,"method":"run-of-the-river"}},{"type":"Feature","geometry":{"type":"Point","coordinates":[-7.74875,41.27215]},"properties":{"osm_type":"node","osm_id":13476663863,"country":"PT","name":null,"operator":null,"wikidata":null,"wikipedia":null,"power_mw":1.663,"method":"run-of-the-river"}},{"type":"Feature","geometry":{"type":"Point","coordinates":[-7.74881,41.27212]},"properties":{"osm_type":"node","osm_id":13476663864,"country":"PT","name":null,"operator":null,"wikidata":null,"wikipedia":null,"power_mw":4.804,"method":"run-of-the-river"}},{"type":"Feature","geometry":{"type":"Point","coordinates":[-7.9694,41.50529]},"properties":{"osm_type":"node","osm_id":13476716135,"country":"PT","name":null,"operator":"Aquila Capital","wikidata":null,"wikipedia":null,"power_mw":0.759,"method":"run-of-the-river"}},{"type":"Feature","geometry":{"type":"Point","coordinates":[-8.58281,41.84159]},"properties":{"osm_type":"node","osm_id":13476743923,"country":"PT","name":null,"operator":null,"wikidata":null,"wikipedia":null,"power_mw":0.9,"method":"run-of-the-river"}},{"type":"Feature","geometry":{"type":"Point","coordinates":[-6.80338,41.03479]},"properties":{"osm_type":"node","osm_id":13605489916,"country":"PT","name":null,"operator":null,"wikidata":null,"wikipedia":null,"power_mw":134.5,"method":"water-storage"}},{"type":"Feature","geometry":{"type":"Point","coordinates":[-6.80354,41.03496]},"properties":{"osm_type":"node","osm_id":13605489917,"country":"PT","name":null,"operator":null,"wikidata":null,"wikipedia":null,"power_mw":134.5,"method":"water-storage"}},{"type":"Feature","geometry":{"type":"Point","coordinates":[-6.80713,41.04497]},"properties":{"osm_type":"node","osm_id":13605489933,"country":"PT","name":null,"operator":null,"wikidata":null,"wikipedia":null,"power_mw":62.5,"method":"water-storage"}},{"type":"Feature","geometry":{"type":"Point","coordinates":[-6.80708,41.04509]},"properties":{"osm_type":"node","osm_id":13605489934,"country":"PT","name":null,"operator":null,"wikidata":null,"wikipedia":null,"power_mw":62.5,"method":"water-storage"}},{"type":"Feature","geometry":{"type":"Point","coordinates":[-6.80702,41.04525]},"properties":{"osm_type":"node","osm_id":13605489935,"country":"PT","name":null,"operator":null,"wikidata":null,"wikipedia":null,"power_mw":62.5,"method":"water-storage"}},{"type":"Feature","geometry":{"type":"Point","coordinates":[-6.80697,41.04538]},"properties":{"osm_type":"node","osm_id":13605489936,"country":"PT","name":null,"operator":null,"wikidata":null,"wikipedia":null,"power_mw":62.5,"method":"water-storage"}},{"type":"Feature","geometry":{"type":"Point","coordinates":[-7.54004,39.66337]},"properties":{"osm_type":"node","osm_id":13730172158,"country":"PT","name":null,"operator":null,"wikidata":null,"wikipedia":null,"power_mw":110.0,"method":"run-of-the-river"}},{"type":"Feature","geometry":{"type":"Point","coordinates":[-7.53999,39.66369]},"properties":{"osm_type":"node","osm_id":13730172159,"country":"PT","name":null,"operator":null,"wikidata":null,"wikipedia":null,"power_mw":110.0,"method":"run-of-the-river"}},{"type":"Feature","geometry":{"type":"Point","coordinates":[-7.54003,39.66401]},"properties":{"osm_type":"node","osm_id":13730172160,"country":"PT","name":null,"operator":null,"wikidata":null,"wikipedia":null,"power_mw":110.0,"method":"run-of-the-river"}},{"type":"Feature","geometry":{"type":"Point","coordinates":[-7.54017,39.66432]},"properties":{"osm_type":"node","osm_id":13730172161,"country":"PT","name":null,"operator":null,"wikidata":null,"wikipedia":null,"power_mw":110.0,"method":"run-of-the-river"}},{"type":"Feature","geometry":{"type":"Point","coordinates":[-8.24811,40.29741]},"properties":{"osm_type":"node","osm_id":13754590465,"country":"PT","name":null,"operator":null,"wikidata":null,"wikipedia":null,"power_mw":null,"method":null}},{"type":"Feature","geometry":{"type":"Point","coordinates":[-7.6873,40.39825]},"properties":{"osm_type":"node","osm_id":13783790984,"country":"PT","name":null,"operator":null,"wikidata":null,"wikipedia":null,"power_mw":null,"method":"run-of-the-river"}},{"type":"Feature","geometry":{"type":"Point","coordinates":[-7.68728,40.39829]},"properties":{"osm_type":"node","osm_id":13783790985,"country":"PT","name":null,"operator":null,"wikidata":null,"wikipedia":null,"power_mw":null,"method":"run-of-the-river"}},{"type":"Feature","geometry":{"type":"Point","coordinates":[-8.08659,41.32855]},"properties":{"osm_type":"node","osm_id":14062509384,"country":"PT","name":null,"operator":null,"wikidata":null,"wikipedia":null,"power_mw":null,"method":"run-of-the-river"}}]}