{"type":"FeatureCollection","features":[{"type":"Feature","geometry":{"type":"Point","coordinates":[-7.502,38.2]},"properties":{"osm_type":"node","osm_id":3001,"country":"PT","name":"Central Hidroelétrica de Alqueva","operator":"EDP","wikidata":null,"wikipedia":null,"power_mw":520.0,"method":"water-pumped-storage"}},{"type":"Feature","geometry":{"type":"Point","coordinates":[-8.3155,39.543]},"properties":{"osm_type":"node","osm_id":3002,"country":"PT","name":"Central Hidroelétrica de Castelo de Bode","operator":"EDP","wikidata":null,"wikipedia":null,"power_mw":138.0,"method":"water-storage"}},{"type":"Feature","geometry":{"type":"Point","coordinates":[-6.62,41.241]},"properties":{"osm_type":"node","osm_id":9101,"country":"ES","name":"Central de Aldeadávila","operator":"Iberdrola","wikidata":null,"wikipedia":null,"power_mw":1148.0,"method":"water-storage"}},{"type":"Feature","geometry":{"type":"Point","coordinates":[-6.336,41.296]},"properties":{"osm_type":"node","osm_id":9102,"country":"ES","name":"Central de Almendra","operator":"Iberdrola","wikidata":null,"wikipedia":null,"power_mw":810.0,"method":"water-storage"}}]}