{"type":"FeatureCollection","features":[{"type":"Feature","properties":{"name":"Pousada de Picote","kind":"pousada","descricao":"Antiga casa da guarda da barragem de Picote, hoje Pousada (hotel) — património ligado à construção das grandes barragens do Douro.","dam_id":null,"notion_url":null,"osm":"relation/5625754"},"geometry":{"type":"Polygon","coordinates":[[[-6.34821,41.38845],[-6.34814,41.38817],[-6.34807,41.38817],[-6.34805,41.38806],[-6.34864,41.38799],[-6.34866,41.38809],[-6.34855,41.38811],[-6.34861,41.3884],[-6.34821,41.38845]],[[-6.34851,41.38822],[-6.34822,41.38825],[-6.34824,41.38837],[-6.34854,41.38833],[-6.34851,41.38822]]]}}]}