{"type":"FeatureCollection","features":[{"type":"Feature","geometry":{"type":"Polygon","coordinates":[[[-6.64,41.23],[-6.64,41.26],[-6.6,41.26],[-6.6,41.23],[-6.64,41.23]]]},"properties":{"osm_type":"way","osm_id":9001,"reservoir_id":"way/9001","country":"ES","name":"Embalse de Aldeadávila","name_pt":null,"name_es":null,"usage":"hydro","reservoir_type":null,"area_ha":1117.1,"operator":"Iberdrola","wikidata":null,"wikipedia":null}},{"type":"Feature","geometry":{"type":"Polygon","coordinates":[[[-6.35,41.285],[-6.35,41.31],[-6.32,41.31],[-6.32,41.285],[-6.35,41.285]]]},"properties":{"osm_type":"way","osm_id":9002,"reservoir_id":"way/9002","country":"ES","name":"Embalse de Almendra","name_pt":null,"name_es":null,"usage":"hydro","reservoir_type":null,"area_ha":697.6,"operator":"Iberdrola","wikidata":null,"wikipedia":null}}]}