{"type":"FeatureCollection","features":[{"type":"Feature","geometry":{"type":"Polygon","coordinates":[[[-8.322,39.54],[-8.322,39.547],[-8.31,39.547],[-8.31,39.54],[-8.322,39.54]]]},"properties":{"osm_type":"way","osm_id":2001,"reservoir_id":"way/2001","country":"PT","name":"Albufeira de Castelo de Bode","name_pt":null,"name_es":null,"usage":"hydro","reservoir_type":null,"area_ha":80.2,"operator":"EDP","wikidata":null,"wikipedia":null}},{"type":"Feature","geometry":{"type":"Polygon","coordinates":[[[-7.6,38.3],[-7.4,38.3],[-7.4,38.1],[-7.6,38.1],[-7.6,38.3]],[[-7.51,38.22],[-7.51,38.23],[-7.52,38.23],[-7.52,38.22],[-7.51,38.22]]]},"properties":{"osm_type":"relation","osm_id":2002,"reservoir_id":"relation/2002","country":"PT","name":"Albufeira de Alqueva","name_pt":null,"name_es":null,"usage":"irrigation","reservoir_type":null,"area_ha":38794.3,"operator":"EDIA","wikidata":null,"wikipedia":null}},{"type":"Feature","geometry":{"type":"Polygon","coordinates":[[[-8.25,40.32],[-8.25,40.37],[-8.18,40.37],[-8.18,40.32],[-8.25,40.32]]]},"properties":{"osm_type":"way","osm_id":2003,"reservoir_id":"way/2003","country":"PT","name":"Albufeira da Aguieira","name_pt":null,"name_es":null,"usage":"hydro","reservoir_type":null,"area_ha":3302.0,"operator":"EDP","wikidata":null,"wikipedia":null}},{"type":"Feature","geometry":{"type":"Polygon","coordinates":[[[-7.49,37.31],[-7.49,37.33],[-7.47,37.33],[-7.47,37.31],[-7.49,37.31]]]},"properties":{"osm_type":"way","osm_id":2004,"reservoir_id":"way/2004","country":"PT","name":"Albufeira de Odeleite","name_pt":null,"name_es":null,"usage":"water_supply","reservoir_type":null,"area_ha":393.5,"operator":"Águas do Algarve","wikidata":null,"wikipedia":null}},{"type":"Feature","geometry":{"type":"Polygon","coordinates":[[[-8.21,41.86],[-8.21,41.88],[-8.19,41.88],[-8.19,41.86],[-8.21,41.86]]]},"properties":{"osm_type":"way","osm_id":2005,"reservoir_id":"way/2005","country":"PT","name":"Albufeira do Alto Lindoso","name_pt":null,"name_es":null,"usage":"hydro","reservoir_type":null,"area_ha":368.8,"operator":"EDP","wikidata":null,"wikipedia":null}},{"type":"Feature","geometry":{"type":"Polygon","coordinates":[[[-7.06,38.84],[-7.06,38.86],[-7.04,38.86],[-7.04,38.84],[-7.06,38.84]]]},"properties":{"osm_type":"way","osm_id":2006,"reservoir_id":"way/2006","country":"PT","name":"Albufeira do Caia","name_pt":null,"name_es":null,"usage":"irrigation","reservoir_type":null,"area_ha":385.5,"operator":null,"wikidata":null,"wikipedia":null}}]}