{"type":"FeatureCollection","features":[{"type":"Feature","geometry":{"type":"Point","coordinates":[-9.16347,38.7999]},"properties":{"osm_type":"node","osm_id":267796713,"country":"PT","name":null,"operator":null,"wikidata":null,"wikipedia":null}},{"type":"Feature","geometry":{"type":"Point","coordinates":[-9.16216,38.79946]},"properties":{"osm_type":"node","osm_id":267796714,"country":"PT","name":null,"operator":null,"wikidata":null,"wikipedia":null}},{"type":"Feature","geometry":{"type":"Point","coordinates":[-8.31543,40.6395]},"properties":{"osm_type":"node","osm_id":1228966275,"country":"PT","name":null,"operator":"E-REDES","wikidata":null,"wikipedia":null}},{"type":"Feature","geometry":{"type":"Point","coordinates":[-8.29805,40.62441]},"properties":{"osm_type":"node","osm_id":1471784549,"country":"PT","name":null,"operator":"E-REDES","wikidata":null,"wikipedia":null}},{"type":"Feature","geometry":{"type":"Point","coordinates":[-16.87839,32.75937]},"properties":{"osm_type":"node","osm_id":1493360022,"country":"PT","name":null,"operator":"EEM","wikidata":null,"wikipedia":null}},{"type":"Feature","geometry":{"type":"Point","coordinates":[-16.87627,32.77205]},"properties":{"osm_type":"node","osm_id":1493360047,"country":"PT","name":null,"operator":"EEM","wikidata":null,"wikipedia":null}},{"type":"Feature","geometry":{"type":"Point","coordinates":[-16.86248,32.77214]},"properties":{"osm_type":"node","osm_id":1493360048,"country":"PT","name":null,"operator":"EEM","wikidata":null,"wikipedia":null}},{"type":"Feature","geometry":{"type":"Point","coordinates":[-16.82631,32.74604]},"properties":{"osm_type":"node","osm_id":1767907956,"country":"PT","name":null,"operator":"EEM","wikidata":null,"wikipedia":null}},{"type":"Feature","geometry":{"type":"Point","coordinates":[-16.82172,32.71134]},"properties":{"osm_type":"node","osm_id":2315796459,"country":"PT","name":null,"operator":null,"wikidata":null,"wikipedia":null}},{"type":"Feature","geometry":{"type":"Point","coordinates":[-8.46311,40.75926]},"properties":{"osm_type":"node","osm_id":2989383562,"country":"PT","name":null,"operator":null,"wikidata":null,"wikipedia":null}},{"type":"Feature","geometry":{"type":"Point","coordinates":[-9.15729,38.66522]},"properties":{"osm_type":"node","osm_id":5233731658,"country":"PT","name":"Posto de transformação","operator":"E-REDES","wikidata":null,"wikipedia":null}},{"type":"Feature","geometry":{"type":"Point","coordinates":[-9.16709,38.67867]},"properties":{"osm_type":"node","osm_id":5241711104,"country":"PT","name":null,"operator":null,"wikidata":null,"wikipedia":null}},{"type":"Feature","geometry":{"type":"Point","coordinates":[-16.77808,32.72528]},"properties":{"osm_type":"node","osm_id":6814937675,"country":"PT","name":null,"operator":null,"wikidata":null,"wikipedia":null}},{"type":"Feature","geometry":{"type":"Point","coordinates":[-16.768,32.71925]},"properties":{"osm_type":"node","osm_id":6814939818,"country":"PT","name":null,"operator":null,"wikidata":null,"wikipedia":null}},{"type":"Feature","geometry":{"type":"Point","coordinates":[-16.78347,32.72907]},"properties":{"osm_type":"node","osm_id":6814939819,"country":"PT","name":null,"operator":null,"wikidata":null,"wikipedia":null}},{"type":"Feature","geometry":{"type":"Point","coordinates":[-8.42948,39.65651]},"properties":{"osm_type":"node","osm_id":8059272669,"country":"PT","name":null,"operator":null,"wikidata":null,"wikipedia":null}},{"type":"Feature","geometry":{"type":"Point","coordinates":[-9.15923,38.67355]},"properties":{"osm_type":"node","osm_id":10248986309,"country":"PT","name":null,"operator":null,"wikidata":null,"wikipedia":null}},{"type":"Feature","geometry":{"type":"Point","coordinates":[-9.15853,38.67536]},"properties":{"osm_type":"node","osm_id":10248986409,"country":"PT","name":null,"operator":null,"wikidata":null,"wikipedia":null}},{"type":"Feature","geometry":{"type":"Point","coordinates":[-9.161,38.67476]},"properties":{"osm_type":"node","osm_id":10269853535,"country":"PT","name":null,"operator":null,"wikidata":null,"wikipedia":null}},{"type":"Feature","geometry":{"type":"Point","coordinates":[-9.16042,38.67509]},"properties":{"osm_type":"node","osm_id":10269853536,"country":"PT","name":null,"operator":"E-REDES","wikidata":null,"wikipedia":null}},{"type":"Feature","geometry":{"type":"Point","coordinates":[-9.15783,38.67895]},"properties":{"osm_type":"node","osm_id":10271803537,"country":"PT","name":null,"operator":null,"wikidata":null,"wikipedia":null}},{"type":"Feature","geometry":{"type":"Point","coordinates":[-9.15574,38.67319]},"properties":{"osm_type":"node","osm_id":10272443947,"country":"PT","name":null,"operator":null,"wikidata":null,"wikipedia":null}},{"type":"Feature","geometry":{"type":"Point","coordinates":[-9.15596,38.67471]},"properties":{"osm_type":"node","osm_id":10272443949,"country":"PT","name":null,"operator":null,"wikidata":null,"wikipedia":null}},{"type":"Feature","geometry":{"type":"Point","coordinates":[-9.16098,38.672]},"properties":{"osm_type":"node","osm_id":10273508695,"country":"PT","name":null,"operator":null,"wikidata":null,"wikipedia":null}},{"type":"Feature","geometry":{"type":"Point","coordinates":[-9.15748,38.67138]},"properties":{"osm_type":"node","osm_id":10294356622,"country":"PT","name":null,"operator":null,"wikidata":null,"wikipedia":null}},{"type":"Feature","geometry":{"type":"Point","coordinates":[-9.16554,38.6687]},"properties":{"osm_type":"node","osm_id":10602722783,"country":"PT","name":null,"operator":null,"wikidata":null,"wikipedia":null}},{"type":"Feature","geometry":{"type":"Point","coordinates":[-9.16536,38.66926]},"properties":{"osm_type":"node","osm_id":10602722784,"country":"PT","name":null,"operator":null,"wikidata":null,"wikipedia":null}},{"type":"Feature","geometry":{"type":"Point","coordinates":[-9.16594,38.6709]},"properties":{"osm_type":"node","osm_id":10602722787,"country":"PT","name":null,"operator":null,"wikidata":null,"wikipedia":null}},{"type":"Feature","geometry":{"type":"Point","coordinates":[-9.16757,38.6713]},"properties":{"osm_type":"node","osm_id":10602722788,"country":"PT","name":null,"operator":null,"wikidata":null,"wikipedia":null}},{"type":"Feature","geometry":{"type":"Point","coordinates":[-9.15534,38.67605]},"properties":{"osm_type":"node","osm_id":10705167554,"country":"PT","name":null,"operator":null,"wikidata":null,"wikipedia":null}},{"type":"Feature","geometry":{"type":"Point","coordinates":[-9.15283,38.68003]},"properties":{"osm_type":"node","osm_id":10705167557,"country":"PT","name":null,"operator":null,"wikidata":null,"wikipedia":null}},{"type":"Feature","geometry":{"type":"Point","coordinates":[-9.15388,38.68032]},"properties":{"osm_type":"node","osm_id":10705167558,"country":"PT","name":null,"operator":null,"wikidata":null,"wikipedia":null}},{"type":"Feature","geometry":{"type":"Point","coordinates":[-8.63661,40.64019]},"properties":{"osm_type":"node","osm_id":10707814838,"country":"PT","name":null,"operator":"E-REDES","wikidata":null,"wikipedia":null}},{"type":"Feature","geometry":{"type":"Point","coordinates":[-9.16537,38.67622]},"properties":{"osm_type":"node","osm_id":10757945192,"country":"PT","name":null,"operator":null,"wikidata":null,"wikipedia":null}},{"type":"Feature","geometry":{"type":"Point","coordinates":[-9.15819,38.65667]},"properties":{"osm_type":"node","osm_id":11039936054,"country":"PT","name":null,"operator":null,"wikidata":null,"wikipedia":null}},{"type":"Feature","geometry":{"type":"Point","coordinates":[-16.35716,33.05349]},"properties":{"osm_type":"node","osm_id":11071002528,"country":"PT","name":null,"operator":null,"wikidata":null,"wikipedia":null}},{"type":"Feature","geometry":{"type":"Point","coordinates":[-16.35753,33.05899]},"properties":{"osm_type":"node","osm_id":11071486989,"country":"PT","name":null,"operator":null,"wikidata":null,"wikipedia":null}},{"type":"Feature","geometry":{"type":"Point","coordinates":[-16.34186,33.05903]},"properties":{"osm_type":"node","osm_id":11071486990,"country":"PT","name":null,"operator":null,"wikidata":null,"wikipedia":null}},{"type":"Feature","geometry":{"type":"Point","coordinates":[-16.34378,33.06504]},"properties":{"osm_type":"node","osm_id":11071486991,"country":"PT","name":null,"operator":null,"wikidata":null,"wikipedia":null}},{"type":"Feature","geometry":{"type":"Point","coordinates":[-16.3411,33.06695]},"properties":{"osm_type":"node","osm_id":11071486992,"country":"PT","name":null,"operator":null,"wikidata":null,"wikipedia":null}},{"type":"Feature","geometry":{"type":"Point","coordinates":[-16.33896,33.06776]},"properties":{"osm_type":"node","osm_id":11071486993,"country":"PT","name":null,"operator":null,"wikidata":null,"wikipedia":null}},{"type":"Feature","geometry":{"type":"Point","coordinates":[-16.33814,33.0714]},"properties":{"osm_type":"node","osm_id":11071486994,"country":"PT","name":null,"operator":null,"wikidata":null,"wikipedia":null}},{"type":"Feature","geometry":{"type":"Point","coordinates":[-16.34142,33.05695]},"properties":{"osm_type":"node","osm_id":11071500370,"country":"PT","name":null,"operator":null,"wikidata":null,"wikipedia":null}},{"type":"Feature","geometry":{"type":"Point","coordinates":[-16.34714,33.05478]},"properties":{"osm_type":"node","osm_id":11071500371,"country":"PT","name":null,"operator":null,"wikidata":null,"wikipedia":null}},{"type":"Feature","geometry":{"type":"Point","coordinates":[-16.34831,33.05127]},"properties":{"osm_type":"node","osm_id":11073585302,"country":"PT","name":null,"operator":null,"wikidata":null,"wikipedia":null}},{"type":"Feature","geometry":{"type":"Point","coordinates":[-9.15717,38.67634]},"properties":{"osm_type":"node","osm_id":11092574308,"country":"PT","name":null,"operator":null,"wikidata":null,"wikipedia":null}},{"type":"Feature","geometry":{"type":"Point","coordinates":[-9.15907,38.67217]},"properties":{"osm_type":"node","osm_id":11117324886,"country":"PT","name":null,"operator":null,"wikidata":null,"wikipedia":null}},{"type":"Feature","geometry":{"type":"Point","coordinates":[-9.16032,38.66354]},"properties":{"osm_type":"node","osm_id":11117498326,"country":"PT","name":null,"operator":null,"wikidata":null,"wikipedia":null}},{"type":"Feature","geometry":{"type":"Point","coordinates":[-9.15608,38.65851]},"properties":{"osm_type":"node","osm_id":11117565957,"country":"PT","name":null,"operator":null,"wikidata":null,"wikipedia":null}},{"type":"Feature","geometry":{"type":"Point","coordinates":[-8.64438,40.63585]},"properties":{"osm_type":"node","osm_id":11887514683,"country":"PT","name":null,"operator":"E-REDES","wikidata":null,"wikipedia":null}},{"type":"Feature","geometry":{"type":"Point","coordinates":[-9.1884,38.65587]},"properties":{"osm_type":"node","osm_id":11914041415,"country":"PT","name":null,"operator":null,"wikidata":null,"wikipedia":null}},{"type":"Feature","geometry":{"type":"Point","coordinates":[-9.16552,38.6596]},"properties":{"osm_type":"node","osm_id":12815159816,"country":"PT","name":null,"operator":null,"wikidata":null,"wikipedia":null}},{"type":"Feature","geometry":{"type":"Point","coordinates":[-9.15034,38.76164]},"properties":{"osm_type":"node","osm_id":12921178339,"country":"PT","name":"Subestação do Metropolitano de Lisboa em Calvanas","operator":"Metropolitano de Lisboa","wikidata":null,"wikipedia":null}},{"type":"Feature","geometry":{"type":"Point","coordinates":[-9.15591,38.67606]},"properties":{"osm_type":"node","osm_id":13119925777,"country":"PT","name":null,"operator":null,"wikidata":null,"wikipedia":null}},{"type":"Feature","geometry":{"type":"Point","coordinates":[-9.15177,38.647]},"properties":{"osm_type":"node","osm_id":13151853475,"country":"PT","name":null,"operator":null,"wikidata":null,"wikipedia":null}},{"type":"Feature","geometry":{"type":"Point","coordinates":[-8.64952,40.64199]},"properties":{"osm_type":"node","osm_id":13479516224,"country":"PT","name":null,"operator":"EDP","wikidata":null,"wikipedia":null}},{"type":"Feature","geometry":{"type":"Point","coordinates":[-8.65829,40.63757]},"properties":{"osm_type":"node","osm_id":13479516665,"country":"PT","name":null,"operator":"EDP","wikidata":null,"wikipedia":null}},{"type":"Feature","geometry":{"type":"Point","coordinates":[-8.64216,40.64068]},"properties":{"osm_type":"node","osm_id":13482417979,"country":"PT","name":null,"operator":"EDP","wikidata":null,"wikipedia":null}},{"type":"Feature","geometry":{"type":"Point","coordinates":[-8.43229,41.37052]},"properties":{"osm_type":"node","osm_id":13665043798,"country":"PT","name":null,"operator":"E-REDES","wikidata":null,"wikipedia":null}},{"type":"Feature","geometry":{"type":"Point","coordinates":[-8.43749,41.36357]},"properties":{"osm_type":"node","osm_id":13665192044,"country":"PT","name":null,"operator":"Infraestruturas de Portugal","wikidata":null,"wikipedia":null}},{"type":"Feature","geometry":{"type":"Point","coordinates":[-8.44369,41.36545]},"properties":{"osm_type":"node","osm_id":13665235095,"country":"PT","name":null,"operator":null,"wikidata":null,"wikipedia":null}},{"type":"Feature","geometry":{"type":"Point","coordinates":[-8.44275,41.36588]},"properties":{"osm_type":"node","osm_id":13665235100,"country":"PT","name":null,"operator":"E-REDES","wikidata":null,"wikipedia":null}},{"type":"Feature","geometry":{"type":"Point","coordinates":[-8.40809,41.38868]},"properties":{"osm_type":"node","osm_id":13668799466,"country":"PT","name":null,"operator":null,"wikidata":null,"wikipedia":null}},{"type":"Feature","geometry":{"type":"Point","coordinates":[-8.3978,41.39106]},"properties":{"osm_type":"node","osm_id":13669041919,"country":"PT","name":null,"operator":null,"wikidata":null,"wikipedia":null}},{"type":"Feature","geometry":{"type":"Point","coordinates":[-8.4051,41.37936]},"properties":{"osm_type":"node","osm_id":13671894983,"country":"PT","name":null,"operator":"E-REDES","wikidata":null,"wikipedia":null}},{"type":"Feature","geometry":{"type":"Point","coordinates":[-8.42246,41.36694]},"properties":{"osm_type":"node","osm_id":13671918907,"country":"PT","name":null,"operator":null,"wikidata":null,"wikipedia":null}},{"type":"Feature","geometry":{"type":"Point","coordinates":[-8.42027,41.36814]},"properties":{"osm_type":"node","osm_id":13671918980,"country":"PT","name":null,"operator":"E-REDES","wikidata":null,"wikipedia":null}},{"type":"Feature","geometry":{"type":"Point","coordinates":[-8.41791,41.36955]},"properties":{"osm_type":"node","osm_id":13671919010,"country":"PT","name":null,"operator":null,"wikidata":null,"wikipedia":null}},{"type":"Feature","geometry":{"type":"Point","coordinates":[-8.41718,41.37056]},"properties":{"osm_type":"node","osm_id":13671919013,"country":"PT","name":null,"operator":null,"wikidata":null,"wikipedia":null}},{"type":"Feature","geometry":{"type":"Point","coordinates":[-8.41429,41.37353]},"properties":{"osm_type":"node","osm_id":13671919016,"country":"PT","name":null,"operator":null,"wikidata":null,"wikipedia":null}},{"type":"Feature","geometry":{"type":"Point","coordinates":[-8.4028,41.38549]},"properties":{"osm_type":"node","osm_id":13671919053,"country":"PT","name":null,"operator":"E-REDES","wikidata":null,"wikipedia":null}},{"type":"Feature","geometry":{"type":"Point","coordinates":[-8.49328,41.26256]},"properties":{"osm_type":"node","osm_id":13891939124,"country":"PT","name":null,"operator":"E-REDES","wikidata":null,"wikipedia":null}},{"type":"Feature","geometry":{"type":"Point","coordinates":[-8.36483,41.35718]},"properties":{"osm_type":"node","osm_id":13891939130,"country":"PT","name":null,"operator":"E-REDES","wikidata":null,"wikipedia":null}},{"type":"Feature","geometry":{"type":"Point","coordinates":[-8.40127,41.34495]},"properties":{"osm_type":"node","osm_id":13891939131,"country":"PT","name":null,"operator":"E-REDES","wikidata":null,"wikipedia":null}},{"type":"Feature","geometry":{"type":"Point","coordinates":[-8.42225,41.3541]},"properties":{"osm_type":"node","osm_id":13891939133,"country":"PT","name":null,"operator":"E-REDES","wikidata":null,"wikipedia":null}},{"type":"Feature","geometry":{"type":"Point","coordinates":[-8.48194,41.2642]},"properties":{"osm_type":"node","osm_id":13891939135,"country":"PT","name":null,"operator":"E-REDES","wikidata":null,"wikipedia":null}},{"type":"Feature","geometry":{"type":"Point","coordinates":[-8.49226,41.25831]},"properties":{"osm_type":"node","osm_id":13891939136,"country":"PT","name":null,"operator":"E-REDES","wikidata":null,"wikipedia":null}},{"type":"Feature","geometry":{"type":"Point","coordinates":[-8.41201,41.36765]},"properties":{"osm_type":"node","osm_id":13891939140,"country":"PT","name":null,"operator":"E-REDES","wikidata":null,"wikipedia":null}},{"type":"Feature","geometry":{"type":"Point","coordinates":[-8.46411,41.33782]},"properties":{"osm_type":"node","osm_id":13891939143,"country":"PT","name":null,"operator":"E-REDES","wikidata":null,"wikipedia":null}},{"type":"Feature","geometry":{"type":"Point","coordinates":[-8.46248,41.2867]},"properties":{"osm_type":"node","osm_id":13891939144,"country":"PT","name":null,"operator":"E-REDES","wikidata":null,"wikipedia":null}},{"type":"Feature","geometry":{"type":"Point","coordinates":[-8.40632,41.35906]},"properties":{"osm_type":"node","osm_id":13891939150,"country":"PT","name":null,"operator":"E-REDES","wikidata":null,"wikipedia":null}},{"type":"Feature","geometry":{"type":"Point","coordinates":[-8.3584,41.36482]},"properties":{"osm_type":"node","osm_id":13891939153,"country":"PT","name":null,"operator":"E-REDES","wikidata":null,"wikipedia":null}},{"type":"Feature","geometry":{"type":"Point","coordinates":[-8.50023,41.27464]},"properties":{"osm_type":"node","osm_id":13891939158,"country":"PT","name":null,"operator":"E-REDES","wikidata":null,"wikipedia":null}},{"type":"Feature","geometry":{"type":"Point","coordinates":[-8.45968,41.27379]},"properties":{"osm_type":"node","osm_id":13891939162,"country":"PT","name":null,"operator":"E-REDES","wikidata":null,"wikipedia":null}},{"type":"Feature","geometry":{"type":"Point","coordinates":[-8.48242,41.35568]},"properties":{"osm_type":"node","osm_id":13891939165,"country":"PT","name":null,"operator":"E-REDES","wikidata":null,"wikipedia":null}},{"type":"Feature","geometry":{"type":"Point","coordinates":[-8.48095,41.3472]},"properties":{"osm_type":"node","osm_id":13891939166,"country":"PT","name":null,"operator":"E-REDES","wikidata":null,"wikipedia":null}},{"type":"Feature","geometry":{"type":"Point","coordinates":[-8.49705,41.25759]},"properties":{"osm_type":"node","osm_id":13891939172,"country":"PT","name":null,"operator":"E-REDES","wikidata":null,"wikipedia":null}},{"type":"Feature","geometry":{"type":"Point","coordinates":[-8.40572,41.35116]},"properties":{"osm_type":"node","osm_id":13891939177,"country":"PT","name":null,"operator":"E-REDES","wikidata":null,"wikipedia":null}},{"type":"Feature","geometry":{"type":"Point","coordinates":[-8.47558,41.26581]},"properties":{"osm_type":"node","osm_id":13891939182,"country":"PT","name":null,"operator":"E-REDES","wikidata":null,"wikipedia":null}},{"type":"Feature","geometry":{"type":"Point","coordinates":[-8.45815,41.36011]},"properties":{"osm_type":"node","osm_id":13891939185,"country":"PT","name":null,"operator":"E-REDES","wikidata":null,"wikipedia":null}},{"type":"Feature","geometry":{"type":"Point","coordinates":[-8.47979,41.34456]},"properties":{"osm_type":"node","osm_id":13891939192,"country":"PT","name":null,"operator":"E-REDES","wikidata":null,"wikipedia":null}},{"type":"Feature","geometry":{"type":"Point","coordinates":[-8.47637,41.25584]},"properties":{"osm_type":"node","osm_id":13891939196,"country":"PT","name":null,"operator":"E-REDES","wikidata":null,"wikipedia":null}},{"type":"Feature","geometry":{"type":"Point","coordinates":[-8.47338,41.34584]},"properties":{"osm_type":"node","osm_id":13891939197,"country":"PT","name":null,"operator":"E-REDES","wikidata":null,"wikipedia":null}},{"type":"Feature","geometry":{"type":"Point","coordinates":[-8.40724,41.36126]},"properties":{"osm_type":"node","osm_id":13891939198,"country":"PT","name":null,"operator":"E-REDES","wikidata":null,"wikipedia":null}},{"type":"Feature","geometry":{"type":"Point","coordinates":[-8.39938,41.38193]},"properties":{"osm_type":"node","osm_id":13891957703,"country":"PT","name":null,"operator":"E-REDES","wikidata":null,"wikipedia":null}},{"type":"Feature","geometry":{"type":"Point","coordinates":[-8.4675,41.26866]},"properties":{"osm_type":"node","osm_id":13891957708,"country":"PT","name":null,"operator":"E-REDES","wikidata":null,"wikipedia":null}},{"type":"Feature","geometry":{"type":"Point","coordinates":[-8.4105,41.37393]},"properties":{"osm_type":"node","osm_id":13891957709,"country":"PT","name":null,"operator":"E-REDES","wikidata":null,"wikipedia":null}},{"type":"Feature","geometry":{"type":"Point","coordinates":[-8.47753,41.36511]},"properties":{"osm_type":"node","osm_id":13891957712,"country":"PT","name":null,"operator":"E-REDES","wikidata":null,"wikipedia":null}},{"type":"Feature","geometry":{"type":"Point","coordinates":[-8.46974,41.34334]},"properties":{"osm_type":"node","osm_id":13891957720,"country":"PT","name":null,"operator":"E-REDES","wikidata":null,"wikipedia":null}},{"type":"Feature","geometry":{"type":"Point","coordinates":[-8.36581,41.36275]},"properties":{"osm_type":"node","osm_id":13891957721,"country":"PT","name":null,"operator":"E-REDES","wikidata":null,"wikipedia":null}},{"type":"Feature","geometry":{"type":"Point","coordinates":[-8.45091,41.28676]},"properties":{"osm_type":"node","osm_id":13891957723,"country":"PT","name":null,"operator":"E-REDES","wikidata":null,"wikipedia":null}},{"type":"Feature","geometry":{"type":"Point","coordinates":[-8.4758,41.34205]},"properties":{"osm_type":"node","osm_id":13891957728,"country":"PT","name":null,"operator":"E-REDES","wikidata":null,"wikipedia":null}},{"type":"Feature","geometry":{"type":"Point","coordinates":[-8.46443,41.25655]},"properties":{"osm_type":"node","osm_id":13891957735,"country":"PT","name":null,"operator":"E-REDES","wikidata":null,"wikipedia":null}},{"type":"Feature","geometry":{"type":"Point","coordinates":[-8.45107,41.27801]},"properties":{"osm_type":"node","osm_id":13891957737,"country":"PT","name":null,"operator":"E-REDES","wikidata":null,"wikipedia":null}},{"type":"Feature","geometry":{"type":"Point","coordinates":[-8.41526,41.3626]},"properties":{"osm_type":"node","osm_id":13891957742,"country":"PT","name":null,"operator":"E-REDES","wikidata":null,"wikipedia":null}},{"type":"Feature","geometry":{"type":"Point","coordinates":[-8.46371,41.27894]},"properties":{"osm_type":"node","osm_id":13891957744,"country":"PT","name":null,"operator":"E-REDES","wikidata":null,"wikipedia":null}},{"type":"Feature","geometry":{"type":"Point","coordinates":[-8.36121,41.35965]},"properties":{"osm_type":"node","osm_id":13891957745,"country":"PT","name":null,"operator":"E-REDES","wikidata":null,"wikipedia":null}},{"type":"Feature","geometry":{"type":"Point","coordinates":[-8.4068,41.36011]},"properties":{"osm_type":"node","osm_id":13891957754,"country":"PT","name":null,"operator":"E-REDES","wikidata":null,"wikipedia":null}},{"type":"Feature","geometry":{"type":"Point","coordinates":[-8.44766,41.36782]},"properties":{"osm_type":"node","osm_id":13891957755,"country":"PT","name":null,"operator":"E-REDES","wikidata":null,"wikipedia":null}},{"type":"Feature","geometry":{"type":"Point","coordinates":[-8.48549,41.25542]},"properties":{"osm_type":"node","osm_id":13891957759,"country":"PT","name":null,"operator":"E-REDES","wikidata":null,"wikipedia":null}},{"type":"Feature","geometry":{"type":"Point","coordinates":[-8.49257,41.25247]},"properties":{"osm_type":"node","osm_id":13891957762,"country":"PT","name":null,"operator":"E-REDES","wikidata":null,"wikipedia":null}},{"type":"Feature","geometry":{"type":"Point","coordinates":[-8.4753,41.26123]},"properties":{"osm_type":"node","osm_id":13891957764,"country":"PT","name":null,"operator":"E-REDES","wikidata":null,"wikipedia":null}},{"type":"Feature","geometry":{"type":"Point","coordinates":[-8.47505,41.28075]},"properties":{"osm_type":"node","osm_id":13891957765,"country":"PT","name":null,"operator":"E-REDES","wikidata":null,"wikipedia":null}},{"type":"Feature","geometry":{"type":"Point","coordinates":[-8.47663,41.34435]},"properties":{"osm_type":"node","osm_id":13891957766,"country":"PT","name":null,"operator":"E-REDES","wikidata":null,"wikipedia":null}},{"type":"Feature","geometry":{"type":"Point","coordinates":[-8.45257,41.27491]},"properties":{"osm_type":"node","osm_id":13891957767,"country":"PT","name":null,"operator":"E-REDES","wikidata":null,"wikipedia":null}},{"type":"Feature","geometry":{"type":"Point","coordinates":[-8.48048,41.34614]},"properties":{"osm_type":"node","osm_id":13891957777,"country":"PT","name":null,"operator":"E-REDES","wikidata":null,"wikipedia":null}},{"type":"Feature","geometry":{"type":"Point","coordinates":[-8.47503,41.34334]},"properties":{"osm_type":"node","osm_id":13891957780,"country":"PT","name":null,"operator":"E-REDES","wikidata":null,"wikipedia":null}},{"type":"Feature","geometry":{"type":"Point","coordinates":[-8.40185,41.36249]},"properties":{"osm_type":"node","osm_id":13891957782,"country":"PT","name":null,"operator":"E-REDES","wikidata":null,"wikipedia":null}},{"type":"Feature","geometry":{"type":"Point","coordinates":[-8.4475,41.27638]},"properties":{"osm_type":"node","osm_id":13891957784,"country":"PT","name":null,"operator":"E-REDES","wikidata":null,"wikipedia":null}},{"type":"Feature","geometry":{"type":"Point","coordinates":[-8.36613,41.35774]},"properties":{"osm_type":"node","osm_id":13891957788,"country":"PT","name":null,"operator":"E-REDES","wikidata":null,"wikipedia":null}},{"type":"Feature","geometry":{"type":"Point","coordinates":[-8.49694,41.2665]},"properties":{"osm_type":"node","osm_id":13891957790,"country":"PT","name":null,"operator":"E-REDES","wikidata":null,"wikipedia":null}},{"type":"Feature","geometry":{"type":"Point","coordinates":[-8.474,41.33963]},"properties":{"osm_type":"node","osm_id":13891957795,"country":"PT","name":null,"operator":"E-REDES","wikidata":null,"wikipedia":null}},{"type":"Feature","geometry":{"type":"Point","coordinates":[-8.46739,41.36715]},"properties":{"osm_type":"node","osm_id":13891957797,"country":"PT","name":null,"operator":"E-REDES","wikidata":null,"wikipedia":null}},{"type":"Feature","geometry":{"type":"Point","coordinates":[-8.47292,41.34321]},"properties":{"osm_type":"node","osm_id":13891957802,"country":"PT","name":null,"operator":"E-REDES","wikidata":null,"wikipedia":null}},{"type":"Feature","geometry":{"type":"Point","coordinates":[-8.40192,41.35738]},"properties":{"osm_type":"node","osm_id":13891957803,"country":"PT","name":null,"operator":"E-REDES","wikidata":null,"wikipedia":null}},{"type":"Feature","geometry":{"type":"Point","coordinates":[-8.47088,41.25583]},"properties":{"osm_type":"node","osm_id":13891957806,"country":"PT","name":null,"operator":"E-REDES","wikidata":null,"wikipedia":null}},{"type":"Feature","geometry":{"type":"Point","coordinates":[-8.5035,41.25755]},"properties":{"osm_type":"node","osm_id":13891957809,"country":"PT","name":null,"operator":"E-REDES","wikidata":null,"wikipedia":null}},{"type":"Feature","geometry":{"type":"Point","coordinates":[-8.47504,41.29065]},"properties":{"osm_type":"node","osm_id":13891957812,"country":"PT","name":null,"operator":"E-REDES","wikidata":null,"wikipedia":null}},{"type":"Feature","geometry":{"type":"Point","coordinates":[-8.49139,41.26684]},"properties":{"osm_type":"node","osm_id":13891957815,"country":"PT","name":null,"operator":"E-REDES","wikidata":null,"wikipedia":null}},{"type":"Feature","geometry":{"type":"Point","coordinates":[-8.46885,41.34836]},"properties":{"osm_type":"node","osm_id":13891957816,"country":"PT","name":null,"operator":"E-REDES","wikidata":null,"wikipedia":null}},{"type":"Feature","geometry":{"type":"Point","coordinates":[-8.47994,41.26668]},"properties":{"osm_type":"node","osm_id":13891957819,"country":"PT","name":null,"operator":"E-REDES","wikidata":null,"wikipedia":null}},{"type":"Feature","geometry":{"type":"Point","coordinates":[-8.47598,41.34338]},"properties":{"osm_type":"node","osm_id":13891957823,"country":"PT","name":null,"operator":"E-REDES","wikidata":null,"wikipedia":null}},{"type":"Feature","geometry":{"type":"Point","coordinates":[-8.4081,41.35728]},"properties":{"osm_type":"node","osm_id":13891957825,"country":"PT","name":null,"operator":"E-REDES","wikidata":null,"wikipedia":null}},{"type":"Feature","geometry":{"type":"Point","coordinates":[-8.40617,41.36517]},"properties":{"osm_type":"node","osm_id":13891957826,"country":"PT","name":null,"operator":"E-REDES","wikidata":null,"wikipedia":null}},{"type":"Feature","geometry":{"type":"Point","coordinates":[-8.36958,41.35846]},"properties":{"osm_type":"node","osm_id":13891957827,"country":"PT","name":null,"operator":"E-REDES","wikidata":null,"wikipedia":null}},{"type":"Feature","geometry":{"type":"Point","coordinates":[-8.47493,41.34374]},"properties":{"osm_type":"node","osm_id":13891957828,"country":"PT","name":null,"operator":"E-REDES","wikidata":null,"wikipedia":null}},{"type":"Feature","geometry":{"type":"Point","coordinates":[-8.50572,41.26103]},"properties":{"osm_type":"node","osm_id":13891957832,"country":"PT","name":null,"operator":"E-REDES","wikidata":null,"wikipedia":null}},{"type":"Feature","geometry":{"type":"Point","coordinates":[-8.47292,41.35037]},"properties":{"osm_type":"node","osm_id":13891957835,"country":"PT","name":null,"operator":"E-REDES","wikidata":null,"wikipedia":null}},{"type":"Feature","geometry":{"type":"Point","coordinates":[-8.46635,41.3484]},"properties":{"osm_type":"node","osm_id":13891957839,"country":"PT","name":null,"operator":"E-REDES","wikidata":null,"wikipedia":null}},{"type":"Feature","geometry":{"type":"Point","coordinates":[-8.47932,41.34485]},"properties":{"osm_type":"node","osm_id":13891957840,"country":"PT","name":null,"operator":"E-REDES","wikidata":null,"wikipedia":null}},{"type":"Feature","geometry":{"type":"Point","coordinates":[-8.48816,41.2569]},"properties":{"osm_type":"node","osm_id":13891957841,"country":"PT","name":null,"operator":"E-REDES","wikidata":null,"wikipedia":null}},{"type":"Feature","geometry":{"type":"Point","coordinates":[-8.36385,41.3553]},"properties":{"osm_type":"node","osm_id":13891957843,"country":"PT","name":null,"operator":"E-REDES","wikidata":null,"wikipedia":null}},{"type":"Feature","geometry":{"type":"Point","coordinates":[-8.4164,41.3636]},"properties":{"osm_type":"node","osm_id":13891957844,"country":"PT","name":null,"operator":"E-REDES","wikidata":null,"wikipedia":null}},{"type":"Feature","geometry":{"type":"Point","coordinates":[-8.47781,41.34189]},"properties":{"osm_type":"node","osm_id":13891957846,"country":"PT","name":null,"operator":"E-REDES","wikidata":null,"wikipedia":null}},{"type":"Feature","geometry":{"type":"Point","coordinates":[-8.47892,41.34326]},"properties":{"osm_type":"node","osm_id":13891957850,"country":"PT","name":null,"operator":"E-REDES","wikidata":null,"wikipedia":null}},{"type":"Feature","geometry":{"type":"Point","coordinates":[-8.40631,41.36365]},"properties":{"osm_type":"node","osm_id":13891957853,"country":"PT","name":null,"operator":"E-REDES","wikidata":null,"wikipedia":null}},{"type":"Feature","geometry":{"type":"Point","coordinates":[-8.39324,41.37324]},"properties":{"osm_type":"node","osm_id":13891957860,"country":"PT","name":null,"operator":"E-REDES","wikidata":null,"wikipedia":null}},{"type":"Feature","geometry":{"type":"Point","coordinates":[-8.4673,41.29331]},"properties":{"osm_type":"node","osm_id":13891957862,"country":"PT","name":null,"operator":"E-REDES","wikidata":null,"wikipedia":null}},{"type":"Feature","geometry":{"type":"Point","coordinates":[-8.48594,41.26091]},"properties":{"osm_type":"node","osm_id":13891957865,"country":"PT","name":null,"operator":"E-REDES","wikidata":null,"wikipedia":null}},{"type":"Feature","geometry":{"type":"Point","coordinates":[-8.4051,41.3664]},"properties":{"osm_type":"node","osm_id":13891957866,"country":"PT","name":null,"operator":"E-REDES","wikidata":null,"wikipedia":null}},{"type":"Feature","geometry":{"type":"Point","coordinates":[-8.40313,41.36358]},"properties":{"osm_type":"node","osm_id":13891957871,"country":"PT","name":null,"operator":"E-REDES","wikidata":null,"wikipedia":null}},{"type":"Feature","geometry":{"type":"Point","coordinates":[-8.47766,41.36563]},"properties":{"osm_type":"node","osm_id":13891957873,"country":"PT","name":null,"operator":"E-REDES","wikidata":null,"wikipedia":null}},{"type":"Feature","geometry":{"type":"Point","coordinates":[-8.47543,41.33996]},"properties":{"osm_type":"node","osm_id":13891957879,"country":"PT","name":null,"operator":"E-REDES","wikidata":null,"wikipedia":null}},{"type":"Feature","geometry":{"type":"Point","coordinates":[-8.41794,41.36095]},"properties":{"osm_type":"node","osm_id":13891957880,"country":"PT","name":null,"operator":"E-REDES","wikidata":null,"wikipedia":null}},{"type":"Feature","geometry":{"type":"Point","coordinates":[-8.46219,41.3447]},"properties":{"osm_type":"node","osm_id":13891957884,"country":"PT","name":null,"operator":"E-REDES","wikidata":null,"wikipedia":null}},{"type":"Feature","geometry":{"type":"Point","coordinates":[-8.47625,41.36163]},"properties":{"osm_type":"node","osm_id":13891957885,"country":"PT","name":null,"operator":"E-REDES","wikidata":null,"wikipedia":null}},{"type":"Feature","geometry":{"type":"Point","coordinates":[-8.37165,41.3604]},"properties":{"osm_type":"node","osm_id":13891957890,"country":"PT","name":null,"operator":"E-REDES","wikidata":null,"wikipedia":null}},{"type":"Feature","geometry":{"type":"Point","coordinates":[-8.40418,41.36407]},"properties":{"osm_type":"node","osm_id":13891957891,"country":"PT","name":null,"operator":"E-REDES","wikidata":null,"wikipedia":null}},{"type":"Feature","geometry":{"type":"Point","coordinates":[-8.47215,41.28661]},"properties":{"osm_type":"node","osm_id":13891957892,"country":"PT","name":null,"operator":"E-REDES","wikidata":null,"wikipedia":null}},{"type":"Feature","geometry":{"type":"Point","coordinates":[-8.48339,41.3507]},"properties":{"osm_type":"node","osm_id":13891957894,"country":"PT","name":null,"operator":"E-REDES","wikidata":null,"wikipedia":null}},{"type":"Feature","geometry":{"type":"Point","coordinates":[-8.45864,41.27551]},"properties":{"osm_type":"node","osm_id":13891957896,"country":"PT","name":null,"operator":"E-REDES","wikidata":null,"wikipedia":null}},{"type":"Feature","geometry":{"type":"Point","coordinates":[-8.47434,41.26648]},"properties":{"osm_type":"node","osm_id":13891957897,"country":"PT","name":null,"operator":"E-REDES","wikidata":null,"wikipedia":null}},{"type":"Feature","geometry":{"type":"Point","coordinates":[-8.45816,41.2889]},"properties":{"osm_type":"node","osm_id":13891957899,"country":"PT","name":null,"operator":"E-REDES","wikidata":null,"wikipedia":null}},{"type":"Feature","geometry":{"type":"Point","coordinates":[-8.47689,41.34291]},"properties":{"osm_type":"node","osm_id":13891957906,"country":"PT","name":null,"operator":"E-REDES","wikidata":null,"wikipedia":null}},{"type":"Feature","geometry":{"type":"Point","coordinates":[-8.4615,41.27421]},"properties":{"osm_type":"node","osm_id":13891957908,"country":"PT","name":null,"operator":"E-REDES","wikidata":null,"wikipedia":null}},{"type":"Feature","geometry":{"type":"Point","coordinates":[-8.39906,41.36731]},"properties":{"osm_type":"node","osm_id":13891957909,"country":"PT","name":null,"operator":"E-REDES","wikidata":null,"wikipedia":null}},{"type":"Feature","geometry":{"type":"Point","coordinates":[-8.49973,41.27876]},"properties":{"osm_type":"node","osm_id":13891957910,"country":"PT","name":null,"operator":"E-REDES","wikidata":null,"wikipedia":null}},{"type":"Feature","geometry":{"type":"Point","coordinates":[-8.45719,41.35153]},"properties":{"osm_type":"node","osm_id":13891957914,"country":"PT","name":null,"operator":"E-REDES","wikidata":null,"wikipedia":null}},{"type":"Feature","geometry":{"type":"Point","coordinates":[-8.50477,41.26751]},"properties":{"osm_type":"node","osm_id":13891957915,"country":"PT","name":null,"operator":"E-REDES","wikidata":null,"wikipedia":null}},{"type":"Feature","geometry":{"type":"Point","coordinates":[-8.46714,41.35241]},"properties":{"osm_type":"node","osm_id":13891957916,"country":"PT","name":null,"operator":"E-REDES","wikidata":null,"wikipedia":null}},{"type":"Feature","geometry":{"type":"Point","coordinates":[-8.47951,41.28947]},"properties":{"osm_type":"node","osm_id":13891957918,"country":"PT","name":null,"operator":"E-REDES","wikidata":null,"wikipedia":null}},{"type":"Feature","geometry":{"type":"Point","coordinates":[-8.40377,41.36089]},"properties":{"osm_type":"node","osm_id":13891957920,"country":"PT","name":null,"operator":"E-REDES","wikidata":null,"wikipedia":null}},{"type":"Feature","geometry":{"type":"Point","coordinates":[-8.45085,41.37309]},"properties":{"osm_type":"node","osm_id":13891957923,"country":"PT","name":null,"operator":"E-REDES","wikidata":null,"wikipedia":null}},{"type":"Feature","geometry":{"type":"Point","coordinates":[-8.47328,41.34187]},"properties":{"osm_type":"node","osm_id":13891957925,"country":"PT","name":null,"operator":"E-REDES","wikidata":null,"wikipedia":null}},{"type":"Feature","geometry":{"type":"Point","coordinates":[-8.47481,41.34565]},"properties":{"osm_type":"node","osm_id":13891957928,"country":"PT","name":null,"operator":"E-REDES","wikidata":null,"wikipedia":null}},{"type":"Feature","geometry":{"type":"Point","coordinates":[-8.46257,41.27192]},"properties":{"osm_type":"node","osm_id":13891957930,"country":"PT","name":null,"operator":"E-REDES","wikidata":null,"wikipedia":null}},{"type":"Feature","geometry":{"type":"Point","coordinates":[-8.40392,41.36966]},"properties":{"osm_type":"node","osm_id":13891957933,"country":"PT","name":null,"operator":"E-REDES","wikidata":null,"wikipedia":null}},{"type":"Feature","geometry":{"type":"Point","coordinates":[-8.39806,41.36366]},"properties":{"osm_type":"node","osm_id":13891957935,"country":"PT","name":null,"operator":"E-REDES","wikidata":null,"wikipedia":null}},{"type":"Feature","geometry":{"type":"Point","coordinates":[-8.44794,41.35227]},"properties":{"osm_type":"node","osm_id":13891957938,"country":"PT","name":null,"operator":"E-REDES","wikidata":null,"wikipedia":null}},{"type":"Feature","geometry":{"type":"Point","coordinates":[-8.40394,41.36239]},"properties":{"osm_type":"node","osm_id":13891957940,"country":"PT","name":null,"operator":"E-REDES","wikidata":null,"wikipedia":null}},{"type":"Feature","geometry":{"type":"Point","coordinates":[-8.50118,41.27519]},"properties":{"osm_type":"node","osm_id":13891957942,"country":"PT","name":null,"operator":"E-REDES","wikidata":null,"wikipedia":null}},{"type":"Feature","geometry":{"type":"Point","coordinates":[-8.39147,41.36238]},"properties":{"osm_type":"node","osm_id":13891957943,"country":"PT","name":null,"operator":"E-REDES","wikidata":null,"wikipedia":null}},{"type":"Feature","geometry":{"type":"Point","coordinates":[-8.36793,41.36168]},"properties":{"osm_type":"node","osm_id":13891957947,"country":"PT","name":null,"operator":"E-REDES","wikidata":null,"wikipedia":null}},{"type":"Feature","geometry":{"type":"Point","coordinates":[-8.46795,41.27159]},"properties":{"osm_type":"node","osm_id":13891957951,"country":"PT","name":null,"operator":"E-REDES","wikidata":null,"wikipedia":null}},{"type":"Feature","geometry":{"type":"Point","coordinates":[-8.49881,41.2638]},"properties":{"osm_type":"node","osm_id":13891957952,"country":"PT","name":null,"operator":"E-REDES","wikidata":null,"wikipedia":null}},{"type":"Feature","geometry":{"type":"Point","coordinates":[-8.46597,41.27116]},"properties":{"osm_type":"node","osm_id":13891957953,"country":"PT","name":null,"operator":"E-REDES","wikidata":null,"wikipedia":null}},{"type":"Feature","geometry":{"type":"Point","coordinates":[-8.46921,41.26088]},"properties":{"osm_type":"node","osm_id":13891957957,"country":"PT","name":null,"operator":"E-REDES","wikidata":null,"wikipedia":null}},{"type":"Feature","geometry":{"type":"Point","coordinates":[-8.3987,41.35777]},"properties":{"osm_type":"node","osm_id":13891957962,"country":"PT","name":null,"operator":"E-REDES","wikidata":null,"wikipedia":null}},{"type":"Feature","geometry":{"type":"Point","coordinates":[-8.35606,41.35984]},"properties":{"osm_type":"node","osm_id":13891957963,"country":"PT","name":null,"operator":"E-REDES","wikidata":null,"wikipedia":null}},{"type":"Feature","geometry":{"type":"Point","coordinates":[-8.40239,41.359]},"properties":{"osm_type":"node","osm_id":13891957964,"country":"PT","name":null,"operator":"E-REDES","wikidata":null,"wikipedia":null}},{"type":"Feature","geometry":{"type":"Point","coordinates":[-8.4979,41.27938]},"properties":{"osm_type":"node","osm_id":13891957966,"country":"PT","name":null,"operator":"E-REDES","wikidata":null,"wikipedia":null}},{"type":"Feature","geometry":{"type":"Point","coordinates":[-8.40522,41.36107]},"properties":{"osm_type":"node","osm_id":13891957969,"country":"PT","name":null,"operator":"E-REDES","wikidata":null,"wikipedia":null}},{"type":"Feature","geometry":{"type":"Point","coordinates":[-8.48025,41.25794]},"properties":{"osm_type":"node","osm_id":13891957972,"country":"PT","name":null,"operator":"E-REDES","wikidata":null,"wikipedia":null}},{"type":"Feature","geometry":{"type":"Point","coordinates":[-9.17438,38.66159]},"properties":{"osm_type":"node","osm_id":13924003546,"country":"PT","name":"Posto de Corte do Almada Forum","operator":"E-REDES","wikidata":null,"wikipedia":null}},{"type":"Feature","geometry":{"type":"Point","coordinates":[-9.16175,38.76097]},"properties":{"osm_type":"node","osm_id":13924003618,"country":"PT","name":"PS Estádio José Alvalade","operator":"E-REDES","wikidata":null,"wikipedia":null}},{"type":"Feature","geometry":{"type":"Point","coordinates":[-9.16922,38.66948]},"properties":{"osm_type":"node","osm_id":14250601998,"country":"PT","name":null,"operator":null,"wikidata":null,"wikipedia":null}},{"type":"Feature","geometry":{"type":"Point","coordinates":[-9.15824,38.67489]},"properties":{"osm_type":"node","osm_id":14250601999,"country":"PT","name":null,"operator":null,"wikidata":null,"wikipedia":null}},{"type":"Feature","geometry":{"type":"Point","coordinates":[-9.15562,38.67372]},"properties":{"osm_type":"node","osm_id":14250604413,"country":"PT","name":null,"operator":null,"wikidata":null,"wikipedia":null}}]}