{"type":"FeatureCollection","features":[{"type":"Feature","geometry":{"type":"Point","coordinates":[-4.06632,40.74571]},"properties":{"osm_type":"node","osm_id":298286355,"country":"ES","name":null,"operator":null,"wikidata":null,"wikipedia":null}},{"type":"Feature","geometry":{"type":"Point","coordinates":[2.23568,41.64284]},"properties":{"osm_type":"node","osm_id":393719579,"country":"ES","name":null,"operator":null,"wikidata":null,"wikipedia":null}},{"type":"Feature","geometry":{"type":"Point","coordinates":[-5.43379,43.47419]},"properties":{"osm_type":"node","osm_id":442151873,"country":"ES","name":null,"operator":"HC Energía","wikidata":null,"wikipedia":null}},{"type":"Feature","geometry":{"type":"Point","coordinates":[-5.03802,36.46325]},"properties":{"osm_type":"node","osm_id":560940791,"country":"ES","name":null,"operator":null,"wikidata":null,"wikipedia":null}},{"type":"Feature","geometry":{"type":"Point","coordinates":[-6.8858,39.72117]},"properties":{"osm_type":"node","osm_id":668448752,"country":"ES","name":null,"operator":null,"wikidata":null,"wikipedia":null}},{"type":"Feature","geometry":{"type":"Point","coordinates":[2.27166,41.67085]},"properties":{"osm_type":"node","osm_id":1024921390,"country":"ES","name":null,"operator":null,"wikidata":null,"wikipedia":null}},{"type":"Feature","geometry":{"type":"Point","coordinates":[-6.88527,39.71175]},"properties":{"osm_type":"node","osm_id":1094617755,"country":"ES","name":null,"operator":null,"wikidata":null,"wikipedia":null}},{"type":"Feature","geometry":{"type":"Point","coordinates":[-6.88029,39.71754]},"properties":{"osm_type":"node","osm_id":1095049481,"country":"ES","name":null,"operator":null,"wikidata":null,"wikipedia":null}},{"type":"Feature","geometry":{"type":"Point","coordinates":[-6.88159,39.71507]},"properties":{"osm_type":"node","osm_id":1095049546,"country":"ES","name":null,"operator":null,"wikidata":null,"wikipedia":null}},{"type":"Feature","geometry":{"type":"Point","coordinates":[-2.17499,42.90009]},"properties":{"osm_type":"node","osm_id":1191310877,"country":"ES","name":null,"operator":null,"wikidata":null,"wikipedia":null}},{"type":"Feature","geometry":{"type":"Point","coordinates":[2.08985,41.4478]},"properties":{"osm_type":"node","osm_id":1410066390,"country":"ES","name":null,"operator":null,"wikidata":null,"wikipedia":null}},{"type":"Feature","geometry":{"type":"Point","coordinates":[2.08732,41.45871]},"properties":{"osm_type":"node","osm_id":1410066427,"country":"ES","name":null,"operator":null,"wikidata":null,"wikipedia":null}},{"type":"Feature","geometry":{"type":"Point","coordinates":[-8.49399,43.35735]},"properties":{"osm_type":"node","osm_id":1706417866,"country":"ES","name":null,"operator":null,"wikidata":null,"wikipedia":null}},{"type":"Feature","geometry":{"type":"Point","coordinates":[-8.47695,43.35007]},"properties":{"osm_type":"node","osm_id":1711832505,"country":"ES","name":null,"operator":null,"wikidata":null,"wikipedia":null}},{"type":"Feature","geometry":{"type":"Point","coordinates":[-8.45875,43.34662]},"properties":{"osm_type":"node","osm_id":1719702389,"country":"ES","name":null,"operator":null,"wikidata":null,"wikipedia":null}},{"type":"Feature","geometry":{"type":"Point","coordinates":[-8.45879,43.34655]},"properties":{"osm_type":"node","osm_id":1719702399,"country":"ES","name":null,"operator":null,"wikidata":null,"wikipedia":null}},{"type":"Feature","geometry":{"type":"Point","coordinates":[-8.45273,43.32855]},"properties":{"osm_type":"node","osm_id":1723283524,"country":"ES","name":null,"operator":null,"wikidata":null,"wikipedia":null}},{"type":"Feature","geometry":{"type":"Point","coordinates":[-0.60073,39.32894]},"properties":{"osm_type":"node","osm_id":1770120375,"country":"ES","name":null,"operator":null,"wikidata":null,"wikipedia":null}},{"type":"Feature","geometry":{"type":"Point","coordinates":[-5.85458,40.05231]},"properties":{"osm_type":"node","osm_id":2100265841,"country":"ES","name":null,"operator":null,"wikidata":null,"wikipedia":null}},{"type":"Feature","geometry":{"type":"Point","coordinates":[-4.02056,40.72502]},"properties":{"osm_type":"node","osm_id":2105859369,"country":"ES","name":null,"operator":null,"wikidata":null,"wikipedia":null}},{"type":"Feature","geometry":{"type":"Point","coordinates":[-4.0075,40.73122]},"properties":{"osm_type":"node","osm_id":2105859370,"country":"ES","name":null,"operator":null,"wikidata":null,"wikipedia":null}},{"type":"Feature","geometry":{"type":"Point","coordinates":[-4.01102,40.72898]},"properties":{"osm_type":"node","osm_id":2105859372,"country":"ES","name":null,"operator":null,"wikidata":null,"wikipedia":null}},{"type":"Feature","geometry":{"type":"Point","coordinates":[-4.01898,40.72868]},"properties":{"osm_type":"node","osm_id":2105859374,"country":"ES","name":null,"operator":null,"wikidata":null,"wikipedia":null}},{"type":"Feature","geometry":{"type":"Point","coordinates":[-4.00301,40.73325]},"properties":{"osm_type":"node","osm_id":2105859375,"country":"ES","name":null,"operator":null,"wikidata":null,"wikipedia":null}},{"type":"Feature","geometry":{"type":"Point","coordinates":[-3.99974,40.73103]},"properties":{"osm_type":"node","osm_id":2112385500,"country":"ES","name":null,"operator":null,"wikidata":null,"wikipedia":null}},{"type":"Feature","geometry":{"type":"Point","coordinates":[-3.9952,40.7327]},"properties":{"osm_type":"node","osm_id":2112385603,"country":"ES","name":null,"operator":null,"wikidata":null,"wikipedia":null}},{"type":"Feature","geometry":{"type":"Point","coordinates":[-8.37839,43.15021]},"properties":{"osm_type":"node","osm_id":2137848522,"country":"ES","name":null,"operator":null,"wikidata":null,"wikipedia":null}},{"type":"Feature","geometry":{"type":"Point","coordinates":[-3.44804,40.4612]},"properties":{"osm_type":"node","osm_id":2144825905,"country":"ES","name":"Subestación eléctrica","operator":null,"wikidata":null,"wikipedia":null}},{"type":"Feature","geometry":{"type":"Point","coordinates":[-8.31234,43.21103]},"properties":{"osm_type":"node","osm_id":2166216705,"country":"ES","name":null,"operator":null,"wikidata":null,"wikipedia":null}},{"type":"Feature","geometry":{"type":"Point","coordinates":[-8.44322,43.3301]},"properties":{"osm_type":"node","osm_id":2240422207,"country":"ES","name":null,"operator":null,"wikidata":null,"wikipedia":null}},{"type":"Feature","geometry":{"type":"Point","coordinates":[-8.45337,43.32647]},"properties":{"osm_type":"node","osm_id":2240431912,"country":"ES","name":null,"operator":null,"wikidata":null,"wikipedia":null}},{"type":"Feature","geometry":{"type":"Point","coordinates":[-8.42486,43.34616]},"properties":{"osm_type":"node","osm_id":2280653723,"country":"ES","name":null,"operator":null,"wikidata":null,"wikipedia":null}},{"type":"Feature","geometry":{"type":"Point","coordinates":[-8.49455,43.31903]},"properties":{"osm_type":"node","osm_id":2286767418,"country":"ES","name":null,"operator":null,"wikidata":null,"wikipedia":null}},{"type":"Feature","geometry":{"type":"Point","coordinates":[-8.21813,43.01534]},"properties":{"osm_type":"node","osm_id":2306773616,"country":"ES","name":null,"operator":null,"wikidata":null,"wikipedia":null}},{"type":"Feature","geometry":{"type":"Point","coordinates":[-7.86171,43.4446]},"properties":{"osm_type":"node","osm_id":2308617130,"country":"ES","name":null,"operator":null,"wikidata":null,"wikipedia":null}},{"type":"Feature","geometry":{"type":"Point","coordinates":[-7.86303,43.44454]},"properties":{"osm_type":"node","osm_id":2308617249,"country":"ES","name":null,"operator":null,"wikidata":null,"wikipedia":null}},{"type":"Feature","geometry":{"type":"Point","coordinates":[-7.86216,43.4445]},"properties":{"osm_type":"node","osm_id":2308617256,"country":"ES","name":null,"operator":null,"wikidata":null,"wikipedia":null}},{"type":"Feature","geometry":{"type":"Point","coordinates":[-8.26862,43.4706]},"properties":{"osm_type":"node","osm_id":2313636267,"country":"ES","name":null,"operator":null,"wikidata":null,"wikipedia":null}},{"type":"Feature","geometry":{"type":"Point","coordinates":[2.41901,41.58676]},"properties":{"osm_type":"node","osm_id":2990600952,"country":"ES","name":null,"operator":null,"wikidata":null,"wikipedia":null}},{"type":"Feature","geometry":{"type":"Point","coordinates":[2.79379,42.09362]},"properties":{"osm_type":"node","osm_id":3121051859,"country":"ES","name":null,"operator":null,"wikidata":null,"wikipedia":null}},{"type":"Feature","geometry":{"type":"Point","coordinates":[-4.13509,40.58808]},"properties":{"osm_type":"node","osm_id":3165696753,"country":"ES","name":null,"operator":null,"wikidata":null,"wikipedia":null}},{"type":"Feature","geometry":{"type":"Point","coordinates":[-4.12606,40.5841]},"properties":{"osm_type":"node","osm_id":3165696754,"country":"ES","name":null,"operator":null,"wikidata":null,"wikipedia":null}},{"type":"Feature","geometry":{"type":"Point","coordinates":[2.80413,42.09694]},"properties":{"osm_type":"node","osm_id":4159745134,"country":"ES","name":null,"operator":null,"wikidata":null,"wikipedia":null}},{"type":"Feature","geometry":{"type":"Point","coordinates":[-5.83585,39.51818]},"properties":{"osm_type":"node","osm_id":4703696907,"country":"ES","name":null,"operator":null,"wikidata":null,"wikipedia":null}},{"type":"Feature","geometry":{"type":"Point","coordinates":[-6.24194,38.78417]},"properties":{"osm_type":"node","osm_id":4706580751,"country":"ES","name":null,"operator":null,"wikidata":null,"wikipedia":null}},{"type":"Feature","geometry":{"type":"Point","coordinates":[-1.11973,41.76813]},"properties":{"osm_type":"node","osm_id":5327584300,"country":"ES","name":null,"operator":null,"wikidata":null,"wikipedia":null}},{"type":"Feature","geometry":{"type":"Point","coordinates":[-8.41518,43.3611]},"properties":{"osm_type":"node","osm_id":5351375463,"country":"ES","name":null,"operator":"Gas Natural Fenosa","wikidata":null,"wikipedia":null}},{"type":"Feature","geometry":{"type":"Point","coordinates":[-7.68543,42.41636]},"properties":{"osm_type":"node","osm_id":5604893872,"country":"ES","name":null,"operator":"Union Fenosa","wikidata":null,"wikipedia":null}},{"type":"Feature","geometry":{"type":"Point","coordinates":[-3.08208,41.83634]},"properties":{"osm_type":"node","osm_id":6490801671,"country":"ES","name":null,"operator":null,"wikidata":null,"wikipedia":null}},{"type":"Feature","geometry":{"type":"Point","coordinates":[-7.85659,42.34412]},"properties":{"osm_type":"node","osm_id":6953509924,"country":"ES","name":null,"operator":null,"wikidata":null,"wikipedia":null}},{"type":"Feature","geometry":{"type":"Point","coordinates":[2.19189,42.20349]},"properties":{"osm_type":"node","osm_id":7351275009,"country":"ES","name":null,"operator":null,"wikidata":null,"wikipedia":null}},{"type":"Feature","geometry":{"type":"Point","coordinates":[2.19384,42.20147]},"properties":{"osm_type":"node","osm_id":7351275093,"country":"ES","name":null,"operator":null,"wikidata":null,"wikipedia":null}},{"type":"Feature","geometry":{"type":"Point","coordinates":[2.81847,42.10746]},"properties":{"osm_type":"node","osm_id":7390291859,"country":"ES","name":null,"operator":null,"wikidata":null,"wikipedia":null}},{"type":"Feature","geometry":{"type":"Point","coordinates":[2.70577,42.18434]},"properties":{"osm_type":"node","osm_id":7390351346,"country":"ES","name":null,"operator":null,"wikidata":null,"wikipedia":null}},{"type":"Feature","geometry":{"type":"Point","coordinates":[-8.4504,43.32621]},"properties":{"osm_type":"node","osm_id":8807864489,"country":"ES","name":null,"operator":null,"wikidata":null,"wikipedia":null}},{"type":"Feature","geometry":{"type":"Point","coordinates":[-4.02839,39.86034]},"properties":{"osm_type":"node","osm_id":9741600169,"country":"ES","name":"CT Diputacion","operator":null,"wikidata":null,"wikipedia":null}},{"type":"Feature","geometry":{"type":"Point","coordinates":[-4.02855,39.86022]},"properties":{"osm_type":"node","osm_id":9741600171,"country":"ES","name":"CT Plaza Merced","operator":null,"wikidata":null,"wikipedia":null}},{"type":"Feature","geometry":{"type":"Point","coordinates":[0.21874,42.63495]},"properties":{"osm_type":"node","osm_id":10042868855,"country":"ES","name":null,"operator":null,"wikidata":null,"wikipedia":null}},{"type":"Feature","geometry":{"type":"Point","coordinates":[-3.83273,43.42296]},"properties":{"osm_type":"node","osm_id":10091850238,"country":"ES","name":null,"operator":null,"wikidata":null,"wikipedia":null}},{"type":"Feature","geometry":{"type":"Point","coordinates":[-3.83133,43.417]},"properties":{"osm_type":"node","osm_id":10091850259,"country":"ES","name":null,"operator":null,"wikidata":null,"wikipedia":null}},{"type":"Feature","geometry":{"type":"Point","coordinates":[-3.76725,43.40094]},"properties":{"osm_type":"node","osm_id":10116161300,"country":"ES","name":null,"operator":"Viesgo","wikidata":null,"wikipedia":null}},{"type":"Feature","geometry":{"type":"Point","coordinates":[-3.76828,43.39701]},"properties":{"osm_type":"node","osm_id":10128093980,"country":"ES","name":null,"operator":null,"wikidata":null,"wikipedia":null}},{"type":"Feature","geometry":{"type":"Point","coordinates":[-3.76357,43.39189]},"properties":{"osm_type":"node","osm_id":10128150267,"country":"ES","name":null,"operator":null,"wikidata":null,"wikipedia":null}},{"type":"Feature","geometry":{"type":"Point","coordinates":[-3.73442,43.39826]},"properties":{"osm_type":"node","osm_id":10148340750,"country":"ES","name":null,"operator":null,"wikidata":null,"wikipedia":null}},{"type":"Feature","geometry":{"type":"Point","coordinates":[-3.78558,43.39057]},"properties":{"osm_type":"node","osm_id":10151220228,"country":"ES","name":null,"operator":null,"wikidata":null,"wikipedia":null}},{"type":"Feature","geometry":{"type":"Point","coordinates":[-8.97514,42.6486]},"properties":{"osm_type":"node","osm_id":11132454507,"country":"ES","name":null,"operator":null,"wikidata":null,"wikipedia":null}},{"type":"Feature","geometry":{"type":"Point","coordinates":[-6.17089,39.95916]},"properties":{"osm_type":"node","osm_id":11172715716,"country":"ES","name":null,"operator":null,"wikidata":null,"wikipedia":null}},{"type":"Feature","geometry":{"type":"Point","coordinates":[-2.90554,43.2354]},"properties":{"osm_type":"node","osm_id":11290239117,"country":"ES","name":null,"operator":null,"wikidata":null,"wikipedia":null}},{"type":"Feature","geometry":{"type":"Point","coordinates":[-1.99541,43.0114]},"properties":{"osm_type":"node","osm_id":11522501326,"country":"ES","name":null,"operator":null,"wikidata":null,"wikipedia":null}},{"type":"Feature","geometry":{"type":"Point","coordinates":[-6.53189,42.75874]},"properties":{"osm_type":"node","osm_id":11569824610,"country":"ES","name":null,"operator":null,"wikidata":null,"wikipedia":null}},{"type":"Feature","geometry":{"type":"Point","coordinates":[2.2688,41.9491]},"properties":{"osm_type":"node","osm_id":11582561659,"country":"ES","name":null,"operator":null,"wikidata":null,"wikipedia":null}},{"type":"Feature","geometry":{"type":"Point","coordinates":[2.26921,41.94747]},"properties":{"osm_type":"node","osm_id":11725932444,"country":"ES","name":null,"operator":null,"wikidata":null,"wikipedia":null}},{"type":"Feature","geometry":{"type":"Point","coordinates":[-6.87871,39.71996]},"properties":{"osm_type":"node","osm_id":11838897188,"country":"ES","name":null,"operator":null,"wikidata":null,"wikipedia":null}},{"type":"Feature","geometry":{"type":"Point","coordinates":[-0.51186,42.09928]},"properties":{"osm_type":"node","osm_id":12479903064,"country":"ES","name":"SET San Isidro","operator":null,"wikidata":null,"wikipedia":null}},{"type":"Feature","geometry":{"type":"Point","coordinates":[-1.56186,38.23041]},"properties":{"osm_type":"node","osm_id":13398530816,"country":"ES","name":null,"operator":null,"wikidata":null,"wikipedia":null}},{"type":"Feature","geometry":{"type":"Point","coordinates":[-1.55939,38.23439]},"properties":{"osm_type":"node","osm_id":13398530817,"country":"ES","name":null,"operator":null,"wikidata":null,"wikipedia":null}},{"type":"Feature","geometry":{"type":"Point","coordinates":[-8.44066,43.33144]},"properties":{"osm_type":"node","osm_id":14093108870,"country":"ES","name":null,"operator":null,"wikidata":null,"wikipedia":null}},{"type":"Feature","geometry":{"type":"Point","coordinates":[-8.44039,43.33146]},"properties":{"osm_type":"node","osm_id":14247427513,"country":"ES","name":null,"operator":null,"wikidata":null,"wikipedia":null}},{"type":"Feature","geometry":{"type":"Point","coordinates":[-8.44051,43.33145]},"properties":{"osm_type":"node","osm_id":14247427514,"country":"ES","name":null,"operator":null,"wikidata":null,"wikipedia":null}}]}